Short_Name,School_ID,the_geom,Address,Zip,Lat,Long,Network,Governance,Grade_Cat,Grades,Phone,GeoNetwork,COMMAREA,WARD_15,ALD_15
GLOBAL CITIZENSHIP,400009,POINT (-87.7400974361456 41.80757850716726),4647 W 47th St,60632,41.807579,-87.740097,Charter,Charter,ES,"K, 1, 2, 3, 4, 5, 6, 7, 8",1(773)582-1100,8,GARFIELD RIDGE,14,Edward M. Burke
ACE TECH HS,400010,POINT (-87.6258490370775 41.79612150915272),5410 S State St,60609,41.796122,-87.625849,Charter,Charter,HS,"9, 10, 11, 12",1(773)548-8705,9,WASHINGTON PARK,3,Patricia R. Dowell
LOCKE A,400011,POINT (-87.70523452626735 41.87724835217878),3141 W Jackson Blvd,60612,41.877248,-87.705235,Charter,Charter,ES,"K, 1, 2, 3, 4, 5, 6, 7, 8",1(773)265-7232,5,EAST GARFIELD PARK,28,Jason C. Ervin
AMANDLA HS,400012,POINT (-87.63547156927478 41.77080225409796),6800 S Stewart Ave,60621,41.770802,-87.635472,Charter,Charter,HS,"5, 6, 7, 8, 9, 10, 11, 12",1(773)535-7150,11,ENGLEWOOD,6,Roderick T. Sawyer
ASPIRA - EARLY COLLEGE HS,400013,POINT (-87.72709565821633 41.93729828458827),3986 W Barry Ave,60618,41.937298,-87.727096,Charter,Charter,HS,"9, 10, 11, 12",1(773)252-0970 x137,4,AVONDALE,30,Ariel E. Reboyras
ASPIRA - HAUGAN,400017,POINT (-87.72182466558868 41.96640566728407),3729 W Leland Ave,60625,41.966406,-87.721825,Charter,Charter,ES,"6, 7, 8",1(773)252-0970,1,ALBANY PARK,35,Rey Colon
AUSTIN BUS & ENTRP HS,400018,POINT (-87.76189101689764 41.88420467132072),231 N Pine Ave,60644,41.884205,-87.761891,Network 3,District,HS,"9, 10, 11, 12",1(773)534-6316,3,AUSTIN,28,Jason C. Ervin
BRONZEVILLE LIGHTHOUSE,400019,POINT (-87.6266218014815 41.819276610409645),8 W Root St,60609,41.819277,-87.626622,Charter,Charter,ES,"K, 1, 2, 3, 4, 5, 6, 7, 8",1(773)535-1460,9,GRAND BOULEVARD,3,Patricia R. Dowell
CATALYST - CIRCLE ROCK,400021,POINT (-87.76532197834973 41.882322220692345),5608 W Washington Blvd,60644,41.882322,-87.765322,Charter,Charter,ES,"K, 1, 2, 3, 4, 5, 6, 7, 8",1(773)945-5025,3,AUSTIN,29,Deborah L. Graham
CHICAGO ARTS HS,400022,POINT (-87.6949450113285 41.89937657282699),2714 W Augusta Blvd,60622,41.899377,-87.694945,Contract,Contract,HS,"9, 10, 11, 12",1(773)534-9710,5,WEST TOWN,26,Roberto Maldonado
CICS - AVALON/SOUTH SHORE,400023,POINT (-87.5879276410776 41.743179420034345),1501 E 83rd Pl,60619,41.743179,-87.587928,Charter,Charter,ES,"K, 1, 2, 3, 4, 5, 6, 7, 8",1(773)721-0858,12,AVALON PARK,8,Michelle A. Harris
CICS - BASIL,400024,POINT (-87.6702426574399 41.79404286329775),1816 W Garfield Blvd,60609,41.794043,-87.670243,Charter,Charter,ES,"K, 1, 2, 3, 4, 5, 6, 7, 8",1(773)778-9455,11,NEW CITY,16,JoAnn Thompson
CICS - BUCKTOWN,400025,POINT (-87.68135796458323 41.92241462943599),2235 N Hamilton Ave,60647,41.922415,-87.681358,Charter,Charter,ES,"K, 1, 2, 3, 4, 5, 6, 7, 8",1(773)645-3321,6,LOGAN SQUARE,32,Scott Waguespack
CICS - LOOMIS,400026,POINT (-87.6575610581317 41.720246422855304),9535 S Loomis St,60643,41.720246,-87.657561,Charter,Charter,ES,"K, 1, 2",1(773)429-8955,11,WASHINGTON HEIGHTS,21,"Howard B. Brookins, Jr."
CICS - IRVING PARK,400027,POINT (-87.71049242869645 41.95089127442423),3820 N Spaulding Ave,60618,41.950891,-87.710492,Charter,Charter,ES,"K, 1, 2, 3, 4, 5, 6, 7, 8",1(773)433-5000,1,IRVING PARK,33,Deborah Mell
CICS - PRAIRIE,400028,POINT (-87.6168883820636 41.68443303827316),11530 S Prairie Ave,60628,41.684433,-87.616888,Charter,Charter,ES,"K, 1, 2, 3, 4, 5, 6, 7, 8",1(773)928-0480,13,WEST PULLMAN,9,Anthony A. Beale
CICS - WASHINGTON PARK,400029,POINT (-87.62206845449438 41.78361684616195),6105 S Michigan Ave,60637,41.783617,-87.622068,Charter,Charter,ES,"K, 1, 2, 3, 4, 5, 6, 7, 8",1(773)324-3300,9,WASHINGTON PARK,20,Willie B. Cochran
CICS - WEST BELDEN,400030,POINT (-87.77674853907737 41.921687494805006),2245 N McVicker Ave,60639,41.921687,-87.776749,Charter,Charter,ES,"K, 1, 2, 3, 4, 5, 6, 7, 8",1(773)637-9430,3,BELMONT CRAGIN,36,Nicholas Sposato
CICS - WRIGHTWOOD,400031,POINT (-87.69261439899655 41.74536545022764),8130 S California Ave,60652,41.745365,-87.692614,Charter,Charter,ES,"K, 1, 2, 3, 4, 5, 6, 7, 8",1(773)434-4575,10,ASHBURN,18,Lona Lane
CICS - ELLISON HS,400032,POINT (-87.66897963928055 41.7483824079856),1817 W 80th St,60620,41.748382,-87.66898,Charter,Charter,HS,"9, 10, 11, 12",1(773)478-4434,11,AUBURN GRESHAM,17,Latasha R. Thomas
CICS - LONGWOOD,400033,POINT (-87.65576813290534 41.72122143249401),1309 W 95th St,60643,41.721221,-87.655768,Charter,Charter,HS,"3, 4, 5, 6, 7, 8, 9, 10, 11, 12",1(773)238-5330,11,WASHINGTON HEIGHTS,21,"Howard B. Brookins, Jr."
CICS - NORTHTOWN HS,400034,POINT (-87.7265042643701 41.99024501112797),3900 W Peterson Ave,60659,41.990245,-87.726504,Charter,Charter,HS,"9, 10, 11, 12",1(773)478-3655,1,NORTH PARK,39,Margaret Laurino
CHICAGO MATH & SCIENCE HS,400035,POINT (-87.674818417881 42.01303148922014),7212 N Clark St,60626,42.013031,-87.674818,Charter,Charter,HS,"6, 7, 8, 9, 10, 11, 12",1(773)761-8960,2,ROGERS PARK,49,Joe A. Moore
CHICAGO VIRTUAL,400036,POINT (-87.64977248488717 41.88055011166055),38 S Peoria St,60607,41.88055,-87.649772,Charter,Charter,HS,"K, 1, 2, 3, 4, 5, 6, 7, 8, 9, 10, 11, 12",1(312)267-4486,6,NEAR WEST SIDE,25,Daniel S. Solis
COMMUNITY SERVICES WEST HS,400038,POINT (-87.72502202021961 41.86495225895573),1239 S Pulaski Rd,60623,41.864952,-87.725022,Options,Contract,HS,"11, 12",1(773)522-5133,5,NORTH LAWNDALE,24,Michael D. Chandler
ERIE,400039,POINT (-87.69436444554765 41.90677063462042),1405 N Washtenaw Ave,60622,41.906771,-87.694364,Charter,Charter,ES,"K, 1, 2, 3, 4, 5, 6, 7, 8",1(773)486-7161,5,WEST TOWN,1,Proco (Joe) Moreno III
FRAZIER CHARTER,400040,POINT (-87.71764197612555 41.86207686339486),3711 W Douglas Blvd,60624,41.862077,-87.717642,Charter,Charter,ES,"K, 1, 2, 3, 4, 5, 6, 7, 8",1(773)534-6776,5,NORTH LAWNDALE,24,Michael D. Chandler
GALAPAGOS,400041,POINT (-87.72195903871022 41.89731302422711),3814 W Iowa St,60651,41.897313,-87.721959,Charter,Charter,ES,"K, 1, 2, 3, 4, 5, 6, 7, 8",1(773)384-9400,5,HUMBOLDT PARK,27,"Walter Burnett, Jr."
HOPE INSTITUTE,400043,POINT (-87.66807694586895 41.883362026352174),1628 W Washington,60612,41.883362,-87.668077,Contract,Contract,ES,"K, 1, 2, 3, 4, 5",1(773)534-7405,6,NEAR WEST SIDE,27,"Walter Burnett, Jr."
KIPP - ASCEND,400044,POINT (-87.72107064667848 41.85836974325148),1616 S Avers Ave,60623,41.85837,-87.721071,Charter,Charter,ES,"6, 7, 8",1(773)521-4766,5,NORTH LAWNDALE,24,Michael D. Chandler
NKRUMAH,400045,POINT (-87.6310581484369 41.69804048768888),314 W 108th St,60628,41.69804,-87.631058,Charter,Charter,ES,"K, 1, 2, 3, 4, 5, 6, 7, 8",1(773)568-8000,13,ROSELAND,34,Carrie M. Austin
LEARN - BUTLER,400046,POINT (-87.71067948018276 41.867272713446),1132 S Homan Ave,60624,41.867273,-87.710679,Charter,Charter,ES,"K, 1, 2, 3, 4, 5, 6, 7, 8",1(773)826-6330,5,NORTH LAWNDALE,24,Michael D. Chandler
LEARN - CAMPBELL,400047,POINT (-87.69873872021792 41.8778606308216),212 S Francisco Ave,60612,41.877861,-87.698739,Charter,Charter,ES,"K, 1, 2, 3, 4, 5",1(773)826-0370,5,EAST GARFIELD PARK,27,"Walter Burnett, Jr."
LEARN - EXCEL,400048,POINT (-87.68656837092625 41.874687140382775),2401 W Congress Pkwy,60612,41.874687,-87.686568,Charter,Charter,ES,"K, 1, 2, 3, 4, 5",1(312)243-7001,6,NEAR WEST SIDE,28,Jason C. Ervin
LEGACY,400049,POINT (-87.73034814818169 41.85685915778028),4217 W 18th St,60623,41.856859,-87.730348,Charter,Charter,ES,"K, 1, 2, 3, 4, 5, 6, 7, 8",1(773)542-1640,5,NORTH LAWNDALE,24,Michael D. Chandler
NAMASTE,400050,POINT (-87.66772404315803 41.82569975919439),3737 S Paulina St,60609,41.8257,-87.667724,Charter,Charter,ES,"K, 1, 2, 3, 4, 5, 6, 7, 8",1(773)715-9558,8,MCKINLEY PARK,12,George A. Cardenas
NOBLE - NOBLE HS,400051,POINT (-87.66262778167372 41.90019052021951),1010 N Noble St,60642,41.900191,-87.662628,Charter,Charter,HS,"9, 10, 11, 12",1(773)862-1449,6,WEST TOWN,2,Bob Fioretti
NOBLE - COMER HS,400052,POINT (-87.60197357257634 41.76408299254324),7200 S Ingleside Ave,60619,41.764083,-87.601974,Charter,Charter,HS,"6, 7, 8, 9, 10, 11, 12",1(773)729-3969,12,GREATER GRAND CROSSING,5,Leslie A. Hairston
NOBLE - GOLDER HS,400053,POINT (-87.6644829982708 41.89528219351542),1454 W Superior St,60642,41.895282,-87.664483,Charter,Charter,HS,"9, 10, 11, 12",1(312)265-9925,6,WEST TOWN,27,"Walter Burnett, Jr."
NOBLE - PRITZKER HS,400054,POINT (-87.73012671512001 41.915214106291515),4131 W Cortland Ave,60639,41.915214,-87.730127,Charter,Charter,HS,"9, 10, 11, 12",1(773)394-2848,4,HERMOSA,35,Rey Colon
NOBLE - RAUNER HS,400055,POINT (-87.66085887019145 41.89242501192071),1337 W Ohio St,60642,41.892425,-87.660859,Charter,Charter,HS,"9, 10, 11, 12",1(312)226-5345,6,WEST TOWN,1,Proco (Joe) Moreno III
NOBLE - ROWE CLARK HS,400056,POINT (-87.7180467674582 41.895362257861905),3645 W Chicago Ave,60651,41.895362,-87.718047,Charter,Charter,HS,"9, 10, 11, 12",1(773)242-2212,5,HUMBOLDT PARK,27,"Walter Burnett, Jr."
NOBLE - UIC HS,400057,POINT (-87.67611092929258 41.86581741295497),1231 S Damen Ave,60608,41.865817,-87.676111,Charter,Charter,HS,"9, 10, 11, 12",1(312)768-4858,6,NEAR WEST SIDE,28,Jason C. Ervin
NORTH LAWNDALE - CHRISTIANA HS,400058,POINT (-87.70898711067419 41.85856355371996),1615 S. Christiana Ave.,60623,41.858564,-87.708987,Charter,Charter,HS,"9, 10, 11, 12",1(773)542-1490,5,NORTH LAWNDALE,24,Michael D. Chandler
NORTH LAWNDALE - COLLINS HS,400059,POINT (-87.70068060050889 41.86414584262254),1313 S Sacramento Dr,60623,41.864146,-87.700681,Charter,Charter,HS,"8, 9, 10, 11, 12",1(773)542-6766,5,NORTH LAWNDALE,24,Michael D. Chandler
AHS - PASSAGES,400060,POINT (-87.67116041959915 41.983371435594066),1643 W Bryn Mawr Ave,60660,41.983371,-87.67116,Charter,Charter,ES,"K, 1, 2, 3, 4, 5, 6, 7, 8",1(773)433-3530,2,EDGEWATER,40,Patrick O'Connor
PERSPECTIVES - LEADERSHIP HS,400061,POINT (-87.65204508804683 41.745960831206645),8131 S May St,60620,41.745961,-87.652045,Charter,Charter,HS,"6, 7, 8, 9, 10, 11, 12",1(773)358-6100,11,AUBURN GRESHAM,21,"Howard B. Brookins, Jr."
PERSPECTIVES - TECH HS,400062,POINT (-87.65065702433984 41.74594901871308),8131 S May St,60620,41.745949,-87.650657,Charter,Charter,HS,"9, 10, 11, 12",1(773)358-6120,11,AUBURN GRESHAM,21,"Howard B. Brookins, Jr."
PERSPECTIVES - JOSLIN HS,400064,POINT (-87.62853090127128 41.85599910415865),1930 S Archer Ave,60616,41.855999,-87.628531,Charter,Charter,HS,"6, 7, 8, 9, 10, 11, 12",1(312)225-7400,6,NEAR SOUTH SIDE,3,Patricia R. Dowell
PERSPECTIVES - MATH & SCI HS,400066,POINT (-87.62478772028292 41.82778385667928),3663 S Wabash Ave,60653,41.827784,-87.624788,Charter,Charter,HS,"6, 7, 8, 9, 10, 11, 12",1(773)358-6800,9,DOUGLAS,3,Patricia R. Dowell
PLATO,400068,POINT (-87.76333693224704 41.872760427950524),5545 W Harrison St,60644,41.87276,-87.763337,Contract,Contract,ES,"K, 1, 2, 3, 4, 5, 6, 7, 8",1(773)413-3090 x111,3,AUSTIN,29,Deborah L. Graham
POLARIS,400069,POINT (-87.70779647434141 41.89255017349458),620 N Sawyer Ave,60624,41.89255,-87.707796,Charter,Charter,ES,"K, 1, 2, 3, 4, 5, 6, 7, 8",1(773)534-0820,5,HUMBOLDT PARK,27,"Walter Burnett, Jr."
PROLOGUE - EARLY COLLEGE HS,400070,POINT (-87.66354080857676 41.90307017915081),1135 N Cleaver St,60622,41.90307,-87.663541,Options,Contract,HS,"9, 10, 11, 12",1(773)935-9925,6,WEST TOWN,27,"Walter Burnett, Jr."
PROVIDENCE ENGLEWOOD,400071,POINT (-87.6639958298005 41.775367367121),6515 S Ashland Ave,60636,41.775367,-87.663996,Charter,Charter,ES,"K, 1, 2, 3, 4, 5, 6, 7, 8",1(773)434-0202,11,WEST ENGLEWOOD,16,JoAnn Thompson
SHABAZZ - SHABAZZ,400072,POINT (-87.60025455370554 41.752458488475774),7823 S Ellis Ave,60619,41.752458,-87.600255,Charter,Charter,ES,"K, 1, 2, 3, 4, 5, 6, 7, 8",1(773)651-1221,12,GREATER GRAND CROSSING,8,Michelle A. Harris
SHABAZZ - DUSABLE HS,400073,POINT (-87.62501515001941 41.80430932611958),4934 S Wabash Ave,60615,41.804309,-87.625015,Charter,Charter,HS,12,1(773)535-1170,9,GRAND BOULEVARD,3,Patricia R. Dowell
SHABAZZ - SIZEMORE,400074,POINT (-87.66763900783317 41.7673901124393),6936 S Hermitage Ave,60636,41.76739,-87.667639,Charter,Charter,ES,"K, 1, 2, 3, 4, 5, 6, 7, 8",1(773)535-9144,11,WEST ENGLEWOOD,17,Latasha R. Thomas
U OF C - DONOGHUE,400075,POINT (-87.60850078074054 41.827726080886215),707 E 37th St,60653,41.827726,-87.608501,Charter,Charter,ES,"K, 1, 2, 3, 4, 5",1(773)285-5301,9,OAKLAND,4,"William ""Will"" D. Burns"
U OF C - NKO,400076,POINT (-87.59878626823252 41.81118286617196),1119 E 46th St,60653,41.811183,-87.598786,Charter,Charter,ES,"K, 1, 2, 3, 4, 5",1(773)536-2399,9,KENWOOD,4,"William ""Will"" D. Burns"
U OF C - WOODLAWN HS,400077,POINT (-87.59811391957531 41.77812969765141),6420 S University Ave,60637,41.77813,-87.598114,Charter,Charter,HS,"6, 7, 8, 9, 10, 11, 12",1(773)752-8101,9,WOODLAWN,20,Willie B. Cochran
U OF C - WOODSON,400078,POINT (-87.60842562201805 41.81354730382042),4444 S Evans Ave,60653,41.813547,-87.608426,Charter,Charter,ES,"6, 7, 8",1(773)624-0700,9,GRAND BOULEVARD,3,Patricia R. Dowell
UNO - ZIZUMBO,400079,POINT (-87.73049511709266 41.81013478659646),4248 W 47th St,60632,41.810135,-87.730495,Charter,Charter,ES,"K, 1, 2, 3, 4, 5, 6, 7, 8",1(773)579-3470 x222,8,ARCHER HEIGHTS,14,Edward M. Burke
UNO - TORRES,400080,POINT (-87.73045044324964 41.80819980590754),4248 W 47th St,60632,41.8082,-87.73045,Charter,Charter,ES,"K, 1, 2, 3, 4, 5, 6, 7, 8",1(773)579-3475,8,ARCHER HEIGHTS,14,Edward M. Burke
UNO - DE LAS CASAS,400081,POINT (-87.66794916939253 41.85950400763012),1641 W 16th St,60608,41.859504,-87.667949,Charter,Charter,ES,"K, 1, 2, 3, 4, 5, 6, 7, 8",1(312)432-3224,7,LOWER WEST SIDE,25,Daniel S. Solis
UNO - FUENTES,400082,POINT (-87.69959365156127 41.937475775349675),2845 W Barry Ave,60618,41.937476,-87.699594,Charter,Charter,ES,"K, 1, 2, 3, 4, 5, 6, 7, 8",1(773)279-9826,4,AVONDALE,33,Deborah Mell
UNO - PAZ,400083,POINT (-87.6925508987193 41.85003541244107),2651 W 23rd St,60608,41.850035,-87.692551,Charter,Charter,ES,"K, 1, 2, 3, 4, 5, 6, 7, 8",1(773)890-1054,7,SOUTH LAWNDALE,24,Michael D. Chandler
UNO - TAMAYO,400084,POINT (-87.69386163597656 41.799930186168076),5135 S California Ave,60632,41.79993,-87.693862,Charter,Charter,ES,"K, 1, 2, 3, 4, 5, 6, 7, 8",1(773)434-6355,8,GAGE PARK,14,Edward M. Burke
UNO - GARCIA HS,400085,POINT (-87.73046684906748 41.809170789108045),4248 W 47th St,60632,41.809171,-87.730467,Charter,Charter,HS,"9, 10, 11, 12",1(773)579-3480 x225,8,ARCHER HEIGHTS,14,Edward M. Burke
URBAN PREP - ENGLEWOOD HS,400086,POINT (-87.63435669188824 41.78149781596477),6201 S Stewart Ave,60621,41.781498,-87.634357,Charter,Charter,HS,"9, 10, 11, 12",1(773)535-9724,11,ENGLEWOOD,20,Willie B. Cochran
YOUNG WOMENS HS,400087,POINT (-87.61872379622207 41.84454380568922),2641 S Calumet Ave,60616,41.844544,-87.618724,Charter,Charter,HS,"8, 9, 10, 11, 12",1(312)949-9400,9,DOUGLAS,4,"William ""Will"" D. Burns"
UNO - MARQUEZ,400089,POINT (-87.69739409676 41.80830882340626),2916 W 47th St,60632,41.808309,-87.697394,Charter,Charter,ES,"K, 1, 2, 3, 4, 5, 6, 7, 8",1(773)321-2200,8,BRIGHTON PARK,15,Toni L. Foulkes
CHICAGO TECH HS,400091,POINT (-87.65909480337876 41.86330140820912),1301 W 14th St,60608,41.863301,-87.659095,Contract,Contract,HS,"9, 10, 11, 12",1(773)534-7755,6,NEAR WEST SIDE,25,Daniel S. Solis
CICS - BOND,400092,POINT (-87.6050391022172 41.653663449591534),13300 S Langley Ave,60827,41.653663,-87.605039,Charter,Charter,ES,"K, 1, 2, 3, 4, 5, 6",1(773)468-1300,13,RIVERDALE,9,Anthony A. Beale
EPIC HS,400094,POINT (-87.55022236992653 41.74484910534052),8255 S Houston Ave,60617,41.744849,-87.550222,Charter,Charter,HS,"9, 10, 11, 12",1(773)535-7930,12,SOUTH CHICAGO,7,Natashia Holmes
ROWE,400096,POINT (-87.66407246833533 41.90779717820805),1424 N Cleaver St,60642,41.907797,-87.664072,Charter,Charter,ES,"K, 1, 2, 3, 4, 5, 6, 7, 8",1(312)445-5870,6,WEST TOWN,2,Bob Fioretti
NOBLE - BULLS HS,400097,POINT (-87.67819526008935 41.87880880820402),2040 W Adams St,60612,41.878809,-87.678195,Charter,Charter,HS,"9, 10, 11, 12",1(773)534-7599,6,NEAR WEST SIDE,27,"Walter Burnett, Jr."
NOBLE - MUCHIN HS,400098,POINT (-87.62633828257938 41.88274025751338),1 N State St,60602,41.88274,-87.626338,Charter,Charter,HS,"9, 10, 11, 12",1(312)445-4680,6,LOOP,42,Brendan M. Reilly
UNO - CISNEROS,400101,POINT (-87.69399616166392 41.8228837408415),2744 W Pershing Rd,60632,41.822884,-87.693996,Charter,Charter,ES,"K, 1, 2, 3, 4, 5, 6, 7, 8",1(312)376-8830,8,BRIGHTON PARK,12,George A. Cardenas
URBAN PREP - WEST HS,400102,POINT (-87.66010654014806 41.86254001900926),1326 W 14th Pl,60608,41.86254,-87.660107,Charter,Charter,HS,"9, 10, 11, 12",1(773)534-8860,6,NEAR WEST SIDE,25,Daniel S. Solis
INSTITUTO - HEALTH,400104,POINT (-87.68724015857727 41.84596658796288),2520 S Western Ave,60608,41.845967,-87.68724,Charter,Charter,HS,"9, 10, 11, 12",1(773)890-8020,7,LOWER WEST SIDE,25,Daniel S. Solis
URBAN PREP - BRONZEVILLE HS,400105,POINT (-87.61362864745674 41.831117530464496),521 E 35th St,60616,41.831118,-87.613629,Charter,Charter,HS,"9, 10, 11, 12",1(773)495-0870,9,DOUGLAS,4,"William ""Will"" D. Burns"
NOBLE - JOHNSON HS,400106,POINT (-87.63511669814089 41.77836949819535),6350 S Stewart Ave,60621,41.778369,-87.635117,Charter,Charter,HS,"9, 10, 11, 12",1(312)348-1888,11,ENGLEWOOD,20,Willie B. Cochran
LEARN - SOUTH CHICAGO,400107,POINT (-87.54557989247587 41.733333132396425),8914 S Buffalo Ave,60617,41.733333,-87.54558,Charter,Charter,ES,"K, 1, 2, 3, 4, 5, 6, 7, 8",1(773)722-8577,12,SOUTH CHICAGO,10,John A. Pope
CICS - HAWKINS HS,400108,POINT (-87.60187328368443 41.6531410568753),801 E 133rd Pl,60827,41.653141,-87.601873,Charter,Charter,HS,"7, 8, 9, 10, 11, 12",1(773)264-0505,13,RIVERDALE,9,Anthony A. Beale
PROLOGUE - JOHNSTON HS,400109,POINT (-87.66147456602064 41.72112619184844),1549 W 95th St,60643,41.721136,-87.662416,Options,Charter,HS,"9, 10, 11, 12",1(773)341-2260,11,WASHINGTON HEIGHTS,21,"Howard B. Brookins, Jr."
LEARN - PERKINS,400111,POINT (-87.6657210550116 41.74312176969033),1700 W 83rd St,60620,41.743122,-87.665721,Charter,Charter,ES,"K, 1, 2, 3, 4, 5, 6, 7",1(773)722-0200,11,AUBURN GRESHAM,21,"Howard B. Brookins, Jr."
UNO - SOCCER ELEM,400112,POINT (-87.70879678374817 41.8010424135067),5050 S Homan Ave,60632,41.801042,-87.708797,Charter,Charter,ES,"K, 1, 2, 3, 4, 5, 6, 7, 8",1(312)455-5450,8,GAGE PARK,14,Edward M. Burke
CICS - CHICAGOQUEST HS,400113,POINT (-87.6455614992365 41.90779679515704),1443 N Ogden Ave,60610,41.907797,-87.645561,Charter,Charter,HS,"6, 7, 8, 9, 10, 11, 12",1(773)565-2100,4,NEAR NORTH SIDE,27,"Walter Burnett, Jr."
UNO - SANTIAGO,400114,POINT (-87.68989562535536 41.900343634538686),2510 W Cortez St,60622,41.900344,-87.689896,Charter,Charter,ES,"K, 1, 2, 3, 4, 5, 6, 7, 8",1(312)455-5410,5,WEST TOWN,1,Proco (Joe) Moreno III
CATALYST - MARIA,400115,POINT (-87.69307532228164 41.77099171830565),6727 S California Ave,60629,41.770992,-87.693075,Charter,Charter,ES,"K, 1, 2, 3, 4, 5, 6, 7, 8, 9, 10, 11, 12",1(773)993-1770,10,CHICAGO LAWN,17,Latasha R. Thomas
MONTESSORI ENGLEWOOD,400116,POINT (-87.6761467270317 41.77457160183466),6550 S Seeley Ave,60636,41.774572,-87.676147,Charter,Charter,ES,"K, 1, 2, 3, 4, 5",1(773)306-1759,11,WEST ENGLEWOOD,16,JoAnn Thompson
NOBLE - HANSBERRY HS,400117,POINT (-87.65098672813494 41.73444162257932),8748 S Aberdeen St,60620,41.734442,-87.650987,Charter,Charter,HS,"9, 10, 11, 12",1(773)729-3400,11,AUBURN GRESHAM,21,"Howard B. Brookins, Jr."
NOBLE - DRW HS,400118,POINT (-87.71165422601833 41.86932807602724),931 S Homan Ave,60624,41.869328,-87.711654,Charter,Charter,HS,"9, 10, 11, 12",1(773)893-4500,5,NORTH LAWNDALE,24,Michael D. Chandler
LEGAL PREP HS,400119,POINT (-87.73377838257323 41.88173275809993),4319 W Washington Blvd,60612,41.881733,-87.733778,Charter,Charter,HS,"9, 10, 11, 12",1(773)922-7800,5,WEST GARFIELD PARK,28,Jason C. Ervin
UNO - CLEMENTE,400120,POINT (-87.78783043766516 41.917951679251956),2050 N Natchez Ave,60707,41.917952,-87.78783,Charter,Charter,ES,"K, 1, 2, 3, 4, 5, 6, 7, 8",1(312)455-5425,3,BELMONT CRAGIN,29,Deborah L. Graham
UNO - ROGERS PARK,400121,POINT (-87.68440568197208 42.01647588122094),7416 N Ridge Blvd,60645,42.016476,-87.684406,Charter,Charter,ES,"K, 1, 2, 3, 4, 5, 6, 7, 8, 9, 10, 11",1(312)455-5440,2,WEST RIDGE,49,Joe A. Moore
YCCS - SCHOLASTIC ACHIEVEMENT,400123,POINT (-87.74253889903409 41.88044718691512),4651 W Madison St,60644,41.880447,-87.742539,Options,Charter,HS,"10, 11, 12",1(773)921-1315,3,AUSTIN,28,Jason C. Ervin
YCCS - MCKINLEY,400124,POINT (-87.62533077021693 41.84133116687557),2920 S Wabash Ave,60616,41.841331,-87.625331,Options,Charter,HS,"10, 11, 12",1(312)949-5010,9,DOUGLAS,3,Patricia R. Dowell
YCCS - ASPIRA PANTOJA,400125,POINT (-87.72713735979745 41.93818660277678),3121 N Pulaski Rd,60641,41.938187,-87.727137,Options,Charter,HS,"10, 11, 12",1(773)252-0970,4,AVONDALE,30,Ariel E. Reboyras
YCCS - ASSOCIATION HOUSE,400126,POINT (-87.70685988337249 41.901572406590965),1116 N Kedzie Ave,60651,41.901572,-87.70686,Options,Charter,HS,"10, 11",1(773)772-7170,5,HUMBOLDT PARK,26,Roberto Maldonado
YCCS - AUSTIN CAREER,400127,POINT (-87.76022117541595 41.894976390364945),5352 W Chicago Ave,60651,41.894976,-87.760221,Options,Charter,HS,"10, 11, 12",1(773)626-6988,3,AUSTIN,37,Emma M. Mitts
YCCS - CCA ACADEMY,400128,POINT (-87.72366217187063 41.864943352149254),1231 S Pulaski Rd,60623,41.864943,-87.723662,Options,Charter,HS,"10, 11, 12",1(773)762-2272,5,NORTH LAWNDALE,24,Michael D. Chandler
YCCS - HOUSTON,400129,POINT (-87.61356238526882 41.77418269849911),6620 S Dr Martin Luther King Jr Dr,60637,41.773962,-87.61574,Options,Charter,HS,"10, 11, 12",1(773)723-9631,9,WOODLAWN,3,Patricia R. Dowell
YCCS - YOUTH DEVELOPMENT,400130,POINT (-87.64173118688463 41.75137711160915),7836 S Union Ave,60620,41.751377,-87.641731,Options,Charter,HS,"10, 11, 12",1(773)224-2273,11,AUBURN GRESHAM,6,Roderick T. Sawyer
YCCS - CAMPOS,400131,POINT (-87.69600602271211 41.90284969690219),2739 W Division St,60622,41.90285,-87.696006,Options,Charter,HS,"10, 11, 12",1(773)342-8022,5,WEST TOWN,26,Roberto Maldonado
YCCS - INNOVATIONS,400133,POINT (-87.62773414533866 41.88304717129258),17 N. State St.,60602,41.883047,-87.627734,Options,Charter,HS,"10, 11, 12",1(312)999-9360,6,LOOP,42,Brendan M. Reilly
YCCS - ADDAMS,400134,POINT (-87.64488797557976 41.85720785611458),1814 S Union Ave,60616,41.857208,-87.644888,Options,Charter,HS,"10, 11, 12",1(312)563-1748,7,LOWER WEST SIDE,11,James A. Balcer
YCCS - LATINO YOUTH,400135,POINT (-87.69543001372814 41.85466465534544),2001 S California Ave,60608,41.854665,-87.69543,Options,Charter,HS,"10, 11, 12",1(773)648-2130,7,SOUTH LAWNDALE,12,George A. Cardenas
YCCS - OLIVE HARVEY,400136,POINT (-87.59233320205446 41.71292209999135),10001 S Woodlawn Ave,60628,41.712922,-87.592333,Options,Charter,HS,"10, 11",1(773)291-6517,12,PULLMAN,8,Michelle A. Harris
LITTLE BLACK PEARL HS,400137,POINT (-87.59933994051981 41.80969549575752),1060 E 47th St,60653,41.809695,-87.59934,Options,Contract,HS,"9, 10, 11, 12",1(773)690-5500,9,KENWOOD,4,"William ""Will"" D. Burns"
YCCS - SULLIVAN,400139,POINT (-87.57849166986543 41.74628656952744),8164 S South Chicago Ave,60617,41.746287,-87.578492,Options,Charter,HS,"10, 11",1(773)978-8680,12,AVALON PARK,8,Michelle A. Harris
YCCS - TRUMAN,400141,POINT (-87.65923928994071 41.96529481641866),1145 W Wilson Ave,60640,41.965295,-87.659239,Options,Charter,HS,"10, 11, 12",1(773)907-4840,2,UPTOWN,46,James Cappleman
YCCS - VIRTUAL,400142,POINT (-87.6741384012902 41.876316727196624),1900 W Van Buren St,60612,41.876317,-87.674138,Options,Charter,HS,"10, 11, 12",1(312)429-0027,6,NEAR WEST SIDE,27,"Walter Burnett, Jr."
YCCS - WEST TOWN,400143,POINT (-87.70205280069851 41.890803121149155),500 N Sacramento Blvd,60612,41.890803,-87.702053,Options,Charter,HS,"10, 11",1(312)563-9044,5,HUMBOLDT PARK,27,"Walter Burnett, Jr."
YCCS - WESTSIDE HOLISTIC,400144,POINT (-87.74881028931917 41.902240031833365),4909 W Division St,60651,41.90224,-87.74881,Options,Charter,HS,"10, 11, 12",1(773)261-0994,3,AUSTIN,37,Emma M. Mitts
YCCS - YOUTH CONNECTION,400145,POINT (-87.62678146947087 41.832072058158424),3424 S State St,60616,41.832072,-87.626781,Options,Charter,HS,"10, 11, 12",1(312)225-4668,9,DOUGLAS,3,Patricia R. Dowell
KIPP CHICAGO - CREATE,400146,POINT (-87.74661383905315 41.89181614207475),4818 W Ohio St,60644,41.891816,-87.746614,Charter,Charter,ES,"5, 6, 7, 8",1(773)938-8553,3,AUSTIN,37,Emma M. Mitts
CAMELOT - CHICAGO EXCEL HS,400147,POINT (-87.65372653770633 41.691969313501716),1257 W 111th St,60643,41.691953,-87.654248,Options,Contract,HS,"9, 10, 11, 12",1(773)629-8379,13,MORGAN PARK,34,Carrie M. Austin
INSTITUTO - LOZANO HS,400148,POINT (-87.68406493808419 41.84544601533066),2570 S Blue Island Ave,60608,41.845446,-87.684065,Options,Charter,HS,"9, 10, 11, 12",1(773)696-3610,7,LOWER WEST SIDE,25,Daniel S. Solis
UNO - SOCCER HS,400149,POINT (-87.71102498431937 41.80176224554366),5025 S Saint Louis Ave,60632,41.801762,-87.711025,Charter,Charter,HS,"8, 9, 10, 11",1(312)455-5446,8,GAGE PARK,14,Edward M. Burke
YCCS - CHATHAM,400150,POINT (-87.60697990890328 41.73013138447743),9035 S Langley Ave,60619,41.730131,-87.60698,Options,Charter,HS,"10, 11, 12",1(773)651-1500,12,CHATHAM,8,Michelle A. Harris
LEARN - 7,400151,POINT (-87.70139734989546 41.88741028428423),3021 W Carroll Ave,60612Â,41.88741,-87.701397,Charter,Charter,ES,"K, 1, 2, 3, 4, 5",1(773)584-4350,5,EAST GARFIELD PARK,27,"Walter Burnett, Jr."
UNO - BRIGHTON PARK,400153,POINT (-87.6932383845312 41.81310944476644),4420 S Fairfield Ave,60632,41.813109,-87.693238,Charter,Charter,ES,"K, 1, 2, 3, 4, 5, 6, 7, 8",1(312)455-5434,8,BRIGHTON PARK,15,Toni L. Foulkes
NOBLE - BUTLER HS,400156,POINT (-87.6025733174385 41.70666685789389),821 E 103rd St,60628,41.706667,-87.602573,Charter,Charter,HS,"9, 10, 11",1(312)835-1863,13,PULLMAN,9,Anthony A. Beale
NOBLE - BAKER HS,400157,POINT (-87.55620144126588 41.734622370920235),2710 E 89th St,60617,41.734622,-87.556201,Charter,Charter,HS,"9, 10, 11",1(773)535-6340,12,SOUTH CHICAGO,7,Natashia Holmes
CHRISTOPHER HOUSE,400159,POINT (-87.75752152826216 41.922181155970016),5235 W Belden Ave,60639,41.922181,-87.757522,Charter,Charter,ES,"K, 1, 2, 3",1(773)472-1083,3,BELMONT CRAGIN,36,Nicholas Sposato
CHICAGO COLLEGIATE,400161,POINT (-87.61796787117214 41.67931844206332),11816 S Indiana Ave,60628,41.679318,-87.617968,Charter,Charter,HS,"4, 5, 6, 7",1(773)536-9098,13,WEST PULLMAN,9,Anthony A. Beale
INTRINSIC HS,400162,POINT (-87.74112862650028 41.93898842805861),4540 W Belmont Ave,60641,41.938988,-87.741129,Charter,Charter,HS,"7, 8, 9, 10, 11",1(708)887-2735,1,IRVING PARK,30,Ariel E. Reboyras
KIPP CHICAGO - BLOOM,400163,POINT (-87.63996733124056 41.7935562671543),5515 S Lowe Ave,60621,41.793556,-87.639967,Charter,Charter,ES,"5, 6, 7",1(773)938-8565,11,ENGLEWOOD,20,Willie B. Cochran
INSTITUTO - LOZANO MASTERY HS,400164,POINT (-87.68590261102727 41.845956673444746),2520 S Western Ave,60608,41.845957,-87.685903,Options,Charter,HS,"9, 10, 11, 12",1(773)696-3610 x4645,7,LOWER WEST SIDE,25,Daniel S. Solis
LEARN - MIDDLE,400165,POINT (-87.70270389867642 41.88741270254248),3021 W Carroll Ave,60612Â,41.887413,-87.702704,Charter,Charter,ES,"6, 7, 8",1(773)584-4300,5,EAST GARFIELD PARK,27,"Walter Burnett, Jr."
HORIZON - SOUTHWEST,400167,POINT (-87.68396339287392 41.79520095266694),5401 S. Western,60609,41.795201,-87.683963,Charter,Charter,ES,"K, 1, 2, 3, 4, 5, 6, 7, 8",1(773)498-3355,8,GAGE PARK,15,Toni L. Foulkes
NOBLE - ITW SPEER HS,400169,POINT (-87.76980777377591 41.92563027099737),2456 N. Mango Ave.,60639,41.92563,-87.769808,Charter,Charter,HS,"9, 10",1(773)278-6895,3,BELMONT CRAGIN,30,Ariel E. Reboyras
NOBLE - ACADEMY HS,400170,POINT (-87.64557693645881 41.90687879476261),1443 N Ogden Ave,60610,41.906879,-87.645577,Charter,Charter,HS,"9, 10",1(773)862-1449,4,NEAR NORTH SIDE,27,"Walter Burnett, Jr."
FOUNDATIONS,400171,POINT (-87.65353524849981 41.69467073849163),1233 W. 109th Street,60643,41.694671,-87.653535,Charter,Charter,HS,"6, 7, 8",1(773)298-5800,13,MORGAN PARK,34,Carrie M. Austin
PATHWAYS - BRIGHTON PARK HS,400173,POINT (-87.70264475188843 41.80822578508329),3124 W. 47th Street,60632,41.808226,-87.702645,Options,ALOP,HS,"9, 10, 11, 12",1(773)588-5007,8,BRIGHTON PARK,14,Edward M. Burke
CAMELOT - EXCEL WOODLAWN HS,400175,POINT (-87.55648708381439 41.75974863887013),7530 S South Shore Dr,60649,41.759749,-87.556487,Options,Contract,HS,"9, 10, 11, 12",1(773)902-7800,9,WOODLAWN,7,Natashia Holmes
CAMELOT - EXCEL SOUTHWEST HS,400176,POINT (-87.69073009144797 41.765928920283464),7014 S Washtenaw Ave,60629,41.765929,-87.69073,Options,Contract,HS,"9, 10, 11, 12",1(773)424-0721,11,AUBURN GRESHAM,17,Latasha R. Thomas
KIPP CHICAGO - ASCEND PRIMARY,400177,POINT (-87.70928683026301 41.861174188233996),1440 S. Christiana,60623,41.861174,-87.709287,Charter,Charter,ES,"K, 1, 2, 3, 4, 5",1(773)522-1261,5,NORTH LAWNDALE,24,Michael D. Chandler
CHICAGO VOCATIONAL HS,609674,POINT (-87.57326751564459 41.737173933540554),2100 E 87th St,60617,41.737174,-87.573268,OS4,District,HS,"9, 10, 11, 12",1(773)535-6100,12,AVALON PARK,8,Michelle A. Harris
DUNBAR HS,609676,POINT (-87.61763743510639 41.8402255713266),3000 S King Dr,60616,41.840226,-87.617637,Network 9,District,HS,"9, 10, 11, 12",1(773)534-9000,9,DOUGLAS,4,"William ""Will"" D. Burns"
JONES HS,609678,POINT (-87.6276753224599 41.87306592278668),700 S State St,60605,41.873066,-87.627675,ISP,District,HS,"9, 10, 11, 12",1(773)534-8600,6,LOOP,4,"William ""Will"" D. Burns"
PROSSER HS,609679,POINT (-87.76104831550296 41.920059399235065),2148 N Long Ave,60639,41.920059,-87.761048,Network 3,District,HS,"9, 10, 11, 12",1(773)534-3200,3,BELMONT CRAGIN,36,Nicholas Sposato
PAYTON HS,609680,POINT (-87.63538476565044 41.90157516923655),1034 N Wells St,60610,41.901575,-87.635385,ISP,District,HS,"9, 10, 11, 12",1(773)534-0034,6,NEAR NORTH SIDE,27,"Walter Burnett, Jr."
RICHARDS HS,609682,POINT (-87.66227784528805 41.80288137488922),5009 S Laflin St,60609,41.802881,-87.662278,Network 8,District,HS,"9, 10, 11, 12",1(773)535-4945,8,NEW CITY,20,Willie B. Cochran
NORTH-GRAND HS,609691,POINT (-87.73523755590614 41.911673691951975),4338 W Wabansia Ave,60639,41.911674,-87.735238,Network 5,District,HS,"9, 10, 11, 12",1(773)534-8520,5,HUMBOLDT PARK,36,Nicholas Sposato
SIMEON HS,609692,POINT (-87.63541036866685 41.745781229905525),8147 S Vincennes Ave,60620,41.745781,-87.63541,Network 11,District,HS,"9, 10, 11, 12",1(773)535-3200,11,CHATHAM,21,"Howard B. Brookins, Jr."
WESTINGHOUSE HS,609693,POINT (-87.70733230851017 41.88997720284965),3223 W Franklin Blvd,60624,41.889977,-87.707332,Network 5,District,HS,"9, 10, 11, 12",1(773)534-6400,5,HUMBOLDT PARK,28,Jason C. Ervin
HANCOCK HS,609694,POINT (-87.7244704648031 41.79146390857298),4034 W 56th St,60629,41.791464,-87.72447,Network 8,District,HS,"9, 10, 11, 12",1(773)535-2410,8,WEST ELSDON,13,Marty Quinn
AMUNDSEN HS,609695,POINT (-87.67948421515057 41.975067256161616),5110 N Damen Ave,60625,41.975067,-87.679484,Network 2,District,HS,"9, 10, 11, 12",1(773)534-2320,2,LINCOLN SQUARE,40,Patrick O'Connor
BOGAN HS,609698,POINT (-87.72109744581068 41.74937560925903),3939 W 79th St,60652,41.749376,-87.721097,OS4,District,HS,"9, 10, 11, 12",1(773)535-2180,10,ASHBURN,18,Lona Lane
FARRAGUT HS,609704,POINT (-87.70870563207117 41.84855987425176),2345 S Christiana Ave,60623,41.84856,-87.708706,Network 7,District,HS,"PK, 9, 10, 11, 12",1(773)534-1300,7,SOUTH LAWNDALE,22,Ricardo Munoz
FENGER HS,609705,POINT (-87.63757205073344 41.68995072460742),11220 S Wallace St,60628,41.689951,-87.637572,Network 13,District,HS,"9, 10, 11, 12",1(773)535-5430,13,ROSELAND,34,Carrie M. Austin
ROBESON HS,609707,POINT (-87.63715271751444 41.76971379519646),6835 S Normal Blvd,60621,41.769714,-87.637153,Network 11,District,HS,"9, 10, 11, 12",1(773)535-3800,11,ENGLEWOOD,6,Roderick T. Sawyer
FOREMAN HS,609708,POINT (-87.75416654341426 41.93979676706975),3235 N LeClaire Ave,60641,41.939797,-87.754167,Network 1,District,HS,"9, 10, 11, 12",1(773)534-3400,1,PORTAGE PARK,31,Ray Suarez
GAGE PARK HS,609709,POINT (-87.68895394224992 41.791012838392405),5630 S Rockwell St,60629,41.791013,-87.688954,Network 8,District,HS,"9, 10, 11, 12",1(773)535-9230,8,GAGE PARK,15,Toni L. Foulkes
HARLAN HS,609710,POINT (-87.62062343653518 41.7183723456041),9652 S Michigan Ave,60628,41.718372,-87.620623,Network 12,District,HS,"7, 8, 9, 10, 11, 12",1(773)535-5400,12,ROSELAND,9,Anthony A. Beale
HARPER HS,609711,POINT (-87.66908929605185 41.77512408325922),6520 S Wood St,60636,41.775124,-87.669089,Network 11,District,HS,"9, 10, 11, 12",1(773)535-9150,11,WEST ENGLEWOOD,15,Toni L. Foulkes
HIRSCH HS,609712,POINT (-87.60172726591252 41.753747955321906),7740 S Ingleside Ave,60619,41.753748,-87.601727,OS4,District,HS,"9, 10, 11, 12",1(773)535-3100,12,GREATER GRAND CROSSING,8,Michelle A. Harris
HYDE PARK HS,609713,POINT (-87.58661501015993 41.782256926776796),6220 S Stony Island Ave,60637,41.782257,-87.586615,Network 9,District,HS,"9, 10, 11, 12",1(773)535-0880,9,WOODLAWN,5,Leslie A. Hairston
KELLY HS,609715,POINT (-87.69463865995434 41.81872906331999),4136 S California Ave,60632,41.818729,-87.694639,OS4,District,HS,"9, 10, 11, 12",1(773)535-4900,8,BRIGHTON PARK,12,George A. Cardenas
KELVYN PARK HS,609716,POINT (-87.73599882204394 41.92791840255751),4343 W Wrightwood Ave,60639,41.927918,-87.735999,Network 4,District,HS,"7, 8, 9, 10, 11, 12",1(773)534-4200,4,HERMOSA,31,Ray Suarez
KENNEDY HS,609718,POINT (-87.78083975557989 41.789961251743584),6325 W 56th St,60638,41.789961,-87.78084,Network 10,District,HS,"9, 10, 11, 12",1(773)535-2325,10,GARFIELD RIDGE,13,Marty Quinn
LAKE VIEW HS,609719,POINT (-87.66895268957454 41.954764066986755),4015 N Ashland Ave,60613,41.954764,-87.668953,Network 2,District,HS,"9, 10, 11, 12",1(773)534-5440,2,LAKE VIEW,47,Ameya Pawar
LANE TECH HS,609720,POINT (-87.69101262731388 41.94664457379102),2501 W Addison St,60618,41.946645,-87.691013,Network 4,District,HS,"7, 8, 9, 10, 11, 12",1(773)534-5400,4,NORTH CENTER,47,Ameya Pawar
MANLEY HS,609722,POINT (-87.69989559006844 41.870938956115715),2935 W Polk St,60612,41.870939,-87.699896,Network 5,District,HS,"9, 10, 11, 12",1(773)534-6900,5,EAST GARFIELD PARK,28,Jason C. Ervin
MARSHALL HS,609723,POINT (-87.70805007000293 41.878444085065304),3250 W Adams St,60624,41.878444,-87.70805,ISP,District,HS,"9, 10, 11, 12",1(773)534-6455,5,EAST GARFIELD PARK,28,Jason C. Ervin
MATHER HS,609724,POINT (-87.7024963959148 41.987588681534916),5835 N Lincoln Ave,60659,41.987589,-87.702496,Network 2,District,HS,"9, 10, 11, 12",1(773)534-2350,2,WEST RIDGE,40,Patrick O'Connor
MORGAN PARK HS,609725,POINT (-87.66565754496752 41.692035008508086),1744 W Pryor Ave,60643,41.692035,-87.665658,Network 10,District,HS,"7, 8, 9, 10, 11, 12",1(773)535-2550,10,MORGAN PARK,19,Matthew J. O'Shea
BROOKS HS,609726,POINT (-87.61635260696305 41.69276252803521),250 E 111th St,60628,41.692763,-87.616353,ISP,District,HS,"9, 10, 11, 12",1(773)535-9930,13,ROSELAND,9,Anthony A. Beale
PHILLIPS HS,609727,POINT (-87.61979634587938 41.82387996779332),244 E Pershing Rd,60653,41.82388,-87.619796,AUSL,District,HS,"9, 10, 11, 12",1(773)535-1603,9,DOUGLAS,3,Patricia R. Dowell
ROOSEVELT HS,609728,POINT (-87.71481861588198 41.96482788390732),3436 W Wilson Ave,60625,41.964828,-87.714819,Network 1,District,HS,"9, 10, 11, 12",1(773)534-5000,1,ALBANY PARK,33,Deborah Mell
SCHURZ HS,609729,POINT (-87.73561211025743 41.94636454254735),3601 N Milwaukee Ave,60641,41.946365,-87.735612,Network 1,District,HS,"9, 10, 11, 12",1(773)534-3420,1,IRVING PARK,45,John Arena
SENN HS,609730,POINT (-87.6671361896679 41.98902853819406),5900 N Glenwood Ave,60660,41.989029,-87.667136,Network 2,District,HS,"9, 10, 11, 12",1(773)534-2365,2,EDGEWATER,48,Harry Osterman
STEINMETZ HS,609732,POINT (-87.78351523303839 41.93563358717894),3030 N Mobile Ave,60634,41.935634,-87.783515,Network 3,District,HS,"9, 10, 11, 12",1(773)534-3030,3,BELMONT CRAGIN,36,Nicholas Sposato
SULLIVAN HS,609733,POINT (-87.6691921456409 42.00268755820679),6631 N Bosworth Ave,60626,42.002688,-87.669192,Network 2,District,HS,"9, 10, 11, 12",1(773)534-2000,2,ROGERS PARK,49,Joe A. Moore
TAFT HS,609734,POINT (-87.79154724889433 41.982960985797455),6530 W Bryn Mawr Ave,60631,41.982961,-87.791547,Network 1,District,HS,"7, 8, 9, 10, 11, 12",1(773)534-1000,1,NORWOOD PARK,41,Mary O'Connor
TILDEN HS,609735,POINT (-87.64296648369356 41.807510070907846),4747 S Union Ave,60609,41.80751,-87.642966,Network 8,District,HS,"9, 10, 11, 12",1(773)535-1625,8,NEW CITY,11,James A. Balcer
VON STEUBEN HS,609737,POINT (-87.71338625325822 41.97318504776281),5039 N Kimball Ave,60625,41.973185,-87.713386,Network 1,District,HS,"9, 10, 11, 12",1(773)534-5100,1,NORTH PARK,39,Margaret Laurino
LINCOLN PARK HS,609738,POINT (-87.64600935977995 41.918268310846855),2001 N Orchard St,60614,41.918268,-87.646009,ISP,District,HS,"9, 10, 11, 12",1(773)534-8130,4,LINCOLN PARK,43,Michele Smith
WASHINGTON HS,609739,POINT (-87.53757030015832 41.688136935652565),3535 E 114th St,60617,41.688137,-87.53757,Network 13,District,HS,"9, 10, 11, 12",1(773)535-5725,13,EAST SIDE,10,John A. Pope
WELLS HS,609740,POINT (-87.66748286871373 41.898994707393015),936 N Ashland Ave,60622,41.898995,-87.667483,Network 6,District,HS,"9, 10, 11, 12",1(773)534-7010,6,WEST TOWN,1,Proco (Joe) Moreno III
HUBBARD HS,609741,POINT (-87.71801374341135 41.78052638668544),6200 S Hamlin Ave,60629,41.780526,-87.718014,Network 10,District,HS,"9, 10, 11, 12",1(773)535-2200,10,WEST LAWN,23,Michael R. Zalewski
NORTHSIDE LEARNING HS,609744,POINT (-87.72238621571651 41.982972521350106),3730 W Bryn Mawr Ave,60659,41.982973,-87.722386,Network 1,District,HS,"9, 10, 11, 12",1(773)534-5180,1,NORTH PARK,39,Margaret Laurino
SOUTHSIDE HS,609745,POINT (-87.67594676755051 41.759852428041924),7342 S Hoyne Ave,60636,41.759852,-87.675947,Network 11,District,HS,"11, 12",1(773)535-9100,11,WEST ENGLEWOOD,17,Latasha R. Thomas
KENWOOD HS,609746,POINT (-87.59042088968275 41.80377211875098),5015 S Blackstone Ave,60615,41.803772,-87.590421,Network 9,District,HS,"7, 8, 9, 10, 11, 12",1(773)535-1350,9,KENWOOD,4,"William ""Will"" D. Burns"
YORK HS,609748,POINT (-87.6952610154737 41.842533347975746),2700 S California Ave,60608,41.842533,-87.695261,Options,District,HS,"9, 10, 11, 12",1(773)535-7021,7,SOUTH LAWNDALE,24,Michael D. Chandler
NORTHSIDE PREP HS,609749,POINT (-87.70870780029277 41.981315282164225),5501 N Kedzie Ave,60625,41.981315,-87.708708,Network 1,District,HS,"9, 10, 11, 12",1(773)534-3954,1,NORTH PARK,40,Patrick O'Connor
SIMPSON HS,609750,POINT (-87.66872222929887 41.8643654823773),1321 S Paulina St,60608,41.864365,-87.668722,Options,District,HS,"8, 9, 10, 11, 12",1(773)534-7812,6,NEAR WEST SIDE,28,Jason C. Ervin
KING HS,609751,POINT (-87.60387386150998 41.81367545210487),4445 S Drexel Blvd,60653,41.813675,-87.603874,Network 9,District,HS,"9, 10, 11, 12",1(773)535-1180,9,KENWOOD,4,"William ""Will"" D. Burns"
CHICAGO AGRICULTURE HS,609753,POINT (-87.71776967259495 41.69122074145255),3857 W 111th St,60655,41.691221,-87.71777,Network 10,District,HS,"9, 10, 11, 12",1(773)535-2500,10,MOUNT GREENWOOD,19,Matthew J. O'Shea
CHICAGO MILITARY HS,609754,POINT (-87.6192155427687 41.83055497712014),3519 S Giles Ave,60653,41.830555,-87.619216,SLA,District,HS,"9, 10, 11, 12",1(773)534-9750,9,DOUGLAS,3,Patricia R. Dowell
YOUNG HS,609755,POINT (-87.66423334280815 41.87860253271967),211 S Laflin St,60607,41.878603,-87.664233,ISP,District,HS,"7, 8, 9, 10, 11, 12",1(773)534-7500,6,NEAR WEST SIDE,27,"Walter Burnett, Jr."
CURIE HS,609756,POINT (-87.72204165487233 41.80306020651821),4959 S Archer Ave,60632,41.80306,-87.722042,Network 8,District,HS,"9, 10, 11, 12",1(773)535-2100,8,ARCHER HEIGHTS,14,Edward M. Burke
CLEMENTE HS,609759,POINT (-87.68690614642159 41.902625791356584),1147 N Western Ave,60622,41.902626,-87.686906,OS4,District,HS,"9, 10, 11, 12",1(773)534-4000,5,WEST TOWN,1,Proco (Joe) Moreno III
CARVER MILITARY HS,609760,POINT (-87.59062038495499 41.656289951013775),13100 S Doty Ave,60627,41.65629,-87.59062,SLA,District,HS,"9, 10, 11, 12",1(773)535-5250,13,RIVERDALE,9,Anthony A. Beale
CORLISS HS,609761,POINT (-87.60121587657939 41.70665961635234),821 E 103rd St,60628,41.70666,-87.601216,Network 13,District,HS,"9, 10, 11, 12",1(773)535-5115,13,PULLMAN,9,Anthony A. Beale
JULIAN HS,609762,POINT (-87.6537492110773 41.70585893586945),10330 S Elizabeth St,60643,41.705859,-87.653749,Network 13,District,HS,"9, 10, 11, 12",1(773)535-5170,10,WASHINGTON HEIGHTS,34,Carrie M. Austin
JUAREZ HS,609764,POINT (-87.66373244658195 41.852666599349455),2150 S Laflin St,60608,41.852667,-87.663732,ISP,District,HS,"9, 10, 11, 12",1(773)534-7030,7,LOWER WEST SIDE,25,Daniel S. Solis
VAUGHN HS,609766,POINT (-87.76466317315523 41.960363796062815),4355 N Linder Ave,60641,41.960364,-87.764663,Network 1,District,HS,"9, 10, 11, 12",1(773)534-3600,1,PORTAGE PARK,38,Timothy M. Cullerton
HOPE HS,609768,POINT (-87.64124410974966 41.79355346673504),5515 S Lowe Ave,60621,41.793553,-87.641244,Network 11,District,HS,"9, 10, 11, 12",1(773)535-3160,11,ENGLEWOOD,20,Willie B. Cochran
GRAHAM HS,609769,POINT (-87.625314815783 41.84967541722844),2347 S Wabash Ave,60616,41.849675,-87.625315,Network 6,District,HS,"9, 10, 11, 12",1(773)534-9257,6,NEAR SOUTH SIDE,3,Patricia R. Dowell
ADDAMS,609772,POINT (-87.53297604186888 41.698738799501506),10810 S Avenue H,60617,41.698739,-87.532976,Network 13,District,ES,"PK, K, 1, 2, 3, 4, 5, 6, 7, 8",1(773)535-6210,13,EAST SIDE,10,John A. Pope
AGASSIZ,609773,POINT (-87.65622866787353 41.93412629732926),2851 N Seminary Ave,60657,41.934126,-87.656229,Network 4,District,ES,"PK, K, 1, 2, 3, 4, 5, 6, 7, 8",1(773)534-5725,4,LAKE VIEW,44,Thomas Tunney
ARMOUR,609777,POINT (-87.6506531559409 41.83385390912795),950 W 33rd Pl,60608,41.833854,-87.650653,Network 6,District,ES,"PK, K, 1, 2, 3, 4, 5, 6, 7, 8",1(773)535-4530,6,BRIDGEPORT,11,James A. Balcer
ARMSTRONG G,609779,POINT (-87.68444182723555 42.01014998355085),2110 W Greenleaf Ave,60645,42.01015,-87.684442,Network 2,District,ES,"PK, K, 1, 2, 3, 4, 5, 6, 7, 8",1(773)534-2150,2,WEST RIDGE,50,Debra L. Silverstein
MARINE LEADERSHIP AT AMES HS,609780,POINT (-87.72174231737525 41.91604463278367),1920 N Hamlin Ave,60647,41.916045,-87.721742,SLA,District,HS,"7, 8, 9, 10, 11, 12",1(773)534-4970,4,LOGAN SQUARE,26,Roberto Maldonado
AUDUBON,609782,POINT (-87.68104105326863 41.94506222420041),3500 N Hoyne Ave,60618,41.945062,-87.681041,Network 4,District,ES,"PK, K, 1, 2, 3, 4, 5, 6, 7, 8",1(773)534-5470,4,NORTH CENTER,47,Ameya Pawar
JEFFERSON HS,609783,POINT (-87.6804175551467 41.86783228494752),1100 S Hamilton Ave,60612,41.867832,-87.680418,Options,District,HS,"6, 7, 8, 9, 10, 11, 12",1(312)433-7110,6,NEAR WEST SIDE,27,"Walter Burnett, Jr."
AVALON PARK,609786,POINT (-87.59165381067288 41.74824699361749),8045 S Kenwood Ave,60619,41.748247,-87.591654,Network 12,District,ES,"PK, K, 1, 2, 3, 4, 5, 6, 7, 8",1(773)535-6615,12,AVALON PARK,8,Michelle A. Harris
BARNARD,609788,POINT (-87.65807422422662 41.705131010946644),10354 S Charles St,60643,41.705131,-87.658074,Network 10,District,ES,"PK, K, 1, 2, 3, 4, 5, 6, 7, 8",1(773)535-2625,10,BEVERLY,19,Matthew J. O'Shea
BARRY,609789,POINT (-87.73938835132714 41.93251058271708),2828 N Kilbourn Ave,60641,41.932511,-87.739388,Network 4,District,ES,"PK, K, 1, 2, 3, 4, 5, 6",1(773)534-3455,4,HERMOSA,31,Ray Suarez
BARTON,609790,POINT (-87.6709271289381 41.75419384970478),7650 S Wolcott Ave,60620,41.754194,-87.670927,Network 11,District,ES,"PK, K, 1, 2, 3, 4, 5, 6, 7, 8",1(773)535-3260,11,AUBURN GRESHAM,17,Latasha R. Thomas
BASS,609791,POINT (-87.65353241974717 41.77424645010303),1140 W 66th St,60621,41.774246,-87.653532,Network 11,District,ES,"PK, K, 1, 2, 3, 4, 5, 6, 7, 8",1(773)535-3275,11,ENGLEWOOD,16,JoAnn Thompson
BATEMAN,609792,POINT (-87.7021509622272 41.95821983852925),4220 N Richmond St,60618,41.95822,-87.702151,Network 1,District,ES,"PK, K, 1, 2, 3, 4, 5, 6, 7, 8",1(773)534-5055,1,IRVING PARK,33,Deborah Mell
NICHOLSON,609793,POINT (-87.64745284219362 41.78494237944745),6006 S Peoria St,60621,41.784942,-87.647453,Network 11,District,ES,"PK, K, 1, 2, 3, 4, 5, 6, 7, 8",1(773)535-3285,11,ENGLEWOOD,16,JoAnn Thompson
EDISON,609794,POINT (-87.70930366602214 41.971506096123875),4929 N Sawyer Ave,60625,41.971506,-87.709304,Network 1,District,ES,"K, 1, 2, 3, 4, 5, 6, 7, 8",1(773)534-0540,1,ALBANY PARK,33,Deborah Mell
CLARK ES,609795,POINT (-87.77041752682254 41.86781256765913),1045 S Monitor Ave,60644,41.867813,-87.770418,Network 3,District,ES,"PK, K, 1, 2, 3, 4, 5, 6, 7, 8",1(773)534-6225,3,AUSTIN,29,Deborah L. Graham
BEAUBIEN,609796,POINT (-87.75756503952755 41.972393944348255),5025 N Laramie Ave,60630,41.972394,-87.757565,Network 1,District,ES,"PK, K, 1, 2, 3, 4, 5, 6, 7, 8",1(773)534-3500,1,JEFFERSON PARK,45,John Arena
BEIDLER,609797,POINT (-87.70585481254497 41.885321039653036),3151 W Walnut St,60612,41.885321,-87.705855,Network 5,District,ES,"PK, K, 1, 2, 3, 4, 5, 6, 7, 8",1(773)534-6811,5,EAST GARFIELD PARK,27,"Walter Burnett, Jr."
BELDING,609798,POINT (-87.73401972914144 41.95893849334404),4257 N Tripp Ave,60641,41.958938,-87.73402,Network 1,District,ES,"PK, K, 1, 2, 3, 4, 5, 6, 7, 8",1(773)534-3590,1,IRVING PARK,39,Margaret Laurino
BELL,609799,POINT (-87.68601824453435 41.9495297982177),3730 N Oakley Ave,60618,41.94953,-87.686018,Network 4,District,ES,"K, 1, 2, 3, 4, 5, 6, 7, 8",1(773)534-5150,4,NORTH CENTER,47,Ameya Pawar
BENNETT,609800,POINT (-87.6173904557042 41.71043494882523),10115 S Prairie Ave,60628,41.710435,-87.61739,Network 13,District,ES,"PK, K, 1, 2, 3, 4, 5, 6, 7, 8",1(773)535-5460,13,ROSELAND,9,Anthony A. Beale
BLAINE,609803,POINT (-87.66496784431662 41.95078051791929),1420 W Grace St,60613,41.950781,-87.664968,Network 4,District,ES,"PK, K, 1, 2, 3, 4, 5, 6, 7, 8",1(773)534-5750,4,LAKE VIEW,44,Thomas Tunney
BOONE,609804,POINT (-87.69746282201558 42.003411606876426),6710 N Washtenaw Ave,60645,42.003412,-87.697463,Network 2,District,ES,"PK, K, 1, 2, 3, 4, 5, 6, 7, 8",1(773)534-2160,2,WEST RIDGE,50,Debra L. Silverstein
JOPLIN,609805,POINT (-87.66936564978361 41.74933916101331),7931 S Honore St,60620,41.749339,-87.669366,Network 11,District,ES,"PK, K, 1, 2, 3, 4, 5, 6, 7, 8",1(773)535-3425,11,AUBURN GRESHAM,17,Latasha R. Thomas
BRADWELL,609806,POINT (-87.55714197050366 41.75436513144242),7736 S Burnham Ave,60649,41.754365,-87.557142,AUSL,District,ES,"PK, K, 1, 2, 3, 4, 5, 6, 7, 8",1(773)535-6600,12,SOUTH SHORE,7,Natashia Holmes
HAMPTON,609807,POINT (-87.70873128492987 41.75345719261593),3434 W 77th St,60652,41.753457,-87.708731,Network 10,District,ES,"K, 1, 2, 3, 4, 5, 6, 7, 8",1(773)535-4030,10,ASHBURN,18,Lona Lane
HALEY,609808,POINT (-87.63363213640979 41.68665996971829),11411 S Eggleston Ave,60628,41.68666,-87.633632,Network 13,District,ES,"PK, K, 1, 2, 3, 4, 5, 6, 7, 8",1(773)535-5340,13,ROSELAND,34,Carrie M. Austin
BRENTANO,609809,POINT (-87.69629419836876 41.93096609572725),2723 N Fairfield Ave,60647,41.930966,-87.696294,Network 4,District,ES,"PK, K, 1, 2, 3, 4, 5, 6, 7, 8",1(773)534-4100,4,LOGAN SQUARE,32,Scott Waguespack
BRIDGE,609810,POINT (-87.7986689200407 41.949114385919835),3800 N New England Ave,60634,41.949114,-87.798669,Network 1,District,ES,"PK, K, 1, 2, 3, 4, 5, 6, 7, 8",1(773)534-3718,1,DUNNING,38,Timothy M. Cullerton
BRIGHT,609811,POINT (-87.56208422942571 41.6997262209657),10740 S Calhoun Ave,60617,41.699726,-87.562084,Network 13,District,ES,"PK, K, 1, 2, 3, 4, 5, 6, 7, 8",1(773)535-6215,13,SOUTH DEERING,10,John A. Pope
BROWN W,609812,POINT (-87.67068239105942 41.882996783927005),54 N Hermitage Ave,60612,41.882997,-87.670682,Network 6,District,ES,"PK, K, 1, 2, 3, 4, 5, 6, 7, 8",1(773)534-7250,6,NEAR WEST SIDE,27,"Walter Burnett, Jr."
BROWNELL,609813,POINT (-87.62174596862914 41.77162035925952),6741 S Michigan Ave,60637,41.77162,-87.621746,Network 12,District,ES,"PK, K, 1, 2, 3, 4, 5, 6",1(773)535-3030,12,GREATER GRAND CROSSING,6,Roderick T. Sawyer
BOUCHET,609815,POINT (-87.57607485768892 41.760847480286166),7355 S Jeffery Blvd,60649,41.760847,-87.576075,Network 12,District,ES,"PK, K, 1, 2, 3, 4, 5, 6, 7, 8",1(773)535-0501,12,SOUTH SHORE,7,Natashia Holmes
BUDLONG,609817,POINT (-87.69655603224551 41.97575432987602),2701 W Foster Ave,60625,41.975754,-87.696556,Network 2,District,ES,"PK, K, 1, 2, 3, 4, 5, 6, 7, 8",1(773)534-2591,2,LINCOLN SQUARE,40,Patrick O'Connor
BURBANK,609818,POINT (-87.78269957037274 41.917598137128664),2035 N Mobile Ave,60639,41.917598,-87.7827,Network 3,District,ES,"PK, K, 1, 2, 3, 4, 5, 6, 7, 8",1(773)534-3000,3,BELMONT CRAGIN,29,Deborah L. Graham
BURKE,609819,POINT (-87.6161405241058 41.79675956329529),5356 S King Dr,60615,41.79676,-87.616141,OS4,District,ES,"PK, K, 1, 2, 3, 4, 5, 6, 7, 8",1(773)535-1325,9,WASHINGTON PARK,3,Patricia R. Dowell
BURLEY,609820,POINT (-87.66985312360681 41.93793747338803),1630 W Barry Ave,60657,41.937937,-87.669853,Network 4,District,ES,"PK, K, 1, 2, 3, 4, 5, 6, 7, 8",1(773)534-5475,4,LAKE VIEW,32,Scott Waguespack
BURNHAM,609821,POINT (-87.56713059141286 41.71440206202355),9928 S Crandon Ave,60617,41.714402,-87.567131,ISP,District,ES,"PK, K, 1, 2, 3, 4, 5, 6, 7, 8",1(773)535-6530,13,SOUTH DEERING,7,Natashia Holmes
CASTELLANOS,609826,POINT (-87.714927013747 41.84544987859062),2524 S Central Park Ave,60623,41.84545,-87.714927,Network 7,District,ES,"4, 5, 6, 7, 8",1(773)534-1620,7,SOUTH LAWNDALE,22,Ricardo Munoz
BURNSIDE,609827,POINT (-87.60743532151997 41.72848063786238),650 E 91st Pl,60619,41.728481,-87.607435,Network 12,District,ES,"PK, K, 1, 2, 3, 4, 5, 6, 7, 8",1(773)535-3300,12,CHATHAM,8,Michelle A. Harris
BURR,609828,POINT (-87.66866060400173 41.912357907608396),1621 W Wabansia Ave,60622,41.912358,-87.668661,Network 6,District,ES,"PK, K, 1, 2, 3, 4, 5, 6, 7, 8",1(773)534-4090,6,WEST TOWN,32,Scott Waguespack
BURROUGHS,609829,POINT (-87.69245662874545 41.82886790679988),3542 S Washtenaw Ave,60632,41.828868,-87.692457,Network 8,District,ES,"PK, K, 1, 2, 3, 4, 5, 6, 7, 8",1(773)535-7226,8,BRIGHTON PARK,12,George A. Cardenas
BRUNSON,609830,POINT (-87.76560565794742 41.89766257127694),932 N Central Ave,60651,41.897663,-87.765606,Network 3,District,ES,"PK, K, 1, 2, 3, 4, 5, 6, 7, 8",1(773)534-6025,3,AUSTIN,29,Deborah L. Graham
BYRNE,609832,POINT (-87.79154448272317 41.79503096442445),5329 S Oak Park Ave,60638,41.795031,-87.791544,Network 10,District,ES,"K, 1, 2, 3, 4, 5, 6, 7, 8",1(773)535-2170,10,GARFIELD RIDGE,23,Michael R. Zalewski
CALDWELL,609833,POINT (-87.58072902769884 41.739226354809425),8546 S Cregier Ave,60617,41.739226,-87.580729,Network 12,District,ES,"PK, K, 1, 2, 3, 4, 5, 6, 7, 8",1(773)535-6300,12,AVALON PARK,8,Michelle A. Harris
LITTLE VILLAGE,609834,POINT (-87.71731895283156 41.84369811780561),2620 S Lawndale Ave,60623,41.843698,-87.717319,Network 7,District,ES,"PK, K, 1, 2, 3, 4, 5, 6, 7, 8",1(773)534-1880,7,SOUTH LAWNDALE,22,Ricardo Munoz
CAMERON,609835,POINT (-87.7179266352801 41.90379211755903),1234 N Monticello Ave,60651,41.903792,-87.717927,Network 5,District,ES,"PK, K, 1, 2, 3, 4, 5, 6, 7, 8",1(773)534-4290,5,HUMBOLDT PARK,26,Roberto Maldonado
CANTY,609836,POINT (-87.82929570056865 41.94800702741078),3740 N Panama Ave,60634,41.948007,-87.829296,Network 1,District,ES,"PK, K, 1, 2, 3, 4, 5, 6, 7, 8",1(773)534-1238,1,DUNNING,38,Timothy M. Cullerton
CARNEGIE,609837,POINT (-87.59079500880739 41.783368322962005),1414 E 61st Pl,60637,41.783368,-87.590795,Network 9,District,ES,"PK, K, 1, 2, 3, 4, 5, 6, 7, 8",1(773)535-0530,9,WOODLAWN,20,Willie B. Cochran
CARROLL,609839,POINT (-87.69601207553609 41.74251662622091),2929 W 83rd St,60652,41.742517,-87.696012,Network 10,District,ES,"PK, K, 1, 2, 3, 4, 5, 6, 7, 8",1(773)535-9414,10,ASHBURN,18,Lona Lane
CARSON,609842,POINT (-87.68779954330209 41.79327214360274),5516 S Maplewood Ave,60629,41.793272,-87.6878,ISP,District,ES,"PK, K, 1, 2, 3, 4, 5, 6, 7, 8",1(773)535-9222,8,GAGE PARK,15,Toni L. Foulkes
CARTER,609844,POINT (-87.62245275222128 41.78982790477037),5740 S Michigan Ave,60637,41.789828,-87.622453,AUSL,District,ES,"PK, K, 1, 2, 3, 4, 5, 6, 7, 8",1(773)535-0860,9,WASHINGTON PARK,20,Willie B. Cochran
CARVER G,609845,POINT (-87.59951563229662 41.653702115282826),901 E 133rd Pl,60827,41.653702,-87.599516,Network 13,District,ES,"PK, K, 1, 2, 3, 4, 5, 6, 7, 8",1(773)535-5674,13,RIVERDALE,9,Anthony A. Beale
ALDRIDGE,609848,POINT (-87.60647384722472 41.65740496963247),630 E 131st St,60827,41.657405,-87.606474,Network 13,District,ES,"PK, K, 1, 2, 3, 4, 5, 6, 7, 8",1(773)535-5614,13,RIVERDALE,9,Anthony A. Beale
CASSELL,609849,POINT (-87.70321548851709 41.68734705469558),11314 S Spaulding Ave,60655,41.687347,-87.703215,Network 10,District,ES,"K, 1, 2, 3, 4, 5, 6, 7, 8",1(773)535-2640,10,MOUNT GREENWOOD,19,Matthew J. O'Shea
GREELEY,609850,POINT (-87.65097986913507 41.952809511505976),832 W Sheridan Rd,60613,41.95281,-87.65098,Network 4,District,ES,"PK, K, 1, 2, 3, 4, 5, 6, 7, 8",1(773)534-5800,4,LAKE VIEW,46,James Cappleman
CHALMERS,609851,POINT (-87.69525936896072 41.86643525173846),2745 W Roosevelt Rd,60608,41.866435,-87.695259,AUSL,District,ES,"PK, K, 1, 2, 3, 4, 5, 6, 7, 8",1(773)534-1720,5,NORTH LAWNDALE,28,Jason C. Ervin
CHAPPELL,609852,POINT (-87.6832635915828 41.97589430008067),2135 W Foster Ave,60625,41.975894,-87.683264,Network 2,District,ES,"PK, K, 1, 2, 3, 4, 5, 6, 7, 8",1(773)534-2390,2,LINCOLN SQUARE,40,Patrick O'Connor
CHASE,609853,POINT (-87.69456225114092 41.917992652524866),2021 N Point St,60647,41.917993,-87.694562,Network 4,District,ES,"PK, K, 1, 2, 3, 4, 5, 6, 7, 8",1(773)534-4185,4,LOGAN SQUARE,1,Proco (Joe) Moreno III
CHOPIN,609854,POINT (-87.68893676228166 41.8967126885193),2450 W Rice St,60622,41.896713,-87.688937,Network 5,District,ES,"PK, K, 1, 2, 3, 4, 5, 6, 7, 8",1(773)534-4080,5,WEST TOWN,26,Roberto Maldonado
CHRISTOPHER,609855,POINT (-87.68560700279922 41.801658623867255),5042 S Artesian Ave,60632,41.801659,-87.685607,Network 8,District,ES,"K, 1, 2, 3, 4, 5, 6, 7, 8",1(773)535-9375,8,GAGE PARK,14,Edward M. Burke
CLAY,609856,POINT (-87.5446135978392 41.654558148152226),13231 S Burley Ave,60633,41.654558,-87.544614,Network 13,District,ES,"PK, K, 1, 2, 3, 4, 5, 6, 7, 8",1(773)535-5600,13,HEGEWISCH,10,John A. Pope
CLEVELAND,609857,POINT (-87.70644252562083 41.95204212105171),3121 W Byron St,60618,41.952042,-87.706443,Network 1,District,ES,"PK, K, 1, 2, 3, 4, 5, 6, 7, 8",1(773)534-5130,1,IRVING PARK,33,Deborah Mell
CLINTON,609859,POINT (-87.69835995456619 41.99254135967918),6110 N Fairfield Ave,60659,41.992541,-87.69836,Network 2,District,ES,"PK, K, 1, 2, 3, 4, 5, 6, 7, 8",1(773)534-2025,2,WEST RIDGE,40,Patrick O'Connor
CLISSOLD,609861,POINT (-87.68089678722623 41.69302600601038),2350 W 110th Pl,60643,41.693026,-87.680897,Network 10,District,ES,"K, 1, 2, 3, 4, 5, 6, 7, 8",1(773)535-2560,10,MORGAN PARK,19,Matthew J. O'Shea
COLES,609862,POINT (-87.56596977129497 41.74141280665119),8441 S Yates Blvd,60617,41.741413,-87.56597,Network 12,District,ES,"PK, K, 1, 2, 3, 4, 5, 6, 7, 8",1(773)535-6550,12,SOUTH CHICAGO,7,Natashia Holmes
COLUMBUS,609863,POINT (-87.68193804940178 41.899565775005705),1003 N Leavitt St,60622,41.899566,-87.681938,Network 5,District,ES,"PK, K, 1, 2, 3, 4, 5, 6, 7, 8",1(773)534-4350,5,WEST TOWN,2,Bob Fioretti
COOK,609864,POINT (-87.65977459028453 41.74523702100367),8150 S Bishop St,60620,41.745237,-87.659775,Network 11,District,ES,"PK, K, 1, 2, 3, 4, 5, 6, 7, 8",1(773)535-3315,11,AUBURN GRESHAM,21,"Howard B. Brookins, Jr."
JORDAN,609865,POINT (-87.67776251668089 42.017087590797864),7414 N Wolcott Ave,60626,42.017088,-87.677763,Network 2,District,ES,"PK, K, 1, 2, 3, 4, 5, 6, 7, 8",1(773)534-2220,2,ROGERS PARK,49,Joe A. Moore
COONLEY,609866,POINT (-87.6837653003924 41.955553194279794),4046 N Leavitt St,60618,41.955553,-87.683765,Network 2,District,ES,"PK, K, 1, 2, 3, 4, 5, 6, 7, 8",1(773)534-5140,2,NORTH CENTER,47,Ameya Pawar
COOPER,609867,POINT (-87.66722708432971 41.85603119171157),1624 W 19th St,60608,41.856031,-87.667227,Network 7,District,ES,"PK, K, 1, 2, 3, 4, 5",1(773)534-7205,7,LOWER WEST SIDE,25,Daniel S. Solis
LANGFORD,609869,POINT (-87.6571692055841 41.78468086070149),6010 S Throop St,60636,41.784681,-87.657169,Network 11,District,ES,"PK, K, 1, 2, 3, 4, 5, 6, 7, 8",1(773)535-9180,11,WEST ENGLEWOOD,16,JoAnn Thompson
CORKERY,609870,POINT (-87.73119286519041 41.845602421801),2510 S Kildare Ave,60623,41.845602,-87.731193,Network 7,District,ES,"PK, K, 1, 2, 3, 4, 5, 6, 7, 8",1(773)534-1650,7,SOUTH LAWNDALE,22,Ricardo Munoz
VICK,609871,POINT (-87.68567659747706 41.6881908373849),2554 W 113th St,60655,41.688191,-87.685677,Network 10,District,ES,PK,1(773)535-2671,10,MORGAN PARK,19,Matthew J. O'Shea
PEREZ,609872,POINT (-87.65798012817092 41.856028722413164),1241 W 19th St,60608,41.856029,-87.65798,ISP,District,ES,"PK, K, 1, 2, 3, 4, 5, 6, 7, 8",1(773)534-7650,7,LOWER WEST SIDE,25,Daniel S. Solis
CROWN,609873,POINT (-87.71247015110579 41.85266348732753),2128 S Saint Louis Ave,60623,41.852663,-87.71247,Network 5,District,ES,"PK, K, 1, 2, 3, 4, 5, 6, 7, 8",1(773)534-1680,5,NORTH LAWNDALE,24,Michael D. Chandler
DIRKSEN,609874,POINT (-87.84104144206444 41.973714777017804),8601 W Foster Ave,60656,41.973715,-87.841041,Network 1,District,ES,"PK, K, 1, 2, 3, 4, 5, 6, 7, 8",1(773)534-1090,1,OHARE,41,Mary O'Connor
DARWIN,609875,POINT (-87.70541291325716 41.92332271704915),3116 W Belden Ave,60647,41.923323,-87.705413,Network 4,District,ES,"PK, K, 1, 2, 3, 4, 5, 6, 7, 8",1(773)534-4110,4,LOGAN SQUARE,32,Scott Waguespack
DAVIS N,609876,POINT (-87.7002021605695 41.821851614213344),3014 W 39th Pl,60632,41.821852,-87.700202,Network 8,District,ES,"PK, K, 1, 2, 3, 4, 5, 6, 7, 8",1(773)535-4540,8,BRIGHTON PARK,12,George A. Cardenas
DAWES,609879,POINT (-87.7173534238224 41.745077751391904),3810 W 81st Pl,60652,41.745078,-87.717353,Network 10,District,ES,"PK, K, 1, 2, 3, 4, 5, 6, 7, 8",1(773)535-2350,10,ASHBURN,18,Lona Lane
DECATUR,609880,POINT (-87.70461859277748 42.00928855665608),7030 N Sacramento Ave,60645,42.009289,-87.704619,Network 2,District,ES,"K, 1, 2, 3, 4, 5, 6",1(773)534-2201,2,WEST RIDGE,50,Debra L. Silverstein
DENEEN,609883,POINT (-87.62334458913998 41.76249026378383),7240 S Wabash Ave,60619,41.76249,-87.623345,AUSL,District,ES,"PK, K, 1, 2, 3, 4, 5, 6, 7, 8",1(773)535-3035,12,GREATER GRAND CROSSING,6,Roderick T. Sawyer
DEVER,609884,POINT (-87.81313152493892 41.942551669077154),3436 N Osceola Ave,60634,41.942552,-87.813132,Network 1,District,ES,"PK, K, 1, 2, 3, 4, 5, 6, 7, 8",1(773)534-3090,1,DUNNING,38,Timothy M. Cullerton
DEWEY,609885,POINT (-87.64265157812974 41.795645683032404),5415 S Union Ave,60609,41.795646,-87.642652,AUSL,District,ES,"PK, K, 1, 2, 3, 4, 5, 6, 7, 8",1(773)535-1666,11,NEW CITY,20,Willie B. Cochran
DIXON,609887,POINT (-87.60997887509946 41.74366924140373),8306 S Saint Lawrence Ave,60619,41.743669,-87.609979,Network 12,District,ES,"PK, K, 1, 2, 3, 4, 5, 6, 7, 8",1(773)535-3834,12,CHATHAM,6,Roderick T. Sawyer
DODGE,609888,POINT (-87.70379373544037 41.88918417483859),431 N Troy St,60612,41.889184,-87.703794,AUSL,District,ES,"PK, K, 1, 2, 3, 4, 5, 6, 7, 8",1(773)534-6640,5,HUMBOLDT PARK,27,"Walter Burnett, Jr."
DOOLITTLE,609891,POINT (-87.61227454254565 41.831120628379374),535 E 35th St,60616,41.831121,-87.612275,Network 9,District,ES,"PK, K, 1, 2, 3, 4, 5, 6, 7, 8",1(773)535-1040,9,DOUGLAS,4,"William ""Will"" D. Burns"
DORE,609893,POINT (-87.78760442137504 41.780954463499384),6108 S Natoma Ave,60638,41.780954,-87.787604,ISP,District,ES,"PK, K, 1, 2, 3, 4, 5, 6, 7, 8",1(773)535-2080,10,CLEARING,13,Marty Quinn
DRAKE,609894,POINT (-87.62855344680256 41.844043312481176),2710 S Dearborn St,60616,41.844043,-87.628553,Network 9,District,ES,"PK, K, 1, 2, 3, 4, 5, 6, 7, 8",1(773)534-9129,9,DOUGLAS,3,Patricia R. Dowell
TURNER-DREW,609895,POINT (-87.63016447922544 41.72560921545335),9300 S Princeton Ave,60620,41.725609,-87.630164,Network 11,District,ES,"K, 1, 2, 3, 4, 5, 6, 7, 8",1(773)535-5720,11,ROSELAND,21,"Howard B. Brookins, Jr."
DRUMMOND,609896,POINT (-87.67449459921097 41.91591380141686),1845 W Cortland St,60622,41.915914,-87.674495,Network 6,District,ES,"PK, K, 1, 2, 3, 4, 5, 6, 7, 8",1(773)534-4120,6,LOGAN SQUARE,32,Scott Waguespack
EARLE,609897,POINT (-87.67554666058277 41.781225172259),2040 W 62nd St,60636,41.781225,-87.675547,Network 11,District,ES,"PK, K, 1, 2, 3, 4, 5, 6, 7, 8",1(773)535-9130,11,WEST ENGLEWOOD,16,JoAnn Thompson
EBERHART,609898,POINT (-87.7079526340532 41.774420451575004),3400 W 65th Pl,60629,41.77442,-87.707953,Network 10,District,ES,"PK, K, 1, 2, 3, 4, 5, 6, 7, 8",1(773)535-9190,10,CHICAGO LAWN,23,Michael R. Zalewski
EBINGER,609899,POINT (-87.81116978458577 42.00440792082284),7350 W Pratt Ave,60631,42.004408,-87.81117,Network 1,District,ES,"K, 1, 2, 3, 4, 5, 6, 7, 8",1(773)534-1070,1,EDISON PARK,41,Mary O'Connor
CURTIS,609900,POINT (-87.62165260769711 41.68541839961311),32 E 115th St,60628,41.685418,-87.621653,AUSL,District,ES,"PK, K, 1, 2, 3, 4, 5, 6, 7, 8",1(773)535-5050,13,ROSELAND,9,Anthony A. Beale
EDGEBROOK,609901,POINT (-87.76184047494398 41.99943683282867),6525 N Hiawatha Ave,60646,41.999437,-87.76184,ISP,District,ES,"K, 1, 2, 3, 4, 5, 6, 7, 8",1(773)534-1194,1,FOREST GLEN,41,Mary O'Connor
METCALFE,609902,POINT (-87.63430552146107 41.669444022000064),12339 S Normal Ave,60628,41.669444,-87.634306,Network 13,District,ES,"PK, K, 1, 2, 3, 4, 5, 6, 7, 8",1(773)535-5590,13,WEST PULLMAN,34,Carrie M. Austin
EDWARDS,609903,POINT (-87.72585617780953 41.80554153937759),4815 S Karlov Ave,60632,41.805542,-87.725856,Network 8,District,ES,"PK, K, 1, 2, 3, 4, 5, 6, 7, 8",1(773)535-4875,8,ARCHER HEIGHTS,14,Edward M. Burke
ELLINGTON,609904,POINT (-87.76658937744578 41.885529579816364),243 N Parkside Ave,60644,41.88553,-87.766589,Network 3,District,ES,"PK, K, 1, 2, 3, 4, 5, 6, 7, 8",1(773)534-6361,3,AUSTIN,29,Deborah L. Graham
ERICSON,609907,POINT (-87.71580443126261 41.875744122387985),3600 W 5th Ave,60624,41.875744,-87.715804,Network 5,District,ES,"PK, K, 1, 2, 3, 4, 5, 6, 7, 8",1(773)534-6660,5,EAST GARFIELD PARK,28,Jason C. Ervin
ESMOND,609908,POINT (-87.66915866972074 41.689419605923355),1865 W Montvale Ave,60643,41.68942,-87.669159,Network 10,District,ES,"PK, K, 1, 2, 3, 4, 5, 6, 7, 8",1(773)535-2650,10,MORGAN PARK,19,Matthew J. O'Shea
EVERETT,609909,POINT (-87.68131030397245 41.83155516036679),3419 S Bell Ave,60608,41.831555,-87.68131,Network 8,District,ES,"PK, K, 1, 2, 3, 4, 5",1(773)535-4550,8,MCKINLEY PARK,12,George A. Cardenas
FALCONER,609910,POINT (-87.74933062509248 41.93578457338712),3020 N Lamon Ave,60641,41.935785,-87.749331,Network 3,District,ES,"PK, K, 1, 2, 3, 4, 5, 6",1(773)534-3560,3,BELMONT CRAGIN,31,Ray Suarez
FARNSWORTH,609912,POINT (-87.76607165770453 41.9797900550337),5414 N Linder Ave,60630,41.97979,-87.766072,Network 1,District,ES,"PK, K, 1, 2, 3, 4, 5, 6, 7, 8",1(773)534-3535,1,JEFFERSON PARK,45,John Arena
FERNWOOD,609917,POINT (-87.64041364601377 41.711183621888566),10041 S Union Ave,60628,41.711184,-87.640414,Network 13,District,ES,"PK, K, 1, 2, 3, 4, 5, 6, 7, 8",1(773)535-2700,13,WASHINGTON HEIGHTS,34,Carrie M. Austin
FIELD,609918,POINT (-87.66998540121291 42.0096638544324),7019 N Ashland Ave,60626,42.009664,-87.669985,Network 2,District,ES,"4, 5, 6, 7, 8",1(773)534-2030,2,ROGERS PARK,49,Joe A. Moore
FISKE,609919,POINT (-87.60863289677822 41.78518281595433),6020 S Langley Ave,60637,41.785183,-87.608633,Network 9,District,ES,"PK, K, 1, 2, 3, 4, 5, 6, 7, 8",1(773)535-0990,9,WOODLAWN,20,Willie B. Cochran
KANOON,609920,POINT (-87.70511207744957 41.85077148316291),2233 S Kedzie Ave,60623,41.850771,-87.705112,Network 7,District,ES,"PK, K, 1, 2, 3, 4, 5, 6, 7, 8",1(773)534-1736,7,SOUTH LAWNDALE,12,George A. Cardenas
TELPOCHCALLI,609921,POINT (-87.69600587941514 41.84794743181953),2832 W 24th Blvd,60623,41.847947,-87.696006,Network 7,District,ES,"PK, K, 1, 2, 3, 4, 5, 6, 7, 8",1(773)534-1402,7,SOUTH LAWNDALE,12,George A. Cardenas
BELMONT-CRAGIN,609922,POINT (-87.75684290347073 41.920150046216754),5252 W Palmer St,60639,41.92015,-87.756843,Network 3,District,ES,"PK, K, 1, 2, 3, 4, 5, 6, 7, 8",1(773)534-2900,3,BELMONT CRAGIN,36,Nicholas Sposato
FORT DEARBORN,609924,POINT (-87.65548116040235 41.72967267427433),9025 S Throop St,60620,41.729673,-87.655481,Network 11,District,ES,"PK, K, 1, 2, 3, 4, 5, 6, 7, 8",1(773)535-2680,11,WASHINGTON HEIGHTS,21,"Howard B. Brookins, Jr."
KELLMAN,609925,POINT (-87.70216290453644 41.87016771674499),3030 W Arthington St,60612,41.870168,-87.702163,Network 5,District,ES,"PK, K, 1, 2, 3, 4, 5, 6, 7, 8",1(773)534-6602,5,EAST GARFIELD PARK,28,Jason C. Ervin
FRANKLIN,609926,POINT (-87.63551281030391 41.90659998963077),225 W Evergreen Ave,60610,41.9066,-87.635513,Network 4,District,ES,"K, 1, 2, 3, 4, 5, 6, 7, 8",1(773)534-8510,4,NEAR NORTH SIDE,27,"Walter Burnett, Jr."
FOSTER PARK,609927,POINT (-87.66809931189269 41.738425477021146),8530 S Wood St,60620,41.738425,-87.668099,Network 11,District,ES,"PK, K, 1, 2, 3, 4, 5, 6, 7, 8",1(773)535-2725,11,AUBURN GRESHAM,21,"Howard B. Brookins, Jr."
FULLER,609928,POINT (-87.61178404274118 41.81800340294159),4214 S St Lawrence Ave,60653,41.818003,-87.611784,AUSL,District,ES,"PK, K, 1, 2, 3, 4, 5, 6, 7, 8",1(773)535-1687,9,GRAND BOULEVARD,4,"William ""Will"" D. Burns"
FULTON,609929,POINT (-87.66843588139683 41.7975802703773),5300 S Hermitage Ave,60609,41.79758,-87.668436,Network 11,District,ES,"PK, K, 1, 2, 3, 4, 5, 6, 7, 8",1(773)535-9000,11,NEW CITY,16,JoAnn Thompson
FUNSTON,609930,POINT (-87.71689166494224 41.91761651356991),2010 N Central Park Ave,60647,41.917617,-87.716892,Network 4,District,ES,"PK, K, 1, 2, 3, 4, 5, 6, 7, 8",1(773)534-4125,4,LOGAN SQUARE,26,Roberto Maldonado
GALE,609933,POINT (-87.67193897606161 42.0210905573077),1631 W Jonquil Ter,60626,42.021091,-87.671939,Network 2,District,ES,"PK, K, 1, 2, 3, 4, 5, 6, 7, 8",1(773)534-2100,2,ROGERS PARK,49,Joe A. Moore
GALLISTEL,609935,POINT (-87.53517530621241 41.70680099904343),10347 S Ewing Ave,60617,41.706801,-87.535175,Network 13,District,ES,"PK, K, 1, 2, 3, 4, 5, 6, 7, 8",1(773)535-6540,13,EAST SIDE,10,John A. Pope
GARVY,609937,POINT (-87.79623511347634 41.97635166333006),5225 N Oak Park Ave,60656,41.976352,-87.796235,Network 1,District,ES,"K, 1, 2, 3, 4, 5, 6, 7, 8",1(773)534-1185,1,NORWOOD PARK,41,Mary O'Connor
GARY,609938,POINT (-87.7186966352411 41.837065151315606),3740 W 31st St,60623,41.837065,-87.718697,Network 7,District,ES,"PK, 3, 4, 5, 6, 7, 8",1(773)534-1455,7,SOUTH LAWNDALE,22,Ricardo Munoz
GILLESPIE,609939,POINT (-87.62371943795503 41.72533227871203),9301 S State St,60619,41.725332,-87.623719,Network 12,District,ES,"PK, K, 1, 2, 3, 4, 5, 6, 7, 8",1(773)535-5065,12,ROSELAND,9,Anthony A. Beale
RANDOLPH,609941,POINT (-87.67596551370933 41.76061412716346),7316 S Hoyne Ave,60636,41.760614,-87.675966,Network 11,District,ES,"PK, K, 1, 2, 3, 4, 5, 6, 7, 8",1(773)535-9015,11,WEST ENGLEWOOD,17,Latasha R. Thomas
GOETHE,609942,POINT (-87.69289969575996 41.92283100686743),2236 N Rockwell St,60647,41.922831,-87.6929,Network 4,District,ES,"PK, K, 1, 2, 3, 4, 5, 6, 7, 8",1(773)534-4135,4,LOGAN SQUARE,1,Proco (Joe) Moreno III
OWENS,609943,POINT (-87.62254566113222 41.67061753941053),12302 S State St,60628,41.670618,-87.622546,Network 13,District,ES,"PK, K, 1, 2, 3, 4, 5, 6, 7, 8",1(773)535-5475,13,WEST PULLMAN,9,Anthony A. Beale
GRISSOM,609944,POINT (-87.55330670974692 41.662480998189885),12810 S Escanaba Ave,60633,41.662481,-87.553307,Network 13,District,ES,"PK, K, 1, 2, 3, 4, 5, 6, 7, 8",1(773)535-5380,13,HEGEWISCH,10,John A. Pope
GOUDY,609945,POINT (-87.65791249294597 41.97581652979213),5120 N Winthrop Ave,60640,41.975817,-87.657912,Network 2,District,ES,"PK, K, 1, 2, 3, 4, 5, 6, 7, 8",1(773)534-2480,2,UPTOWN,48,Harry Osterman
GRAHAM ES,609947,POINT (-87.64334423529118 41.81330372874002),4436 S Union Ave,60609,41.813304,-87.643344,Network 6,District,ES,"PK, K, 1, 2, 3, 4, 5, 6, 7, 8",1(773)535-1308,6,NEW CITY,11,James A. Balcer
GRAY,609949,POINT (-87.75711559878769 41.94876357882175),3730 N Laramie Ave,60641,41.948764,-87.757116,Network 1,District,ES,"PK, K, 1, 2, 3, 4, 5, 6, 7, 8",1(773)534-3520,1,PORTAGE PARK,45,John Arena
ORTIZ DE DOMINGUEZ,609950,POINT (-87.71719032064492 41.838790519718465),3000 S Lawndale Ave,60623,41.838791,-87.71719,Network 7,District,ES,"PK, K, 1, 2",1(773)534-1600,7,SOUTH LAWNDALE,22,Ricardo Munoz
ARIEL,609951,POINT (-87.59750293142264 41.81117346141953),1119 E 46th St,60653,41.811173,-87.597503,ISP,District,ES,"PK, K, 1, 2, 3, 4, 5, 6, 7, 8",1(773)535-1996,9,KENWOOD,4,"William ""Will"" D. Burns"
GREENE,609952,POINT (-87.6714923697844 41.82966928098321),3525 S Honore St,60609,41.829669,-87.671492,Network 8,District,ES,"PK, K, 1, 2, 3, 4, 5",1(773)535-4560,8,MCKINLEY PARK,12,George A. Cardenas
GREGORY,609954,POINT (-87.71866612875756 41.87074216207702),3715 W Polk St,60624,41.870742,-87.718666,Network 5,District,ES,"PK, K, 1, 2, 3, 4, 5, 6, 7, 8",1(773)534-6820,5,EAST GARFIELD PARK,24,Michael D. Chandler
GRESHAM,609955,POINT (-87.6450252378634 41.738920157362905),8524 S Green St,60620,41.73892,-87.645025,AUSL,District,ES,"PK, K, 1, 2, 3, 4, 5, 6, 7, 8",1(773)535-3350,11,AUBURN GRESHAM,21,"Howard B. Brookins, Jr."
GRIMES,609956,POINT (-87.75880329373048 41.77546426102638),5450 W 64th Pl,60638,41.775464,-87.758803,Network 10,District,ES,"PK, K, 1, 2, 3, 4, 5, 6, 7, 8",1(773)535-2364,10,CLEARING,13,Marty Quinn
GUNSAULUS,609958,POINT (-87.69936418518634 41.81300736949125),4420 S Sacramento Ave,60632,41.813007,-87.699364,Network 8,District,ES,"PK, K, 1, 2, 3, 4, 5, 6, 7, 8",1(773)535-7215,8,BRIGHTON PARK,15,Toni L. Foulkes
HAINES,609959,POINT (-87.63380633151597 41.8499583150072),247 W 23rd Pl,60616,41.849958,-87.633806,ISP,District,ES,"PK, K, 1, 2, 3, 4, 5, 6, 7, 8",1(773)534-9200,6,ARMOUR SQUARE,25,Daniel S. Solis
HALE,609960,POINT (-87.77657870912519 41.78019173154665),6140 S Melvina Ave,60638,41.780192,-87.776579,Network 10,District,ES,"PK, K, 1, 2, 3, 4, 5, 6, 7, 8",1(773)535-2265,10,CLEARING,13,Marty Quinn
NINOS HEROES,609961,POINT (-87.55186171909111 41.743753082956964),8344 S Commercial Ave,60617,41.743753,-87.551862,Network 12,District,ES,"PK, K, 1, 2, 3, 4, 5, 6, 7, 8",1(773)535-6694,12,SOUTH CHICAGO,7,Natashia Holmes
HAMILTON,609963,POINT (-87.67086537348014 41.945219653783845),1650 W Cornelia Ave,60657,41.94522,-87.670865,Network 4,District,ES,"PK, K, 1, 2, 3, 4, 5, 6, 7, 8",1(773)534-5484,4,LAKE VIEW,47,Ameya Pawar
HAMLINE,609964,POINT (-87.66117465942679 41.80724155714083),4747 S Bishop St,60609,41.807242,-87.661175,Network 8,District,ES,"PK, K, 1, 2, 3, 4, 5, 6, 7, 8",1(773)535-4565,8,NEW CITY,20,Willie B. Cochran
HAMMOND,609966,POINT (-87.69624330058983 41.852719133989446),2819 W 21st Pl,60623,41.852719,-87.696243,Network 7,District,ES,"PK, K, 1, 2, 3, 4, 5, 6, 7, 8",1(773)535-4580,7,SOUTH LAWNDALE,12,George A. Cardenas
FINKL,609967,POINT (-87.6856678431443 41.84921490509248),2332 S Western Ave,60608,41.849215,-87.685668,Network 7,District,ES,"PK, K, 1, 2, 3, 4, 5, 6, 7, 8",1(773)535-5850,7,LOWER WEST SIDE,25,Daniel S. Solis
MCAULIFFE,609968,POINT (-87.72393113192713 41.914816341068494),1841 N Springfield Ave,60647,41.914816,-87.723931,Network 4,District,ES,"PK, K, 1, 2, 3, 4, 5, 6, 7, 8",1(773)534-4400,4,HERMOSA,26,Roberto Maldonado
HARTE,609969,POINT (-87.58685459677777 41.79344724333088),1556 E 56th St,60637,41.793447,-87.586855,Network 9,District,ES,"PK, K, 1, 2, 3, 4, 5, 6, 7, 8",1(773)535-0870,9,HYDE PARK,5,Leslie A. Hairston
HARVARD,609971,POINT (-87.6327368738333 41.757340541503886),7525 S Harvard,60620,41.757341,-87.632737,AUSL,District,ES,"PK, K, 1, 2, 3, 4, 5, 6, 7, 8",1(773)535-3045,11,GREATER GRAND CROSSING,6,Roderick T. Sawyer
HAUGAN,609972,POINT (-87.72312803519034 41.96402870872475),4540 N Hamlin Ave,60625,41.964029,-87.723128,Network 1,District,ES,"PK, K, 1, 2, 3, 4, 5, 6",1(773)534-5040,1,ALBANY PARK,35,Rey Colon
ZAPATA,609973,POINT (-87.73431332420904 41.841393803560145),2728 S Kostner Ave,60623,41.841394,-87.734313,ISP,District,ES,"PK, K, 1, 2, 3, 4, 5, 6, 7, 8",1(773)534-1390,7,SOUTH LAWNDALE,22,Ricardo Munoz
HAWTHORNE,609974,POINT (-87.65770887692337 41.942275488111704),3319 N Clifton Ave,60657,41.942275,-87.657709,Network 4,District,ES,"K, 1, 2, 3, 4, 5, 6, 7, 8",1(773)534-5550,4,LAKE VIEW,44,Thomas Tunney
HAY,609975,POINT (-87.75581325312729 41.899171355267384),1018 N Laramie Ave,60651,41.899171,-87.755813,Network 3,District,ES,"PK, K, 1, 2, 3, 4, 5, 6, 7, 8",1(773)534-6000,3,AUSTIN,37,Emma M. Mitts
HAYT,609976,POINT (-87.6685037744945 41.994540885911015),1518 W Granville Ave,60660,41.994541,-87.668504,Network 2,District,ES,"PK, K, 1, 2, 3, 4, 5, 6, 7, 8",1(773)534-2040,2,EDGEWATER,48,Harry Osterman
WOODLAWN,609977,POINT (-87.5943919960078 41.773365531206366),6657 S Kimbark Ave,60637,41.773366,-87.594392,Network 9,District,ES,"PK, K, 1, 2, 3, 4, 5, 6",1(773)535-0801,9,WOODLAWN,5,Leslie A. Hairston
SMITH,609978,POINT (-87.60466040848978 41.70755761663942),744 E 103rd St,60628,41.707558,-87.60466,Network 13,District,ES,"PK, K, 1, 2, 3, 4, 5, 6, 7, 8",1(773)535-5689,13,PULLMAN,8,Michelle A. Harris
HEALY,609979,POINT (-87.64034075006907 41.8395948554548),3010 S Parnell Ave,60616,41.839595,-87.640341,ISP,District,ES,"PK, K, 1, 2, 3, 4, 5, 6, 7, 8",1(773)534-9190,6,BRIDGEPORT,11,James A. Balcer
HEARST,609981,POINT (-87.74572605724302 41.80817499945475),4640 S Lamon Ave,60638,41.808175,-87.745726,Network 10,District,ES,"PK, K, 1, 2, 3, 4, 5, 6, 7, 8",1(773)535-2376,10,GARFIELD RIDGE,22,Ricardo Munoz
HEDGES,609983,POINT (-87.67332725936954 41.80711213119837),4747 S Winchester Ave,60609,41.807112,-87.673327,Network 8,District,ES,"PK, K, 1, 2, 3, 4, 5, 6, 7, 8",1(773)535-7360,8,NEW CITY,15,Toni L. Foulkes
HEFFERAN,609985,POINT (-87.73580189396901 41.87866464646667),4409 W Wilcox St,60624,41.878665,-87.735802,Network 5,District,ES,"PK, K, 1, 2, 3, 4, 5, 6, 7, 8",1(773)534-6192,5,WEST GARFIELD PARK,28,Jason C. Ervin
HENDERSON,609986,POINT (-87.67188730687042 41.79059128644693),5650 S Wolcott Ave,60636,41.790591,-87.671887,Network 11,District,ES,"PK, K, 1, 2, 3, 4, 5, 6, 7, 8",1(773)535-9080,11,WEST ENGLEWOOD,15,Toni L. Foulkes
HENDRICKS,609987,POINT (-87.6336644770139 41.815787751119224),4316 S Princeton Ave,60609,41.815788,-87.633664,Network 9,District,ES,"PK, K, 1, 2, 3, 4, 5, 6, 7, 8",1(773)535-1696,9,FULLER PARK,3,Patricia R. Dowell
HENRY,609988,POINT (-87.71563237185069 41.95898879683837),4250 N Saint Louis Ave,60618,41.958989,-87.715632,Network 1,District,ES,"PK, K, 1, 2, 3, 4, 5, 6",1(773)534-5060,1,IRVING PARK,35,Rey Colon
SOUTH LOOP,609990,POINT (-87.62861500404436 41.86687450554005),1212 S Plymouth Ct,60605,41.866875,-87.628615,ISP,District,ES,"K, 1, 2, 3, 4, 5, 6, 7, 8",1(773)534-8690,6,NEAR SOUTH SIDE,3,Patricia R. Dowell
HERZL,609991,POINT (-87.71899385397786 41.86208129597785),3711 W Douglas Blvd,60623,41.862081,-87.718994,AUSL,District,ES,"PK, K, 1, 2, 3, 4, 5, 6, 7, 8",1(773)534-1480,5,NORTH LAWNDALE,24,Michael D. Chandler
LARA,609993,POINT (-87.67218159319019 41.80977029647794),4619 S Wolcott Ave,60609,41.80977,-87.672182,Network 8,District,ES,"PK, K, 1, 2, 3, 4, 5, 6, 7, 8",1(773)535-4389,8,NEW CITY,15,Toni L. Foulkes
HIBBARD,609994,POINT (-87.71036161364023 41.97033523444268),3244 W Ainslie St,60625,41.970335,-87.710362,Network 1,District,ES,"PK, K, 1, 2, 3, 4, 5, 6",1(773)534-5191,1,ALBANY PARK,33,Deborah Mell
HITCH,609995,POINT (-87.77912305218847 41.98367169546214),5625 N McVicker Ave,60646,41.983672,-87.779123,Network 1,District,ES,"PK, K, 1, 2, 3, 4, 5, 6, 7, 8",1(773)534-1189,1,NORWOOD PARK,45,John Arena
HOLDEN,609996,POINT (-87.65379166824974 41.838027387432774),1104 W 31st St,60608,41.838027,-87.653792,Network 6,District,ES,"PK, K, 1, 2, 3, 4, 5, 6, 7, 8",1(773)535-7200,6,BRIDGEPORT,11,James A. Balcer
HOLMES,609997,POINT (-87.64979535586481 41.79378764869643),955 W Garfield Blvd,60621,41.793788,-87.649795,OS4,District,ES,"PK, K, 1, 2, 3, 4, 5, 6, 7, 8",1(773)535-9025,11,ENGLEWOOD,16,JoAnn Thompson
HOWE,610000,POINT (-87.75939838484895 41.89361221078825),720 N Lorel Ave,60644,41.893612,-87.759398,AUSL,District,ES,"PK, K, 1, 2, 3, 4, 5, 6, 7, 8",1(773)534-6060,3,AUSTIN,37,Emma M. Mitts
HOYNE,610002,POINT (-87.56822810113663 41.733337751830604),8905 S Crandon Ave,60617,41.733338,-87.568228,Network 12,District,ES,"K, 1, 2, 3, 4, 5, 6, 7, 8",1(773)535-6425,12,CALUMET HEIGHTS,7,Natashia Holmes
CUFFE,610003,POINT (-87.653633447573 41.74245162679323),8324 S Racine Ave,60620,41.742452,-87.653633,Network 11,District,ES,"PK, K, 1, 2, 3, 4, 5, 6, 7, 8",1(773)535-8250,11,AUBURN GRESHAM,21,"Howard B. Brookins, Jr."
CULLEN,610004,POINT (-87.61124445831854 41.70033514112261),10650 S Eberhart Ave,60628,41.700335,-87.611244,Network 13,District,ES,"K, 1, 2, 3, 4, 5, 6, 7, 8",1(773)535-5375,13,ROSELAND,9,Anthony A. Beale
HUGHES C,610005,POINT (-87.73177738698969 41.86051773760308),4247 W 15th St,60623,41.860518,-87.731777,Network 5,District,ES,"PK, K, 1, 2, 3, 4, 5, 6, 7, 8",1(773)534-1762,5,NORTH LAWNDALE,24,Michael D. Chandler
HURLEY,610006,POINT (-87.71954083233076 41.76678528090275),3849 W 69th Pl,60629,41.766785,-87.719541,Network 10,District,ES,"PK, K, 1, 2, 3, 4, 5, 6, 7, 8",1(773)535-2068,10,WEST LAWN,13,Marty Quinn
GALILEO,610009,POINT (-87.65336555274118 41.8712548235351),820 S Carpenter St,60607,41.871255,-87.653366,Network 6,District,ES,"K, 1, 2, 3, 4, 5, 6, 7, 8",1(773)534-7070,6,NEAR WEST SIDE,25,Daniel S. Solis
JAHN,610010,POINT (-87.67580971887296 41.939247496161926),3149 N Wolcott Ave,60657,41.939247,-87.67581,Network 4,District,ES,"PK, K, 1, 2, 3, 4, 5, 6, 7, 8",1(773)534-5500,4,NORTH CENTER,32,Scott Waguespack
JAMIESON,610011,POINT (-87.70052942024131 41.984640775481616),5650 N Mozart St,60659,41.984641,-87.700529,Network 2,District,ES,"PK, K, 1, 2, 3, 4, 5, 6, 7, 8",1(773)534-2395,2,WEST RIDGE,40,Patrick O'Connor
JENNER,610012,POINT (-87.64105555983569 41.90205484084685),1119 N Cleveland Ave,60610,41.902055,-87.641056,Network 6,District,ES,"PK, K, 1, 2, 3, 4, 5, 6, 7, 8",1(773)534-8440,6,NEAR NORTH SIDE,27,"Walter Burnett, Jr."
PILSEN,610013,POINT (-87.66220943346809 41.85884887551057),1420 W 17th St,60608,41.858849,-87.662209,Network 7,District,ES,"PK, K, 1, 2, 3, 4, 5, 6, 7, 8",1(773)534-7675,7,LOWER WEST SIDE,25,Daniel S. Solis
JUNGMAN,610015,POINT (-87.65230159442224 41.858064776310364),1746 S Miller St,60608,41.858065,-87.652302,Network 7,District,ES,"PK, K, 1, 2, 3, 4, 5, 6, 7, 8",1(773)534-7375,7,LOWER WEST SIDE,25,Daniel S. Solis
KELLOGG,610016,POINT (-87.67723250661533 41.72526343898277),9241 S Leavitt St,60620,41.725263,-87.677233,Network 10,District,ES,"K, 1, 2, 3, 4, 5, 6, 7, 8",1(773)535-2590,10,BEVERLY,19,Matthew J. O'Shea
SAUCEDO,610017,POINT (-87.6973155379961 41.84794071574654),2850 W 24th Blvd,60623,41.847941,-87.697316,Network 7,District,ES,"PK, K, 1, 2, 3, 4, 5, 6, 7, 8",1(773)534-1770,7,SOUTH LAWNDALE,12,George A. Cardenas
KERSHAW,610019,POINT (-87.64089202532394 41.77645280983267),6450 S Lowe Ave,60621,41.776453,-87.640892,Network 11,District,ES,"PK, K, 1, 2, 3, 4, 5, 6, 7, 8",1(773)535-3050,11,ENGLEWOOD,20,Willie B. Cochran
CASALS,610021,POINT (-87.71423364692633 41.90450276414419),3501 W Potomac Ave,60651,41.904503,-87.714234,AUSL,District,ES,"PK, K, 1, 2, 3, 4, 5, 6, 7, 8",1(773)534-4444,5,HUMBOLDT PARK,26,Roberto Maldonado
KILMER,610022,POINT (-87.6682224666858 42.00364046203036),6700 N Greenview Ave,60626,42.00364,-87.668222,Network 2,District,ES,"PK, K, 1, 2, 3, 4, 5, 6, 7, 8",1(773)534-2115,2,ROGERS PARK,49,Joe A. Moore
CARDENAS,610024,POINT (-87.7160174071218 41.848487770008255),2345 S Millard Ave,60623,41.848488,-87.716017,Network 7,District,ES,"PK, K, 1, 2, 3",1(773)534-1465,7,SOUTH LAWNDALE,22,Ricardo Munoz
KINZIE,610026,POINT (-87.77948260008061 41.78996463403319),5625 S Mobile Ave,60638,41.789965,-87.779483,ISP,District,ES,"PK, K, 1, 2, 3, 4, 5, 6, 7, 8",1(773)535-2425,10,GARFIELD RIDGE,13,Marty Quinn
KIPLING,610027,POINT (-87.63952072145291 41.723626905205585),9351 S Lowe Ave,60620,41.723627,-87.639521,Network 11,District,ES,"K, 1, 2, 3, 4, 5, 6, 7, 8",1(773)535-3151,11,WASHINGTON HEIGHTS,21,"Howard B. Brookins, Jr."
LOZANO,610029,POINT (-87.66509327249487 41.908886127226424),1501 N Greenview Ave,60642,41.908886,-87.665093,Network 6,District,ES,"PK, K, 1, 2, 3, 4, 5, 6, 7, 8",1(773)534-4750,6,WEST TOWN,2,Bob Fioretti
KOZMINSKI,610030,POINT (-87.60248144762679 41.79800187719355),936 E 54th St,60615,41.798002,-87.602481,Network 9,District,ES,"PK, K, 1, 2, 3, 4, 5, 6, 7, 8",1(773)535-0980,9,HYDE PARK,5,Leslie A. Hairston
GREEN,610032,POINT (-87.6525001396679 41.7192919472838),1150 W 96th St,60643,41.719292,-87.6525,Network 11,District,ES,"PK, K, 1, 2, 3, 4, 5, 6, 7, 8",1(773)535-2575,11,WASHINGTON HEIGHTS,21,"Howard B. Brookins, Jr."
LASALLE,610033,POINT (-87.63756486380431 41.913899532151724),1734 N Orleans St,60614,41.9139,-87.637565,Network 4,District,ES,"K, 1, 2, 3, 4, 5, 6, 7, 8",1(773)534-8470,4,LINCOLN PARK,43,Michele Smith
LAWNDALE,610034,POINT (-87.71295678691394 41.86296002399929),3500 W Douglas Blvd,60623,41.86296,-87.712957,Network 5,District,ES,"PK, K, 1, 2, 3, 4, 5, 6, 7, 8",1(773)534-1635,5,NORTH LAWNDALE,24,Michael D. Chandler
LEWIS,610036,POINT (-87.75454995048698 41.9068260497377),1431 N Leamington Ave,60651,41.906826,-87.75455,AUSL,District,ES,"PK, K, 1, 2, 3, 4, 5, 6, 7, 8",1(773)534-3060,3,AUSTIN,37,Emma M. Mitts
LIBBY,610037,POINT (-87.6599328173989 41.79768483179142),5300 S Loomis Blvd,60609,41.797685,-87.659933,Network 11,District,ES,"K, 1, 2, 3, 4, 5, 6, 7, 8",1(773)535-9050,11,NEW CITY,20,Willie B. Cochran
LINCOLN,610038,POINT (-87.64449730365006 41.92452481572454),615 W Kemper Pl,60614,41.924525,-87.644497,Network 4,District,ES,"K, 1, 2, 3, 4, 5, 6, 7, 8",1(773)534-5720,4,LINCOLN PARK,43,Michele Smith
VON LINNE,610039,POINT (-87.7026346744549 41.94000927919317),3221 N Sacramento Ave,60618,41.940009,-87.702635,Network 4,District,ES,"PK, K, 1, 2, 3, 4, 5, 6, 7, 8",1(773)534-5262,4,AVONDALE,33,Deborah Mell
LLOYD,610040,POINT (-87.74851501331425 41.91881409548188),2103 N Lamon Ave,60639,41.918814,-87.748515,ISP,District,ES,"PK, K, 1, 2, 3, 4, 5",1(773)534-3070,3,BELMONT CRAGIN,36,Nicholas Sposato
LOCKE J,610041,POINT (-87.7956040707078 41.93176235366776),2828 N Oak Park Ave,60634,41.931762,-87.795604,Network 3,District,ES,"PK, K, 1, 2, 3, 4, 5, 6, 7, 8",1(773)534-3300,3,MONTCLARE,36,Nicholas Sposato
LOVETT,610043,POINT (-87.78391884722994 41.91271802638446),6333 W Bloomingdale Ave,60639,41.912718,-87.783919,Network 3,District,ES,"PK, K, 1, 2, 3, 4, 5, 6, 7, 8",1(773)534-3130,3,AUSTIN,29,Deborah L. Graham
LOWELL,610044,POINT (-87.71021700220736 41.9065195908169),3320 W Hirsch St,60651,41.90652,-87.710217,Network 5,District,ES,"PK, K, 1, 2, 3, 4, 5, 6, 7, 8",1(773)534-4300,5,HUMBOLDT PARK,26,Roberto Maldonado
LYON,610046,POINT (-87.77717419855678 41.9341921621779),2941 N McVicker Ave,60634,41.934192,-87.777174,Network 3,District,ES,"K, 1, 2, 3, 4, 5, 6, 7, 8",1(773)534-3120,3,BELMONT CRAGIN,30,Ariel E. Reboyras
MADISON,610047,POINT (-87.59071239549729 41.759548059733554),7433 S Dorchester Ave,60619,41.759548,-87.590712,Network 12,District,ES,"PK, K, 1, 2, 3, 4, 5, 6, 7, 8",1(773)535-0551,12,SOUTH SHORE,8,Michelle A. Harris
MANIERRE,610048,POINT (-87.6398265130955 41.90824688190267),1420 N Hudson Ave,60610,41.908247,-87.639827,Network 4,District,ES,"PK, K, 1, 2, 3, 4, 5, 6, 7, 8",1(773)534-8456,4,NEAR NORTH SIDE,27,"Walter Burnett, Jr."
NORTHWEST,610051,POINT (-87.75815425646772 41.920154769536886),5252 W Palmer St,60639,41.920155,-87.758154,Network 3,District,ES,"6, 7, 8",1(773)534-3250,3,BELMONT CRAGIN,36,Nicholas Sposato
MANN,610052,POINT (-87.57481563758823 41.748274127169125),8050 S Chappel Ave,60617,41.748274,-87.574816,OS4,District,ES,"PK, K, 1, 2, 3, 4, 5, 6, 7, 8",1(773)535-6640,12,SOUTH CHICAGO,8,Michelle A. Harris
MARQUETTE,610053,POINT (-87.6970297996588 41.773881079473696),6550 S Richmond St,60629,41.773881,-87.69703,AUSL,District,ES,"PK, K, 1, 2, 3, 4, 5, 6, 7, 8",1(773)535-9260,10,CHICAGO LAWN,17,Latasha R. Thomas
MARSH,610054,POINT (-87.55248342633648 41.71658801410098),9822 S Exchange Ave,60617,41.716588,-87.552483,Network 13,District,ES,"PK, K, 1, 2, 3, 4, 5, 6, 7, 8",1(773)535-6430,13,SOUTH DEERING,10,John A. Pope
FARADAY,610055,POINT (-87.70809201987342 41.87971359074486),3250 W Monroe St,60624,41.879714,-87.708092,Network 5,District,ES,"PK, K, 1, 2, 3, 4, 5, 6, 7, 8",1(773)534-6670,5,EAST GARFIELD PARK,28,Jason C. Ervin
MASON,610056,POINT (-87.73167243331923 41.856863699936575),4217 W 18th St,60623,41.856864,-87.731672,Network 5,District,ES,"PK, K, 1, 2, 3, 4, 5, 6, 7, 8",1(773)534-1530,5,NORTH LAWNDALE,24,Michael D. Chandler
FAIRFIELD,610057,POINT (-87.69211506409064 41.78090389780261),6201 S Fairfield Ave,60629,41.780904,-87.692115,Network 10,District,ES,"PK, K, 1, 2, 3, 4, 5, 6, 7, 8",1(773)535-9500,10,CHICAGO LAWN,16,JoAnn Thompson
MAYER,610059,POINT (-87.65728743867017 41.923203521706576),2250 N Clifton Ave,60614,41.923204,-87.657287,Network 4,District,ES,"PK, K, 1, 2, 3, 4, 5, 6, 7, 8",1(773)534-5535,4,LINCOLN PARK,43,Michele Smith
JACKSON A,610060,POINT (-87.66098467201674 41.87429963801844),1340 W Harrison St,60607,41.8743,-87.660985,Network 6,District,ES,"K, 1, 2, 3, 4, 5, 6, 7, 8",1(773)534-7000,6,NEAR WEST SIDE,28,Jason C. Ervin
MCCLELLAN,610062,POINT (-87.64110257492602 41.82999286245968),3527 S Wallace St,60609,41.829993,-87.641103,Network 6,District,ES,"PK, K, 1, 2, 3, 4, 5, 6, 7, 8",1(773)535-1732,6,BRIDGEPORT,11,James A. Balcer
MCCORMICK,610063,POINT (-87.70630009244496 41.842267164887254),2712 S Sawyer Ave,60623,41.842267,-87.7063,Network 7,District,ES,"PK, K, 1, 2, 3, 4, 5",1(773)535-7252,7,SOUTH LAWNDALE,22,Ricardo Munoz
TILL,610065,POINT (-87.60935721071795 41.7754238433123),6543 S Champlain Ave,60637,41.775424,-87.609357,Network 9,District,ES,"PK, K, 1, 2, 3, 4, 5, 6, 7, 8",1(773)535-0570,9,WOODLAWN,20,Willie B. Cochran
MCDADE,610066,POINT (-87.61921444334452 41.734549907687025),8801 S Indiana Ave,60619,41.73455,-87.619214,Network 12,District,ES,"K, 1, 2, 3, 4, 5, 6",1(773)535-3669,12,CHATHAM,9,Anthony A. Beale
MCKAY,610067,POINT (-87.69178650238979 41.768142764164764),6901 S Fairfield Ave,60629,41.768143,-87.691787,Network 10,District,ES,"PK, K, 1, 2, 3, 4, 5, 6, 7, 8",1(773)535-9340,10,CHICAGO LAWN,17,Latasha R. Thomas
HANSON PARK,610068,POINT (-87.76151477104636 41.92395525749148),5411 W Fullerton Ave,60639,41.923955,-87.761515,Network 3,District,ES,"PK, K, 1, 2, 3, 4, 5, 6, 7, 8",1(773)534-3100,3,BELMONT CRAGIN,36,Nicholas Sposato
MCPHERSON,610070,POINT (-87.67628825271328 41.967846867335744),4728 N Wolcott Ave,60640,41.967847,-87.676288,Network 2,District,ES,"PK, K, 1, 2, 3, 4, 5, 6, 7, 8",1(773)534-2625,2,LINCOLN SQUARE,47,Ameya Pawar
MITCHELL,610073,POINT (-87.68318458647029 41.89208216559126),2233 W Ohio St,60612,41.892082,-87.683185,Network 5,District,ES,"PK, K, 1, 2, 3, 4, 5, 6, 7, 8",1(773)534-7655,5,WEST TOWN,26,Roberto Maldonado
MONROE,610074,POINT (-87.71922375120822 41.92998860278084),3651 W Schubert Ave,60647,41.929989,-87.719224,Network 4,District,ES,"PK, K, 1, 2, 3, 4, 5, 6, 7, 8",1(773)534-4155,4,LOGAN SQUARE,35,Rey Colon
MONTEFIORE,610075,POINT (-87.6664442313907 41.86472415354908),1310 S Ashland Ave,60608,41.864724,-87.666444,Network 6,District,ES,"4, 5, 6, 7, 8",1(773)534-7825,6,NEAR WEST SIDE,28,Jason C. Ervin
MOOS,610076,POINT (-87.69694138664606 41.91250548291535),1711 N California Ave,60647,41.912505,-87.696941,ISP,District,ES,"PK, K, 1, 2, 3, 4, 5, 6, 7, 8",1(773)534-4340,5,WEST TOWN,1,Proco (Joe) Moreno III
MORRILL,610077,POINT (-87.68854925560024 41.78431328119842),6011 S Rockwell St,60629,41.784313,-87.688549,Network 10,District,ES,"PK, K, 1, 2, 3, 4, 5, 6, 7, 8",1(773)535-9288,10,CHICAGO LAWN,16,JoAnn Thompson
INTER-AMERICAN,610078,POINT (-87.65157334176013 41.94900329989232),851 W Waveland Ave,60613,41.949003,-87.651573,Network 4,District,ES,"PK, K, 1, 2, 3, 4, 5, 6, 7, 8",1(773)534-5490,4,LAKE VIEW,44,Thomas Tunney
SHERIDAN,610081,POINT (-87.64133980534018 41.84440015845198),533 W 27th St,60616,41.8444,-87.64134,Network 6,District,ES,"K, 1, 2, 3, 4, 5, 6, 7, 8",1(773)534-9120,6,BRIDGEPORT,11,James A. Balcer
MOUNT GREENWOOD,610082,POINT (-87.70580994530282 41.69573386171196),10841 S Homan Ave,60655,41.695734,-87.70581,Network 10,District,ES,"K, 1, 2, 3, 4, 5, 6, 7, 8",1(773)535-2786,10,MOUNT GREENWOOD,19,Matthew J. O'Shea
BEARD,610083,POINT (-87.78963033129355 41.970124881986976),6445 W Strong St,60656,41.970125,-87.78963,Network 1,District,ES,"PK, K, 1, 2, 3",1(773)534-1228,1,NORWOOD PARK,45,John Arena
KELLER,610084,POINT (-87.69727833650737 41.69717033380235),3020 W 108th St,60655,41.69717,-87.697278,ISP,District,ES,"1, 2, 3, 4, 5, 6, 7, 8",1(773)535-2636,10,MOUNT GREENWOOD,19,Matthew J. O'Shea
MOUNT VERNON,610086,POINT (-87.64765248641302 41.70195211667478),10540 S Morgan St,60643,41.701952,-87.647652,Network 13,District,ES,"PK, K, 1, 2, 3, 4, 5, 6, 7, 8",1(773)535-2825,13,WASHINGTON HEIGHTS,34,Carrie M. Austin
BLAIR,610087,POINT (-87.79060442493756 41.77655626936286),6751 W 63rd Pl,60638,41.776556,-87.790604,Network 10,District,ES,"PK, K, 1, 2",1(773)535-2076,10,CLEARING,23,Michael R. Zalewski
MOZART,610088,POINT (-87.72188814417898 41.92090964878958),2200 N Hamlin Ave,60647,41.92091,-87.721888,Network 4,District,ES,"PK, K, 1, 2, 3, 4, 5, 6, 7, 8",1(773)534-4160,4,LOGAN SQUARE,35,Rey Colon
MURPHY,610089,POINT (-87.7168318549406 41.950077752802876),3539 W Grace St,60618,41.950078,-87.716832,Network 1,District,ES,"PK, K, 1, 2, 3, 4, 5, 6, 7, 8",1(773)534-5223,1,IRVING PARK,35,Rey Colon
MURRAY,610090,POINT (-87.5933404058958 41.79853548417411),5335 S Kenwood Ave,60615,41.798535,-87.59334,Network 9,District,ES,"K, 1, 2, 3, 4, 5, 6, 7, 8",1(773)535-0585,9,HYDE PARK,4,"William ""Will"" D. Burns"
BROWN R,610091,POINT (-87.63895772499524 41.6648733494355),12607 S Union Ave,60628,41.664873,-87.638958,Network 13,District,ES,"PK, K, 1, 2, 3, 4, 5, 6, 7, 8",1(773)535-5385,13,WEST PULLMAN,9,Anthony A. Beale
NASH,610092,POINT (-87.7479358786049 41.891809750157385),4837 W Erie St,60644,41.89181,-87.747936,Network 3,District,ES,"PK, K, 1, 2, 3, 4, 5, 6, 7, 8",1(773)534-6125,3,AUSTIN,37,Emma M. Mitts
NEIL,610093,POINT (-87.62093345478371 41.738406594106955),8555 S Michigan Ave,60619,41.738407,-87.620933,Network 12,District,ES,"PK, K, 1, 2, 3, 4, 5, 6, 7, 8",1(773)535-3000,12,CHATHAM,6,Roderick T. Sawyer
NETTELHORST,610094,POINT (-87.64456122175856 41.94163655396518),3252 N Broadway St,60657,41.941637,-87.644561,Network 4,District,ES,"PK, K, 1, 2, 3, 4, 5, 6, 7, 8",1(773)534-5810,4,LAKE VIEW,44,Thomas Tunney
NEWBERRY,610095,POINT (-87.64599025176014 41.91394721683887),700 W Willow St,60614,41.913947,-87.64599,Network 4,District,ES,"PK, K, 1, 2, 3, 4, 5, 6, 7, 8",1(773)534-8000,4,LINCOLN PARK,43,Michele Smith
NIGHTINGALE,610096,POINT (-87.68913886412332 41.797714378199906),5250 S Rockwell St,60632,41.797714,-87.689139,Network 8,District,ES,"PK, K, 1, 2, 3, 4, 5, 6, 7, 8",1(773)535-9270,8,GAGE PARK,14,Edward M. Burke
NIXON,610097,POINT (-87.73142009141083 41.91958145241738),2121 N Keeler Ave,60639,41.919581,-87.73142,Network 4,District,ES,"PK, K, 1, 2, 3, 4, 5, 6",1(773)534-4375,4,HERMOSA,35,Rey Colon
NOBEL,610098,POINT (-87.7299546321371 41.906155152624784),4127 W Hirsch St,60651,41.906155,-87.729955,Network 5,District,ES,"PK, K, 1, 2, 3, 4, 5, 6, 7, 8",1(773)534-4365,5,HUMBOLDT PARK,26,Roberto Maldonado
NORWOOD PARK,610099,POINT (-87.80297944019507 41.98815250589104),5900 N Nina Ave,60631,41.988153,-87.802979,Network 1,District,ES,"PK, K, 1, 2, 3, 4, 5, 6, 7, 8",1(773)534-1198,1,NORWOOD PARK,41,Mary O'Connor
WEST PARK,610100,POINT (-87.73244309617895 41.90690720465881),1425 N Tripp Ave,60651,41.906907,-87.732443,Network 5,District,ES,"PK, K, 1, 2, 3, 4, 5, 6, 7, 8",1(773)534-4940,5,HUMBOLDT PARK,26,Roberto Maldonado
OGLESBY,610102,POINT (-87.64546949680098 41.75467006250112),7646 S Green St,60620,41.75467,-87.645469,Network 11,District,ES,"PK, K, 1, 2, 3, 4, 5, 6, 7, 8",1(773)535-3060,11,AUBURN GRESHAM,17,Latasha R. Thomas
OKEEFFE,610103,POINT (-87.5728059552137 41.76860231154097),6940 S Merrill Ave,60649,41.768602,-87.572806,AUSL,District,ES,"PK, K, 1, 2, 3, 4, 5, 6, 7, 8",1(773)535-0600,12,SOUTH SHORE,5,Leslie A. Hairston
ONAHAN,610104,POINT (-87.79310825558973 41.9937903492193),6634 W Raven St,60631,41.99379,-87.793108,Network 1,District,ES,"PK, K, 1, 2, 3, 4, 5, 6, 7, 8",1(773)534-1180,1,NORWOOD PARK,41,Mary O'Connor
ORIOLE PARK,610105,POINT (-87.81205403932759 41.9785013758202),5424 N Oketo Ave,60656,41.978501,-87.812054,Network 1,District,ES,"PK, K, 1, 2, 3, 4, 5, 6, 7, 8",1(773)534-1201,1,NORWOOD PARK,41,Mary O'Connor
PICCOLO,610106,POINT (-87.73126059578696 41.90013965509071),1040 N Keeler Ave,60651,41.90014,-87.731261,AUSL,District,ES,"PK, K, 1, 2, 3, 4, 5, 6, 7, 8",1(773)534-4425,5,HUMBOLDT PARK,37,Emma M. Mitts
OTIS,610107,POINT (-87.66542623612253 41.8918060814393),525 N Armour St,60642,41.891806,-87.665426,Network 6,District,ES,"PK, K, 1, 2, 3, 4, 5, 6, 7, 8",1(773)534-7665,6,WEST TOWN,1,Proco (Joe) Moreno III
OTOOLE,610108,POINT (-87.67486499994195 41.774571073095146),6550 S Seeley Ave,60636,41.774571,-87.674865,Network 11,District,ES,"PK, K, 1, 2, 3, 4, 5, 6, 7, 8",1(773)535-9040,11,WEST ENGLEWOOD,16,JoAnn Thompson
OWEN,610109,POINT (-87.70574908734706 41.742849921440886),8247 S Christiana Ave,60652,41.74285,-87.705749,Network 10,District,ES,"K, 1, 2, 3, 4, 5, 6, 7, 8",1(773)535-9330,10,ASHBURN,18,Lona Lane
WELLS ES,610110,POINT (-87.61977965997495 41.82735526599218),249 E 37th St,60653,41.827355,-87.61978,Network 9,District,ES,"PK, K, 1, 2, 3, 4, 5, 6, 7, 8",1(773)535-1204,9,DOUGLAS,3,Patricia R. Dowell
PALMER,610111,POINT (-87.73921294532467 41.973289392716545),5051 N Kenneth Ave,60630,41.973289,-87.739213,Network 1,District,ES,"PK, K, 1, 2, 3, 4, 5, 6, 7, 8",1(773)534-3704,1,ALBANY PARK,39,Margaret Laurino
PARKER,610112,POINT (-87.63408585643052 41.77077979510436),6800 S Stewart Ave,60621,41.77078,-87.634086,Network 11,District,ES,"PK, K, 1, 2, 3, 4, 5, 6, 7, 8",1(773)535-3375,11,ENGLEWOOD,6,Roderick T. Sawyer
PARK MANOR,610115,POINT (-87.61154559295288 41.76647654287654),7037 S Rhodes Ave,60637,41.766477,-87.611546,Network 12,District,ES,"PK, K, 1, 2, 3, 4, 5, 6, 7, 8",1(773)535-3070,12,GREATER GRAND CROSSING,6,Roderick T. Sawyer
PARKSIDE,610116,POINT (-87.58295438328867 41.76855518979434),6938 S East End Ave,60649,41.768555,-87.582954,Network 12,District,ES,"PK, K, 1, 2, 3, 4, 5, 6, 7, 8",1(773)535-0940,12,SOUTH SHORE,5,Leslie A. Hairston
PASTEUR,610117,POINT (-87.73266645509617 41.7868953763614),5825 S Kostner Ave,60629,41.786895,-87.732666,Network 8,District,ES,"PK, K, 1, 2, 3, 4, 5, 6, 7, 8",1(773)535-2270,8,WEST ELSDON,13,Marty Quinn
PECK,610120,POINT (-87.71921626099447 41.787898970019334),3826 W 58th St,60629,41.787899,-87.719216,ISP,District,ES,"PK, K, 1, 2, 3, 4, 5, 6, 7, 8",1(773)535-2450,8,WEST ELSDON,23,Michael R. Zalewski
IRVING,610121,POINT (-87.68361565161099 41.87159549121377),749 S Oakley Blvd,60612,41.871595,-87.683616,Network 6,District,ES,"PK, K, 1, 2, 3, 4, 5, 6, 7, 8",1(773)534-7295,6,NEAR WEST SIDE,28,Jason C. Ervin
PEIRCE,610122,POINT (-87.66585003642594 41.9834557917677),1423 W Bryn Mawr Ave,60660,41.983456,-87.66585,Network 2,District,ES,"PK, K, 1, 2, 3, 4, 5, 6, 7, 8",1(773)534-2440,2,EDGEWATER,48,Harry Osterman
PENN,610123,POINT (-87.72238554795983 41.858372419321185),1616 S Avers Ave,60623,41.858372,-87.722386,Network 5,District,ES,"PK, K, 1, 2, 3, 4, 5, 6, 7, 8",1(773)534-1665,5,NORTH LAWNDALE,24,Michael D. Chandler
WASHINGTON H ES,610124,POINT (-87.59625661608355 41.72853414220846),9130 S University Ave,60619,41.728534,-87.596257,Network 12,District,ES,"PK, K, 1, 2, 3, 4, 5, 6, 7, 8",1(773)535-6225,12,BURNSIDE,8,Michelle A. Harris
RUIZ,610125,POINT (-87.68074453531749 41.84810093888265),2410 S Leavitt St,60608,41.848101,-87.680745,Network 7,District,ES,"PK, K, 1, 2, 3, 4, 5, 6, 7, 8",1(773)535-4825,7,LOWER WEST SIDE,25,Daniel S. Solis
PERSHING,610126,POINT (-87.61833765413427 41.83652695283858),3200 S Calumet Ave,60616,41.836527,-87.618338,Network 9,District,ES,"PK, K, 1, 2, 3, 4, 5, 6, 7, 8",1(773)534-9272,9,DOUGLAS,4,"William ""Will"" D. Burns"
PETERSON,610127,POINT (-87.71258257739447 41.98155713756842),5510 N Christiana Ave,60625,41.981557,-87.712583,Network 1,District,ES,"PK, K, 1, 2, 3, 4, 5, 6, 7, 8",1(773)534-5070,1,NORTH PARK,39,Margaret Laurino
GARVEY,610128,POINT (-87.64757716533317 41.70660285871767),10309 S Morgan St,60643,41.706603,-87.647577,Network 13,District,ES,"PK, K, 1, 2, 3, 4, 5, 6, 7, 8",1(773)535-2763,13,WASHINGTON HEIGHTS,34,Carrie M. Austin
PICKARD,610129,POINT (-87.68329074302004 41.85290039422442),2301 W 21st Pl,60608,41.8529,-87.683291,Network 7,District,ES,"PK, K, 1, 2, 3, 4, 5, 6, 7, 8",1(773)535-7280,7,LOWER WEST SIDE,25,Daniel S. Solis
PIRIE,610130,POINT (-87.60789113713174 41.740340233052464),650 E 85th St,60619,41.74034,-87.607891,Network 12,District,ES,"PK, K, 1, 2, 3, 4, 5, 6",1(773)535-3435,12,CHATHAM,6,Roderick T. Sawyer
PLAMONDON,610131,POINT (-87.69252575071623 41.86025889851631),2642 W 15th Pl,60608,41.860259,-87.692526,Network 5,District,ES,"K, 1, 2, 3, 4, 5, 6, 7, 8",1(773)534-1789,5,NORTH LAWNDALE,28,Jason C. Ervin
POE,610132,POINT (-87.60641917382425 41.70263000088163),10538 S Langley Ave,60628,41.70263,-87.606419,Network 13,District,ES,"K, 1, 2, 3, 4, 5, 6",1(773)535-5525,13,PULLMAN,9,Anthony A. Beale
WARD L,610133,POINT (-87.71879729276962 41.89323560979409),646 N Lawndale Ave,60624,41.893236,-87.718797,Network 5,District,ES,"PK, K, 1, 2, 3, 4, 5, 6, 7, 8",1(773)534-6440,5,HUMBOLDT PARK,27,"Walter Burnett, Jr."
PORTAGE PARK,610135,POINT (-87.76100700389996 41.95698763657293),5330 W Berteau Ave,60641,41.956988,-87.761007,Network 1,District,ES,"PK, K, 1, 2, 3, 4, 5, 6, 7, 8",1(773)534-3576,1,PORTAGE PARK,38,Timothy M. Cullerton
PRESCOTT,610136,POINT (-87.66952750370201 41.928841099895514),1632 W Wrightwood Ave,60614,41.928841,-87.669528,Network 4,District,ES,"PK, K, 1, 2, 3, 4, 5, 6, 7, 8",1(773)534-5505,4,LINCOLN PARK,32,Scott Waguespack
PRUSSING,610137,POINT (-87.77241416626396 41.965619070939255),4650 N Menard Ave,60630,41.965619,-87.772414,Network 1,District,ES,"PK, K, 1, 2, 3, 4, 5, 6, 7, 8",1(773)534-3460,1,PORTAGE PARK,45,John Arena
PULASKI,610138,POINT (-87.68380143055045 41.9184862777476),2230 W McLean Ave,60647,41.918486,-87.683801,Network 6,District,ES,"PK, K, 1, 2, 3, 4, 5, 6, 7, 8",1(773)534-4391,6,LOGAN SQUARE,32,Scott Waguespack
PULLMAN,610139,POINT (-87.60943096710687 41.6888193521847),11311 S Forrestville Ave,60628,41.688819,-87.609431,Network 13,District,ES,"PK, K, 1, 2, 3, 4, 5, 6, 7, 8",1(773)535-5395,13,PULLMAN,9,Anthony A. Beale
RAVENSWOOD,610141,POINT (-87.6709224190332 41.96074569219853),4332 N Paulina St,60613,41.960746,-87.670922,Network 2,District,ES,"PK, K, 1, 2, 3, 4, 5, 6, 7, 8",1(773)534-5525,2,LAKE VIEW,47,Ameya Pawar
RAY,610142,POINT (-87.59475207229016 41.79234788006748),5631 S Kimbark Ave,60637,41.792348,-87.594752,Network 9,District,ES,"PK, K, 1, 2, 3, 4, 5, 6, 7, 8",1(773)535-0970,9,HYDE PARK,5,Leslie A. Hairston
REAVIS,610143,POINT (-87.60492543005785 41.80417379119432),834 E 50th St,60615,41.804174,-87.604925,Network 9,District,ES,"PK, K, 1, 2, 3, 4, 5, 6, 7, 8",1(773)535-1060,9,KENWOOD,4,"William ""Will"" D. Burns"
REILLY,610144,POINT (-87.71954054434434 41.941093990191845),3650 W School St,60618,41.941094,-87.719541,Network 4,District,ES,"PK, K, 1, 2, 3, 4, 5, 6, 7, 8",1(773)534-5250,4,AVONDALE,30,Ariel E. Reboyras
REINBERG,610145,POINT (-87.76898261837614 41.94301889528404),3425 N Major Ave,60634,41.943019,-87.768983,Network 1,District,ES,"PK, K, 1, 2, 3, 4, 5, 6, 7, 8",1(773)534-3465,1,PORTAGE PARK,36,Nicholas Sposato
REVERE,610146,POINT (-87.60017682377791 41.76419586389066),1010 E 72nd St,60619,41.764196,-87.600177,Network 12,District,ES,"PK, K, 1, 2, 3, 4, 5, 6, 7, 8",1(773)535-0618,12,GREATER GRAND CROSSING,5,Leslie A. Hairston
ROGERS,610147,POINT (-87.69718539353832 42.01526504535992),7345 N Washtenaw Ave,60645,42.015265,-87.697185,Network 2,District,ES,"PK, K, 1, 2, 3, 4, 5, 6, 7, 8",1(773)534-2125,2,WEST RIDGE,50,Debra L. Silverstein
CHAVEZ,610148,POINT (-87.6660369338872 41.807142830477545),4747 S Marshfield Ave,60609,41.807143,-87.666037,ISP,District,ES,"PK, K, 1, 2, 3, 4, 5, 6, 7, 8",1(773)535-4600,8,NEW CITY,20,Willie B. Cochran
RUGGLES,610152,POINT (-87.61806644776226 41.75194557554217),7831 S Prairie Ave,60619,41.751946,-87.618066,Network 12,District,ES,"PK, K, 1, 2, 3, 4, 5, 6, 7, 8",1(773)535-3085,12,GREATER GRAND CROSSING,6,Roderick T. Sawyer
RYDER,610153,POINT (-87.63884270032504 41.73537938898103),8716 S Wallace St,60620,41.735379,-87.638843,Network 11,District,ES,"PK, K, 1, 2, 3, 4, 5, 6, 7, 8",1(773)535-3843,11,AUBURN GRESHAM,21,"Howard B. Brookins, Jr."
SAUGANASH,610155,POINT (-87.7459514446418 41.99116924559475),6040 N Kilpatrick Ave,60646,41.991169,-87.745951,Network 1,District,ES,"K, 1, 2, 3, 4, 5, 6, 7, 8",1(773)534-3470,1,FOREST GLEN,39,Margaret Laurino
SAWYER,610157,POINT (-87.70500578092809 41.79749820260434),5248 S Sawyer Ave,60632,41.797498,-87.705006,Network 8,District,ES,"K, 1, 2, 3, 4, 5, 6, 7, 8",1(773)535-0440,8,GAGE PARK,14,Edward M. Burke
SAYRE,610158,POINT (-87.79872070516765 41.914150629630946),1850 N Newland Ave,60707,41.914151,-87.798721,Network 3,District,ES,"PK, K, 1, 2, 3, 4, 5, 6, 7, 8",1(773)534-3351,3,AUSTIN,29,Deborah L. Graham
SCAMMON,610159,POINT (-87.73217877731558 41.94167760343948),4201 W Henderson St,60641,41.941678,-87.732179,Network 1,District,ES,"PK, K, 1, 2, 3, 4, 5, 6, 7, 8",1(773)534-3475,1,IRVING PARK,30,Ariel E. Reboyras
STOCK,610163,POINT (-87.81419465462673 42.01689164094716),7507 W Birchwood Ave,60631,42.016892,-87.814195,Network 1,District,ES,PK,1(773)534-1215,1,EDISON PARK,41,Mary O'Connor
SCHUBERT,610165,POINT (-87.76119046882305 41.930403315731624),2727 N Long Ave,60639,41.930403,-87.76119,Network 3,District,ES,"PK, K, 1, 2, 3, 4, 5",1(773)534-3080,3,BELMONT CRAGIN,31,Ray Suarez
SEWARD,610167,POINT (-87.66877201103031 41.81033324026888),4600 S Hermitage Ave,60609,41.810333,-87.668772,Network 8,District,ES,"PK, K, 1, 2, 3, 4, 5, 6, 7, 8",1(773)535-4890,8,NEW CITY,15,Toni L. Foulkes
COLUMBIA EXPLORERS,610170,POINT (-87.70419859057051 41.81106860888273),4520 S Kedzie Ave,60632,41.811069,-87.704199,Network 8,District,ES,"K, 1, 2, 3, 4, 5, 6, 7, 8",1(773)535-4050,8,BRIGHTON PARK,14,Edward M. Burke
MIRELES,610171,POINT (-87.55278794403495 41.731716915777696),9000 S Exchange Ave,60617,41.731717,-87.552788,Network 12,District,ES,"PK, K, 1, 2, 3, 4, 5, 6, 7, 8",1(773)535-6360,12,SOUTH CHICAGO,10,John A. Pope
SHERMAN,610172,POINT (-87.65022144596368 41.79976620500945),1000 W 52nd St,60609,41.799766,-87.650221,AUSL,District,ES,"PK, K, 1, 2, 3, 4, 5, 6, 7, 8",1(773)535-1757,11,NEW CITY,20,Willie B. Cochran
SHERWOOD,610173,POINT (-87.63227938171381 41.79080024288842),245 W 57th St,60621,41.7908,-87.632279,Network 11,District,ES,"PK, K, 1, 2, 3, 4, 5, 6, 7, 8",1(773)535-0829,11,ENGLEWOOD,20,Willie B. Cochran
SHIELDS,610174,POINT (-87.68964723567423 41.81590948606922),4250 S Rockwell St,60632,41.815909,-87.689647,Network 8,District,ES,"PK, K, 1, 2, 3, 4",1(773)535-7285,8,BRIGHTON PARK,15,Toni L. Foulkes
SHOESMITH,610175,POINT (-87.59390494200514 41.80429401615557),1330 E 50th St,60615,41.804294,-87.593905,Network 9,District,ES,"K, 1, 2, 3, 4, 5, 6",1(773)535-1764,9,KENWOOD,4,"William ""Will"" D. Burns"
SHOOP,610176,POINT (-87.65866905249726 41.69091887642116),11140 S Bishop St,60643,41.690919,-87.658669,Network 13,District,ES,"PK, K, 1, 2, 3, 4, 5, 6, 7, 8",1(773)535-2715,13,MORGAN PARK,34,Carrie M. Austin
SKINNER,610177,POINT (-87.65941897613492 41.87910254260814),1260 W Adams St,60607,41.879103,-87.659419,ISP,District,ES,"PK, K, 1, 2, 3, 4, 5, 6, 7, 8",1(773)534-7790,6,NEAR WEST SIDE,27,"Walter Burnett, Jr."
SCHMID,610178,POINT (-87.59693188137994 41.71698887204983),9755 S Greenwood Ave,60628,41.716989,-87.596932,Network 12,District,ES,"PK, K, 1, 2, 3, 4, 5, 6, 7, 8",1(773)535-6235,12,PULLMAN,8,Michelle A. Harris
SMYSER,610179,POINT (-87.7819745380622 41.95886803554341),4310 N Melvina Ave,60634,41.958868,-87.781975,Network 1,District,ES,"PK, K, 1, 2, 3, 4, 5, 6, 7, 8",1(773)534-3711,1,PORTAGE PARK,38,Timothy M. Cullerton
SMYTH,610180,POINT (-87.65344502704846 41.86535101769646),1059 W 13th St,60608,41.865351,-87.653445,Network 6,District,ES,"PK, K, 1, 2, 3, 4, 5, 6, 7, 8",1(773)534-7180,6,NEAR WEST SIDE,25,Daniel S. Solis
SOLOMON,610182,POINT (-87.72404263322767 41.993942332486824),6206 N Hamlin Ave,60659,41.993942,-87.724043,Network 1,District,ES,"PK, K, 1, 2, 3, 4, 5, 6, 7, 8",1(773)534-5226,1,NORTH PARK,39,Margaret Laurino
SPENCER,610183,POINT (-87.75044473139498 41.884876397970274),214 N Lavergne Ave,60644,41.884876,-87.750445,Network 3,District,ES,"PK, K, 1, 2, 3, 4, 5, 6, 7, 8",1(773)534-6150,3,AUSTIN,28,Jason C. Ervin
STEVENSON,610185,POINT (-87.73166568474505 41.7471068786288),8010 S Kostner Ave,60652,41.747107,-87.731666,Network 10,District,ES,"PK, K, 1, 2, 3, 4, 5, 6, 7, 8",1(773)535-2280,10,ASHBURN,18,Lona Lane
DUNNE,610188,POINT (-87.63997360471443 41.6964961631072),10845 S Union Ave,60628,41.696496,-87.639974,Network 13,District,ES,"PK, K, 1, 2, 3, 4, 5, 6, 7, 8",1(773)535-5517,13,ROSELAND,34,Carrie M. Austin
STONE,610191,POINT (-87.68479278594937 41.99535905120101),6239 N Leavitt St,60659,41.995359,-87.684793,Network 2,District,ES,"K, 1, 2, 3, 4, 5, 6, 7, 8",1(773)534-2045,2,WEST RIDGE,50,Debra L. Silverstein
STOWE,610192,POINT (-87.71331750109282 41.91193807880035),3444 W Wabansia Ave,60647,41.911938,-87.713318,Network 5,District,ES,"PK, K, 1, 2, 3, 4, 5, 6, 7, 8",1(773)534-4175,5,HUMBOLDT PARK,26,Roberto Maldonado
NEW SULLIVAN,610193,POINT (-87.54292760848404 41.7438285237854),8331 S Mackinaw Ave,60617,41.743829,-87.542928,Network 12,District,ES,"PK, K, 1, 2, 3, 4, 5, 6, 7, 8",1(773)535-6585,12,SOUTH CHICAGO,10,John A. Pope
SUMNER,610194,POINT (-87.73352395133709 41.870828378080496),4320 W 5th Ave,60624,41.870828,-87.733524,Network 5,District,ES,"PK, K, 1, 2, 3, 4, 5, 6, 7, 8",1(773)534-6730,5,WEST GARFIELD PARK,24,Michael D. Chandler
SUTHERLAND,610195,POINT (-87.67682117251097 41.711445070109775),10015 S Leavitt St,60643,41.711445,-87.676821,Network 10,District,ES,"K, 1, 2, 3, 4, 5, 6, 7, 8",1(773)535-2580,10,BEVERLY,19,Matthew J. O'Shea
SWIFT,610196,POINT (-87.65829607973969 41.98913906014746),5900 N Winthrop Ave,60660,41.989139,-87.658296,Network 2,District,ES,"PK, K, 1, 2, 3, 4, 5, 6, 7, 8",1(773)534-2695,2,EDGEWATER,48,Harry Osterman
TALCOTT,610197,POINT (-87.67372272417069 41.8924046111448),1840 W Ohio St,60622,41.892405,-87.673723,Network 6,District,ES,"PK, K, 1, 2, 3, 4, 5, 6, 7, 8",1(773)534-7130,6,WEST TOWN,1,Proco (Joe) Moreno III
TAYLOR,610198,POINT (-87.53297076729864 41.71547037534326),9912 S Avenue H,60617,41.71547,-87.532971,Network 13,District,ES,"PK, K, 1, 2, 3, 4, 5, 6, 7, 8",1(773)535-6240,13,EAST SIDE,10,John A. Pope
COLEMON,610199,POINT (-87.6581108382993 41.67750544639792),1441 W 119th St,60643,41.677505,-87.658111,Network 13,District,ES,"PK, K, 1, 2, 3, 4, 5, 6, 7, 8",1(773)535-3975,13,WEST PULLMAN,34,Carrie M. Austin
THORP J,610200,POINT (-87.54427997610216 41.733324237774895),8914 S Buffalo Ave,60617,41.733324,-87.54428,Network 12,District,ES,"PK, K, 1, 2, 3, 4, 5, 6, 7, 8",1(773)535-6250,12,SOUTH CHICAGO,10,John A. Pope
THORP O,610201,POINT (-87.7776312953377 41.948571311090376),6024 W Warwick Ave,60634,41.948571,-87.777631,Network 1,District,ES,"K, 1, 2, 3, 4, 5, 6, 7, 8",1(773)534-3640,1,DUNNING,38,Timothy M. Cullerton
TILTON,610202,POINT (-87.7305663850525 41.88410224082623),223 N Keeler Ave,60624,41.884102,-87.730566,Network 5,District,ES,"PK, K, 1, 2, 3, 4, 5, 6, 7, 8",1(773)534-6746,5,WEST GARFIELD PARK,28,Jason C. Ervin
TONTI,610203,POINT (-87.70817918402508 41.78752322907925),5815 S Homan Ave,60629,41.787523,-87.708179,Network 8,District,ES,"PK, K, 1, 2, 3, 4, 5",1(773)535-9280,8,GAGE PARK,23,Michael R. Zalewski
TWAIN,610206,POINT (-87.75892840126892 41.79904639682349),5134 S Lotus Ave,60638,41.799046,-87.758928,Network 10,District,ES,"PK, K, 1, 2, 3, 4, 5, 6, 7, 8",1(773)535-2290,10,GARFIELD RIDGE,14,Edward M. Burke
VANDERPOEL,610207,POINT (-87.66555862186499 41.720817033711015),9510 S Prospect Ave,60643,41.720817,-87.665559,Network 10,District,ES,"K, 1, 2, 3, 4, 5, 6, 7, 8",1(773)535-2690,10,BEVERLY,19,Matthew J. O'Shea
LAVIZZO,610208,POINT (-87.62714768796361 41.69626234683378),138 W 109th St,60628,41.696262,-87.627148,Network 13,District,ES,"PK, K, 1, 2, 3, 4, 5, 6, 7, 8",1(773)535-5300,13,ROSELAND,34,Carrie M. Austin
VOLTA,610209,POINT (-87.72460522431093 41.97163400099482),4950 N Avers Ave,60625,41.971634,-87.724605,Network 1,District,ES,"PK, K, 1, 2, 3, 4, 5, 6, 7, 8",1(773)534-5080,1,ALBANY PARK,39,Margaret Laurino
ALBANY PARK,610212,POINT (-87.7106087883064 41.97150444314325),4929 N Sawyer Ave,60625,41.971504,-87.710609,Network 1,District,ES,"7, 8",1(773)534-5108,1,ALBANY PARK,33,Deborah Mell
WADSWORTH,610213,POINT (-87.60101811221732 41.77347789750089),6650 S Ellis Ave,60637,41.773478,-87.601018,Network 9,District,ES,"PK, K, 1, 2, 3, 4, 5, 6, 7, 8",1(773)535-0730,9,WOODLAWN,5,Leslie A. Hairston
MADERO,610215,POINT (-87.70506426030519 41.840956911056914),3202 W 28th St,60623,41.840957,-87.705064,Network 7,District,ES,"6, 7, 8",1(773)535-4466,7,SOUTH LAWNDALE,22,Ricardo Munoz
WALSH,610216,POINT (-87.6480861747423 41.85483574702165),2015 S Peoria St,60608,41.854836,-87.648086,Network 7,District,ES,"PK, K, 1, 2, 3, 4, 5, 6, 7, 8",1(773)534-7950,7,LOWER WEST SIDE,11,James A. Balcer
WARD J,610217,POINT (-87.63535578863305 41.84398008867346),2701 S Shields Ave,60616,41.84398,-87.635356,Network 6,District,ES,"PK, K, 1, 2, 3, 4, 5, 6, 7, 8",1(773)534-9050,6,ARMOUR SQUARE,11,James A. Balcer
WARREN,610218,POINT (-87.57535254915516 41.726762908727196),9239 S Jeffery Ave,60617,41.726763,-87.575353,Network 12,District,ES,"PK, K, 1, 2, 3, 4, 5, 6, 7, 8",1(773)535-6625,12,CALUMET HEIGHTS,7,Natashia Holmes
WASHINGTON G ES,610219,POINT (-87.53601529926293 41.688131483415376),3611 E 114th St,60617,41.688131,-87.536015,Network 13,District,ES,"PK, K, 1, 2, 3, 4, 5, 6, 7, 8",1(773)535-5010,13,EAST SIDE,10,John A. Pope
WATERS,610220,POINT (-87.69133251140961 41.96436540371576),4540 N Campbell Ave,60625,41.964365,-87.691333,Network 2,District,ES,"K, 1, 2, 3, 4, 5, 6, 7, 8",1(773)534-5090,2,LINCOLN SQUARE,47,Ameya Pawar
WEBSTER,610221,POINT (-87.72752437478212 41.86991585766012),4055 W Arthington St,60624,41.869916,-87.727524,Network 5,District,ES,"PK, K, 1, 2, 3, 4, 5, 6, 7, 8",1(773)534-6925,5,WEST GARFIELD PARK,24,Michael D. Chandler
WENTWORTH,610223,POINT (-87.6582048358614 41.765075895967996),1340 W 71st St,60636,41.765076,-87.658205,Network 11,District,ES,"PK, K, 1, 2, 3, 4, 5, 6, 7, 8",1(773)535-3394,11,WEST ENGLEWOOD,6,Roderick T. Sawyer
WHISTLER,610225,POINT (-87.65538382157727 41.68390700953974),11533 S Ada St,60643,41.683907,-87.655384,Network 13,District,ES,"PK, K, 1, 2, 3, 4, 5, 6, 7, 8",1(773)535-5560,13,WEST PULLMAN,34,Carrie M. Austin
SANDOVAL,610226,POINT (-87.71098733217322 41.792346083615875),5534 S Saint Louis Ave,60629,41.792346,-87.710987,Network 8,District,ES,"PK, K, 1, 2, 3, 4, 5",1(773)535-0457,8,GAGE PARK,14,Edward M. Burke
WHITNEY,610227,POINT (-87.72554564238642 41.84008042673928),2815 S Komensky Ave,60623,41.84008,-87.725546,Network 7,District,ES,"PK, K, 1, 2, 3, 4, 5, 6, 7, 8",1(773)534-1560,7,SOUTH LAWNDALE,22,Ricardo Munoz
WHITTIER,610228,POINT (-87.67339165459607 41.85048088648075),1900 W 23rd St,60608,41.850481,-87.673392,Network 7,District,ES,"PK, K, 1, 2, 3, 4, 5, 6, 7, 8",1(773)535-4590,7,LOWER WEST SIDE,25,Daniel S. Solis
PRITZKER,610229,POINT (-87.67776098130497 41.90705300450445),2009 W Schiller St,60622,41.907053,-87.677761,Network 6,District,ES,"PK, K, 1, 2, 3, 4, 5, 6, 7, 8",1(773)534-4415,6,WEST TOWN,1,Proco (Joe) Moreno III
WILDWOOD,610230,POINT (-87.77834486172273 42.00749066939125),6950 N Hiawatha Ave,60646,42.007491,-87.778345,Network 1,District,ES,"K, 1, 2, 3, 4, 5, 6, 7, 8",1(773)534-1188,1,FOREST GLEN,41,Mary O'Connor
NATIONAL TEACHERS,610231,POINT (-87.6293083300546 41.852799769560356),55 W Cermak Rd,60616,41.8528,-87.629308,AUSL,District,ES,"PK, K, 1, 2, 3, 4, 5, 6, 7, 8",1(773)534-9970,6,NEAR SOUTH SIDE,3,Patricia R. Dowell
YATES,610234,POINT (-87.70028031304513 41.9150385469464),1839 N Richmond St,60647,41.915039,-87.70028,Network 5,District,ES,"PK, K, 1, 2, 3, 4, 5, 6, 7, 8",1(773)534-4550,5,LOGAN SQUARE,1,Proco (Joe) Moreno III
YOUNG ES,610235,POINT (-87.76714284547637 41.906790573759665),1434 N Parkside Ave,60651,41.906791,-87.767143,Network 3,District,ES,"PK, K, 1, 2, 3, 4, 5, 6, 7, 8",1(773)534-6200,3,AUSTIN,29,Deborah L. Graham
BEETHOVEN,610237,POINT (-87.6271368053334 41.80913475709233),25 W 47th St,60609,41.809135,-87.627137,Network 9,District,ES,"PK, K, 1, 2, 3, 4, 5, 6, 7, 8",1(773)535-1480,9,GRAND BOULEVARD,3,Patricia R. Dowell
BOND,610238,POINT (-87.6530177863627 41.765360565892145),7050 S May St,60621,41.765361,-87.653018,Network 11,District,ES,"PK, K, 1, 2, 3, 4, 5, 6, 7, 8",1(773)535-3480,11,ENGLEWOOD,6,Roderick T. Sawyer
DALEY,610239,POINT (-87.67220640191012 41.80234286751301),5024 S Wolcott Ave,60609,41.802343,-87.672206,Network 8,District,ES,"PK, K, 1, 2, 3, 4, 5, 6, 7, 8",1(773)535-9091,8,NEW CITY,20,Willie B. Cochran
BRENNEMANN,610242,POINT (-87.64974916485644 41.95998415475999),4251 N Clarendon Ave,60613,41.959984,-87.649749,Network 2,District,ES,"PK, K, 1, 2, 3, 4, 5, 6, 7, 8",1(773)534-5766,2,UPTOWN,46,James Cappleman
CLARK HS,610244,POINT (-87.75332487193234 41.87288500487779),5101 W Harrison St,60644,41.872885,-87.753325,Network 3,District,HS,"9, 10, 11, 12",1(773)534-6250,3,AUSTIN,29,Deborah L. Graham
DOUGLASS HS,610245,POINT (-87.76766845611134 41.890368629426746),543 N Waller Ave,60644,41.890369,-87.767668,Network 3,District,HS,"9, 10, 11, 12",1(773)534-6176,3,AUSTIN,29,Deborah L. Graham
BEASLEY,610246,POINT (-87.62569157868394 41.798464959416506),5255 S State St,60609,41.798465,-87.625692,Network 9,District,ES,"PK, K, 1, 2, 3, 4, 5, 6, 7, 8",1(773)535-1230,9,WASHINGTON PARK,3,Patricia R. Dowell
CHICAGO ACADEMY ES,610248,POINT (-87.77818680321612 41.94305591901944),3400 N Austin Ave,60634,41.943056,-87.778187,AUSL,District,ES,"PK, K, 1, 2, 3, 4, 5, 6, 7, 8",1(773)534-3885,1,DUNNING,36,Nicholas Sposato
TALMAN,610249,POINT (-87.69026083933244 41.79404805043551),5450 S Talman Ave,60632,41.794048,-87.690261,Network 8,District,ES,"PK, K, 1, 2, 3, 4, 5, 6, 7, 8",1(773)535-7850,8,GAGE PARK,14,Edward M. Burke
SALAZAR,610250,POINT (-87.63363243438305 41.901416533893645),160 W Wendell St,60610,41.901417,-87.633632,Network 6,District,ES,"PK, K, 1, 2, 3, 4, 5, 6, 7, 8",1(773)534-8310,6,NEAR NORTH SIDE,27,"Walter Burnett, Jr."
CATHER,610251,POINT (-87.69918700860963 41.88294992416009),2908 W Washington Blvd,60612,41.88295,-87.699187,Network 5,District,ES,"PK, K, 1, 2, 3, 4, 5, 6, 7, 8",1(773)534-6780,5,EAST GARFIELD PARK,27,"Walter Burnett, Jr."
DETT,610252,POINT (-87.680314966892 41.87986982049133),2131 W Monroe St,60612,41.87987,-87.680315,Network 6,District,ES,"PK, K, 1, 2, 3, 4, 5, 6, 7, 8",1(773)534-7160,6,NEAR WEST SIDE,27,"Walter Burnett, Jr."
DVORAK,610254,POINT (-87.71574357133596 41.858883446108784),3615 W 16th St,60623,41.858883,-87.715744,AUSL,District,ES,"PK, K, 1, 2, 3, 4, 5, 6, 7, 8",1(773)534-1690,5,NORTH LAWNDALE,24,Michael D. Chandler
ROBINSON,610256,POINT (-87.59906677134458 41.8173493266005),4225 S Lake Park Ave,60653,41.817349,-87.599067,Network 9,District,ES,"PK, K, 1, 2, 3",1(773)535-1777,9,OAKLAND,4,"William ""Will"" D. Burns"
MORTON,610257,POINT (-87.70510783023086 41.88917813407392),431 N Troy St,60612,41.889178,-87.705108,AUSL,District,ES,"PK, K, 1, 2, 3, 4, 5, 6, 7, 8",1(773)534-6791,5,HUMBOLDT PARK,27,"Walter Burnett, Jr."
DULLES,610263,POINT (-87.61721417933283 41.779900493386286),6311 S Calumet Ave,60637,41.7799,-87.617214,AUSL,District,ES,"PK, K, 1, 2, 3, 4, 5, 6, 7, 8",1(773)535-0690,9,GREATER GRAND CROSSING,20,Willie B. Cochran
ASHE,610268,POINT (-87.60117440817388 41.74018379060043),8505 S Ingleside Ave,60619,41.740184,-87.601174,Network 12,District,ES,"K, 1, 2, 3, 4, 5, 6, 7, 8",1(773)535-3550,12,CHATHAM,8,Michelle A. Harris
MCCUTCHEON,610269,POINT (-87.65475844818178 41.97094908241216),4865 N Sheridan Rd,60640,41.970949,-87.654758,Network 2,District,ES,"PK, K, 1, 2, 3, 4, 5, 6, 7, 8",1(773)534-2680,2,UPTOWN,46,James Cappleman
JENSEN,610271,POINT (-87.70224105282095 41.87381494708294),3030 W Harrison St,60612,41.873815,-87.702241,Network 5,District,ES,"PK, K, 1, 2, 3, 4, 5, 6, 7, 8",1(773)534-6840,5,EAST GARFIELD PARK,28,Jason C. Ervin
JOHNSON,610274,POINT (-87.70313876236544 41.86183619133296),1420 S Albany Ave,60623,41.861836,-87.703139,AUSL,District,ES,"PK, K, 1, 2, 3, 4, 5, 6, 7, 8",1(773)534-1829,5,NORTH LAWNDALE,24,Michael D. Chandler
MOLLISON,610276,POINT (-87.61661794440623 41.81435828266922),4415 S Dr Martin L King Jr Dr,60653,41.814358,-87.616618,Network 9,District,ES,"PK, K, 1, 2, 3, 4, 5, 6, 7, 8",1(773)535-1804,9,GRAND BOULEVARD,3,Patricia R. Dowell
TANNER,610279,POINT (-87.6067910349395 41.76067263482151),7350 S Evans Ave,60619,41.760673,-87.606791,Network 12,District,ES,"PK, K, 1, 2, 3, 4, 5, 6, 7, 8",1(773)535-3870,12,GREATER GRAND CROSSING,6,Roderick T. Sawyer
POWELL,610281,POINT (-87.55678924866949 41.76033179967894),7511 S South Shore Dr,60649,41.760332,-87.556789,Network 12,District,ES,"K, 1, 2, 3, 4, 5, 6, 7, 8",1(773)535-6650,12,SOUTH SHORE,7,Natashia Holmes
MCNAIR,610282,POINT (-87.746730778981 41.89781906890852),4820 W Walton St,60651,41.897819,-87.746731,AUSL,District,ES,"PK, K, 1, 2, 3, 4, 5, 6, 7, 8",1(773)534-8980,3,AUSTIN,37,Emma M. Mitts
NEW FIELD,610284,POINT (-87.67316832831897 42.00770257031356),1707 W Morse Ave,60626,42.007703,-87.673168,Network 2,District,ES,"PK, K, 1, 2, 3",1(773)534-2760,2,ROGERS PARK,49,Joe A. Moore
ASHBURN,610287,POINT (-87.70960968186675 41.74235056646534),8300 S St Louis Ave,60652,41.742351,-87.70961,Network 10,District,ES,"PK, K, 1, 2, 3, 4, 5, 6, 7, 8",1(773)535-7860,10,ASHBURN,18,Lona Lane
MAYS,610290,POINT (-87.63727734722184 41.77272749698267),6656 S Normal Blvd,60621,41.772727,-87.637277,Network 11,District,ES,"PK, K, 1, 2, 3, 4, 5, 6, 7, 8",1(773)535-3892,11,ENGLEWOOD,6,Roderick T. Sawyer
LEE,610291,POINT (-87.72888429248569 41.775305386871715),6448 S Tripp Ave,60629,41.775305,-87.728884,Network 10,District,ES,"PK, K, 1, 2, 3, 4, 5, 6, 7, 8",1(773)535-2255,10,WEST LAWN,13,Marty Quinn
MELODY,610293,POINT (-87.72466123099161 41.87879893150588),3937 W Wilcox St,60624,41.878799,-87.724661,Network 5,District,ES,"PK, K, 1, 2, 3, 4, 5, 6, 7, 8",1(773)534-6850,5,WEST GARFIELD PARK,28,Jason C. Ervin
HIGGINS,610295,POINT (-87.64699403752527 41.68103136983004),11710 S Morgan St,60643,41.681031,-87.646994,Network 13,District,ES,"PK, K, 1, 2, 3, 4, 5, 6, 7, 8",1(773)535-5625,13,WEST PULLMAN,34,Carrie M. Austin
LENART,610298,POINT (-87.62804036298056 41.7471859177014),8101 S LaSalle St,60620,41.747186,-87.62804,ISP,District,ES,"PK, K, 1, 2, 3, 4, 5, 6, 7, 8",1(773)535-0040,11,CHATHAM,21,"Howard B. Brookins, Jr."
KING ES,610299,POINT (-87.64133454023674 41.76533497916643),644 W 71st St,60621,41.765335,-87.641335,Network 11,District,ES,"PK, K, 1, 2, 3, 4, 5, 6, 7, 8",1(773)535-3875,11,ENGLEWOOD,6,Roderick T. Sawyer
WESTCOTT,610300,POINT (-87.63475051610581 41.74886822495086),409 W 80th St,60620,41.748868,-87.634751,Network 11,District,ES,"PK, K, 1, 2, 3, 4, 5, 6, 7, 8",1(773)535-3090,11,CHATHAM,17,Latasha R. Thomas
PHOENIX MILITARY HS,610304,POINT (-87.68696021852011 41.87911823064722),145 S Campbell Ave,60612,41.879118,-87.68696,SLA,District,HS,"9, 10, 11, 12",1(773)534-7275,6,NEAR WEST SIDE,27,"Walter Burnett, Jr."
LELAND,610305,POINT (-87.7492755544441 41.873586779781725),512 S Lavergne Ave,60644,41.873587,-87.749276,Network 3,District,ES,"PK, K, 1, 2, 3, 4, 5, 6, 7, 8",1(773)534-6340,3,AUSTIN,29,Deborah L. Graham
RUDOLPH,610308,POINT (-87.6694767090183 41.883568167731944),110 N Paulina St,60612,41.883568,-87.669477,Network 6,District,ES,"PK, K, 1, 2, 3, 4, 5",1(773)534-7460,6,NEAR WEST SIDE,27,"Walter Burnett, Jr."
MCDOWELL,610312,POINT (-87.5895894989699 41.73313231289348),1419 E 89th St,60619,41.733132,-87.589589,Network 12,District,ES,"PK, K, 1, 2, 3, 4, 5",1(773)535-6404,12,CALUMET HEIGHTS,8,Michelle A. Harris
DE DIEGO,610313,POINT (-87.68575620336632 41.905293853004956),1313 N Claremont Ave,60622,41.905294,-87.685756,Network 5,District,ES,"PK, K, 1, 2, 3, 4, 5, 6, 7, 8",1(773)534-4451,5,WEST TOWN,1,Proco (Joe) Moreno III
WHITE,610315,POINT (-87.6505385418787 41.672309406220215),1136 W 122nd St,60643,41.672309,-87.650539,Network 13,District,ES,"PK, K, 1, 2, 3, 4, 5, 6, 7, 8",1(773)535-5672,13,WEST PULLMAN,34,Carrie M. Austin
EARHART,610316,POINT (-87.58218173801623 41.726107455157944),1710 E 93rd St,60617,41.726107,-87.582182,Network 12,District,ES,"K, 1, 2, 3, 4, 5, 6, 7, 8",1(773)535-6416,12,CALUMET HEIGHTS,8,Michelle A. Harris
BRIGHTON PARK,610317,POINT (-87.69207692951242 41.82390000005258),3825 S Washtenaw Ave,60632,41.8239,-87.692077,Network 8,District,ES,"PK, K, 1, 2, 3, 4, 5, 6, 7, 8",1(773)535-7237,8,BRIGHTON PARK,12,George A. Cardenas
EVERGREEN,610319,POINT (-87.66781651171694 41.82935561852021),3537 S Paulina St,60609,41.829356,-87.667817,Network 8,District,ES,"6, 7, 8",1(773)535-4836,8,MCKINLEY PARK,12,George A. Cardenas
MARSHALL MIDDLE,610321,POINT (-87.71998811665746 41.95249186019569),3900 N Lawndale Ave,60618,41.952492,-87.719988,Network 1,District,ES,"7, 8",1(773)534-5200,1,IRVING PARK,45,John Arena
BOWEN HS,610323,POINT (-87.55755003399543 41.7346267201362),2710 E 89th St,60617,41.734627,-87.55755,OS4,District,HS,"9, 10, 11, 12",1(773)535-7650,12,SOUTH CHICAGO,7,Natashia Holmes
LOGANDALE,610325,POINT (-87.70804087664251 41.933970195336244),3212 W George St,60618,41.93397,-87.708041,Network 4,District,ES,"PK, K, 1, 2, 3, 4, 5, 6, 7, 8",1(773)534-5350,4,AVONDALE,35,Rey Colon
OROZCO,610329,POINT (-87.67521045905876 41.85775480922287),1940 W 18th St,60608,41.857755,-87.67521,Network 7,District,ES,"PK, K, 1, 2, 3, 4, 5, 6, 7, 8",1(773)534-7215,7,LOWER WEST SIDE,25,Daniel S. Solis
RABY HS,610334,POINT (-87.71542311972765 41.8862100591901),3545 W Fulton Blvd,60624,41.88621,-87.715423,OS4,District,HS,"9, 10, 11, 12",1(773)534-6755,5,EAST GARFIELD PARK,28,Jason C. Ervin
STAGG,610339,POINT (-87.64921669330236 41.7589247318467),7424 S Morgan St,60621,41.758925,-87.649217,AUSL,District,ES,"PK, K, 1, 2, 3, 4, 5, 6, 7, 8",1(773)535-3565,11,ENGLEWOOD,17,Latasha R. Thomas
CHICAGO ACADEMY HS,610340,POINT (-87.77684656597673 41.94305449030517),3400 N Austin Ave,60634,41.943054,-87.776847,AUSL,District,HS,"9, 10, 11, 12",1(773)534-0146,1,DUNNING,36,Nicholas Sposato
SABIN,610342,POINT (-87.68304994229757 41.90681580935293),2216 W Hirsch St,60622,41.906816,-87.68305,Network 5,District,ES,"K, 1, 2, 3, 4, 5, 6, 7, 8",1(773)534-4491,5,WEST TOWN,1,Proco (Joe) Moreno III
WOODSON,610345,POINT (-87.6084187686334 41.81449879541944),4414 S Evans Ave,60653,41.814499,-87.608419,Network 9,District,ES,"PK, K, 1, 2, 3, 4, 5, 6, 7, 8",1(773)535-1280,9,GRAND BOULEVARD,3,Patricia R. Dowell
CLAREMONT,610347,POINT (-87.68106119710424 41.77751050740778),2300 W 64th St,60636,41.777511,-87.681061,Network 10,District,ES,"PK, K, 1, 2, 3, 4, 5, 6, 7, 8",1(773)535-8110,10,CHICAGO LAWN,16,JoAnn Thompson
BLACK,610350,POINT (-87.57664295133351 41.72969236094013),9101 S Euclid Ave,60619,41.729692,-87.576643,Network 12,District,ES,"K, 1, 2, 3, 4, 5, 6, 7, 8",1(773)535-6390,12,CALUMET HEIGHTS,8,Michelle A. Harris
DURKIN PARK,610352,POINT (-87.72995529264325 41.73884394054015),8445 S Kolin Ave,60652,41.738844,-87.729955,Network 10,District,ES,"PK, K, 1, 2, 3, 4, 5, 6, 7, 8",1(773)535-2322,10,ASHBURN,18,Lona Lane
CALMECA,610353,POINT (-87.71165364021692 41.82437732701595),3456 W 38th St,60632,41.824377,-87.711654,Network 8,District,ES,"PK, K, 1, 2, 3, 4, 5, 6, 7, 8",1(773)535-7000,8,BRIGHTON PARK,12,George A. Cardenas
NORTH RIVER,610354,POINT (-87.70715072858638 41.961721056162425),4416 N Troy St,60625,41.961721,-87.707151,Network 1,District,ES,"PK, K, 1, 2, 3, 4, 5, 6, 7, 8",1(773)534-0590,1,ALBANY PARK,33,Deborah Mell
COURTENAY,610355,POINT (-87.6638529630281 41.962307771602156),4420 N Beacon St,60640,41.962308,-87.663853,Network 2,District,ES,"PK, K, 1, 2, 3, 4, 5, 6, 7, 8",1(773)534-5790,2,UPTOWN,46,James Cappleman
SPRY HS,610357,POINT (-87.6989461062751 41.847761694510176),2400 S Marshall Blvd,60623,41.847762,-87.698946,Network 7,District,HS,"9, 10, 11, 12",1(773)534-1997,7,SOUTH LAWNDALE,12,George A. Cardenas
EVERS,610362,POINT (-87.63930546861731 41.71566535732864),9811 S Lowe Ave,60628,41.715665,-87.639305,Network 11,District,ES,"PK, K, 1, 2, 3, 4, 5, 6, 7, 8",1(773)535-2565,11,WASHINGTON HEIGHTS,34,Carrie M. Austin
DISNEY,610363,POINT (-87.64608274383954 41.9568161303528),4140 N Marine Dr,60613,41.956816,-87.646083,ISP,District,ES,"PK, K, 1, 2, 3, 4, 5, 6, 7, 8",1(773)534-5840,2,UPTOWN,46,James Cappleman
DUBOIS,610364,POINT (-87.61432001023347 41.653732981105236),330 E 133rd St,60827,41.653733,-87.61432,Network 13,District,ES,"PK, K, 1, 2, 3, 4, 5, 6, 7, 8",1(773)535-5582,13,RIVERDALE,9,Anthony A. Beale
WACKER,610366,POINT (-87.64804432354694 41.71619329538309),9746 S Morgan St,60643,41.716193,-87.648044,Network 11,District,ES,"PK, K, 1, 2, 3, 4, 5, 6, 7, 8",1(773)535-2821,11,WASHINGTON HEIGHTS,34,Carrie M. Austin
DEPRIEST,610367,POINT (-87.76629755491906 41.877978832845706),139 S Parkside Ave,60644,41.877979,-87.766298,Network 3,District,ES,"PK, K, 1, 2, 3, 4, 5, 6, 7, 8",1(773)534-6800,3,AUSTIN,29,Deborah L. Graham
HUGHES L,610368,POINT (-87.62986865922376 41.70534232127106),240 W 104th St,60628,41.705342,-87.629869,Network 13,District,ES,"PK, K, 1, 2, 3, 4, 5, 6, 7, 8",1(773)535-5075,13,ROSELAND,34,Carrie M. Austin
JACKSON M,610369,POINT (-87.64676673420541 41.73412547182453),917 W 88th St,60620,41.734125,-87.646767,Network 11,District,ES,"PK, K, 1, 2, 3, 4, 5, 6, 7, 8",1(773)535-3341,11,AUBURN GRESHAM,21,"Howard B. Brookins, Jr."
WILLIAMS HS,610380,POINT (-87.62502998016339 41.806117596594504),4934 S Wabash Ave,60615,41.806118,-87.62503,Network 9,District,HS,"9, 10, 11, 12",1(773)535-1120,9,GRAND BOULEVARD,3,Patricia R. Dowell
BRONZEVILLE HS,610381,POINT (-87.62500446852336 41.805204169976314),4934 S Wabash Ave,60615,41.805204,-87.625004,OS4,District,HS,"9, 10, 11, 12",1(773)535-1150,9,GRAND BOULEVARD,3,Patricia R. Dowell
SOCIAL JUSTICE HS,610383,POINT (-87.73529946918104 41.83350727399463),3120 S Kostner Ave,60623,41.833507,-87.735299,Network 7,District,HS,"9, 10, 11, 12",1(773)535-4300,7,SOUTH LAWNDALE,22,Ricardo Munoz
INFINITY HS,610384,POINT (-87.73527796116318 41.83616881821603),3120 S Kostner Ave,60623,41.836169,-87.735278,Network 7,District,HS,"9, 10, 11, 12",1(773)535-4225,7,SOUTH LAWNDALE,22,Ricardo Munoz
MULTICULTURAL HS,610385,POINT (-87.73528329746294 41.83528187300786),3120 S Kostner Ave,60623,41.835282,-87.735283,Network 7,District,HS,"9, 10, 11, 12",1(773)535-4242,7,SOUTH LAWNDALE,22,Ricardo Munoz
PEACE AND EDUCATION HS,610386,POINT (-87.66737776498584 41.803514715263766),4946 S Paulina St,60609,41.803515,-87.667378,Options,District,HS,"10, 11, 12",1(773)535-9023,8,NEW CITY,20,Willie B. Cochran
ORR HS,610389,POINT (-87.72616633149474 41.89444882583946),730 N Pulaski Rd,60624,41.894449,-87.726166,AUSL,District,HS,"9, 10, 11, 12",1(773)534-6500,5,HUMBOLDT PARK,37,Emma M. Mitts
RICKOVER MILITARY HS,610390,POINT (-87.66578850828587 41.98902070918175),5900 N Glenwood Ave,60660,41.989021,-87.665789,SLA,District,HS,"9, 10, 11, 12",1(773)534-2890,2,EDGEWATER,48,Harry Osterman
LINDBLOM HS,610391,POINT (-87.67166185010217 41.78204080268008),6130 S Wolcott Ave,60636,41.782041,-87.671662,Network 11,District,HS,"7, 8, 9, 10, 11, 12",1(773)535-9300,11,WEST ENGLEWOOD,15,Toni L. Foulkes
WORLD LANGUAGE HS,610392,POINT (-87.73529221690441 41.8343966167672),3120 S Kostner Ave,60623,41.834397,-87.735292,Network 7,District,HS,"9, 10, 11, 12",1(773)535-4334,7,SOUTH LAWNDALE,22,Ricardo Munoz
UPLIFT HS,610394,POINT (-87.65247334602134 41.965547461223615),900 W Wilson Ave,60640,41.965547,-87.652473,Network 2,District,HS,"9, 10, 11, 12",1(773)534-2875,2,UPTOWN,46,James Cappleman
TARKINGTON,610396,POINT (-87.70644464815099 41.76440707535929),3330 W 71st St,60629,41.764407,-87.706445,AUSL,District,ES,"PK, K, 1, 2, 3, 4, 5, 6, 7, 8",1(773)535-4700,10,CHICAGO LAWN,17,Latasha R. Thomas
DEVRY HS,610402,POINT (-87.69076139182408 41.941387639378604),3300 N Campbell Ave,60618,41.941388,-87.690761,Network 4,District,HS,"11, 12",1(773)697-2216,4,NORTH CENTER,47,Ameya Pawar
SUDER,610405,POINT (-87.67763611213762 41.88321451695421),2022 W Washington Blvd,60612,41.883215,-87.677636,Network 6,District,ES,"PK, K, 1, 2, 3, 4, 5, 6, 7, 8",1(773)534-7685,6,NEAR WEST SIDE,27,"Walter Burnett, Jr."
COLLINS HS,610499,POINT (-87.70204158575562 41.86414856713303),1313 S Sacramento Dr,60623,41.864149,-87.702042,AUSL,District,HS,"9, 10, 11, 12",1(773)534-1840,5,NORTH LAWNDALE,24,Michael D. Chandler
AUSTIN POLY HS,610501,POINT (-87.76190894992583 41.88512294334246),231 N Pine Ave,60644,41.885123,-87.761909,Network 3,District,HS,"9, 10, 11, 12",1(773)534-6300,3,AUSTIN,37,Emma M. Mitts
MARINE MILITARY HS,610502,POINT (-87.6883137238018 41.87912345881399),145 S Campbell Ave,60612,41.879123,-87.688314,SLA,District,HS,"10, 11, 12",1(773)534-7818,6,NEAR WEST SIDE,27,"Walter Burnett, Jr."
FRAZIER PROSPECTIVE,610503,POINT (-87.72724437858491 41.86697962642255),4027 W Grenshaw St,60624,41.86698,-87.727244,Network 5,District,ES,"K, 1, 2, 3, 4, 5, 6, 7, 8",1(773)534-6880,5,NORTH LAWNDALE,24,Michael D. Chandler
THOMAS,610504,POINT (-87.67754184981871 41.82777491308939),3625 S Hoyne Ave,60609,41.827775,-87.677542,Network 8,District,ES,PK,1(773)535-4088,8,MCKINLEY PARK,12,George A. Cardenas
TEAM HS,610506,POINT (-87.63301879085243 41.78148490334858),6201 S Stewart Ave,60621,41.781485,-87.633019,Network 11,District,HS,"9, 10, 11, 12",1(773)535-3530,11,ENGLEWOOD,20,Willie B. Cochran
AIR FORCE HS,610513,POINT (-87.63275698281277 41.828145321834505),3630 S Wells St,60609,41.828145,-87.632757,SLA,District,HS,"9, 10, 11, 12",1(773)535-1590,6,ARMOUR SQUARE,11,James A. Balcer
VOISE HS,610518,POINT (-87.76191637311881 41.885993286649324),231 N Pine Ave,60644,41.885993,-87.761916,Network 3,District,HS,"9, 10, 11, 12",1(773)534-0660,3,AUSTIN,37,Emma M. Mitts
LASALLE II,610520,POINT (-87.67369603159537 41.90291445672382),1148 N Honore St,60622,41.902914,-87.673696,Network 6,District,ES,"PK, K, 1, 2, 3, 4, 5, 6, 7, 8",1(773)534-0490,6,WEST TOWN,1,Proco (Joe) Moreno III
DAVIS M,610521,POINT (-87.66652988366556 41.77122111100117),6730 S Paulina St,60636,41.771221,-87.66653,Network 11,District,ES,"K, 1, 2, 3, 4, 5, 6, 7, 8",1(773)535-9120,11,WEST ENGLEWOOD,16,JoAnn Thompson
EDISON PARK,610523,POINT (-87.81377123423816 41.99423794930761),6220 N Olcott Ave,60631,41.994238,-87.813771,Network 1,District,ES,"PK, K, 1, 2, 3, 4, 5, 6, 7, 8",1(773)534-0960,1,NORWOOD PARK,41,Mary O'Connor
ALCOTT HS,610524,POINT (-87.68056201292157 41.935794555495015),2957 N Hoyne Ave,60618,41.935795,-87.680562,Network 4,District,HS,"9, 10, 11, 12",1(773)534-5970,4,NORTH CENTER,32,Scott Waguespack
OGDEN HS,610529,POINT (-87.65940468390802 41.89354763742638),1250 W Erie St,60642,41.893548,-87.659405,Network 6,District,HS,"6, 7, 8, 9, 10, 11, 12",1(773)534-0866,6,WEST TOWN,1,Proco (Joe) Moreno III
SOUTH SHORE,610530,POINT (-87.59039610192795 41.767755108445684),1415 E 70th St,60637,41.767755,-87.590396,Network 12,District,ES,"PK, K, 1, 2, 3, 4, 5, 6, 7, 8",1(773)535-8340,12,SOUTH SHORE,5,Leslie A. Hairston
HERNANDEZ,610532,POINT (-87.71136992166338 41.79347932957567),3510 W 55th St,60632,41.793479,-87.71137,Network 8,District,ES,"6, 7, 8",1(773)535-8850,8,GAGE PARK,14,Edward M. Burke
PRIETO,610533,POINT (-87.76578057074568 41.921317581925514),2231 N Central Ave,60639,41.921318,-87.765781,ISP,District,ES,"PK, K, 1, 2, 3, 4, 5, 6, 7, 8",1(773)534-0210,3,BELMONT CRAGIN,36,Nicholas Sposato
SKINNER NORTH,610534,POINT (-87.6448414953384 41.905109118819546),640 W Scott St,60610,41.905109,-87.644841,Network 4,District,ES,"K, 1, 2, 3, 4, 5, 6, 7, 8",1(773)534-8500,4,NEAR NORTH SIDE,27,"Walter Burnett, Jr."
CAMRAS,610539,POINT (-87.77012725781505 41.93493062213945),3000 N Mango Ave,60634,41.934931,-87.770127,Network 3,District,ES,"PK, K, 1, 2, 3, 4, 5, 6, 7, 8",1(773)534-2960,3,BELMONT CRAGIN,30,Ariel E. Reboyras
LORCA,610541,POINT (-87.72478312317251 41.9400259129367),3231 N Springfield Ave,60618,41.940026,-87.724783,Network 4,District,ES,"PK, K, 1, 2, 3, 4, 5, 6, 7, 8",1(773)534-0950,4,AVONDALE,30,Ariel E. Reboyras
WEST RIDGE,610542,POINT (-87.70591720544945 42.00295899409873),6700 N Whipple St,60645,42.002959,-87.705917,Network 2,District,ES,"PK, K, 1, 2, 3, 4, 5, 6, 7, 8",1(773)534-8250,2,WEST RIDGE,50,Debra L. Silverstein
SOLORIO HS,610543,POINT (-87.71105882230168 41.79520055470527),5400 S St Louis Ave,60632,41.795201,-87.711059,AUSL,District,HS,"9, 10, 11, 12",1(773)535-9070,8,GAGE PARK,14,Edward M. Burke
AZUELA,610544,POINT (-87.73992023347819 41.77107907225546),4707 W Marquette Rd,60629,41.771079,-87.73992,Network 10,District,ES,"PK, K, 1, 2, 3, 4, 5, 6, 7, 8",1(773)535-7395,10,WEST LAWN,13,Marty Quinn
SOUTH SHORE INTL HS,610547,POINT (-87.57635263812654 41.7587916625376),1955 E 75th St,60649,41.758792,-87.576353,Network 12,District,HS,"9, 10, 11, 12",1(773)535-8351,12,SOUTH SHORE,8,Michelle A. Harris
STEM,610548,POINT (-87.66496913288216 41.868575878810084),1522 W Fillmore St,60607,41.868576,-87.664969,Network 6,District,ES,"K, 1, 2, 3, 4, 5, 6, 7",1(773)534-7300,6,NEAR WEST SIDE,28,Jason C. Ervin
BANNER WEST HS,610555,POINT (-87.75406405283628 41.89567772457178),819 N Leamington Ave,60651,41.895678,-87.754064,Options,ALOP,HS,"9, 10, 11, 12",1(773)854-1188,3,AUSTIN,37,Emma M. Mitts
PATHWAYS - ASHBURN HS,610557,POINT (-87.70406006745607 41.73523902190375),3284 W 87th St,60652,41.735239,-87.70406,Options,ALOP,HS,"9, 10, 11, 12",1(773)434-6300,10,ASHBURN,18,Lona Lane
GOODE HS,610558,POINT (-87.70734534775977 41.75374980207247),7651 S Homan Ave,60652,41.75375,-87.707345,Network 10,District,HS,"9, 10, 11, 12",1(773)535-7875,10,ASHBURN,18,Lona Lane
SHIELDS MIDDLE,610559,POINT (-87.68977977296805 41.8064914104356),2611 W 48th St,60632,41.806491,-87.68978,Network 8,District,ES,"5, 6, 7, 8",1(773)535-7115,8,BRIGHTON PARK,14,Edward M. Burke
CRANE MEDICAL HS,610561,POINT (-87.68330134670538 41.87694744336734),2245 W Jackson Blvd,60612,41.876947,-87.683301,Network 6,District,HS,"9, 10, 11",1(773)534-7600,6,NEAR WEST SIDE,27,"Walter Burnett, Jr."
BACK OF THE YARDS HS,610563,POINT (-87.67754136778272 41.808412542810615),2111 W 47th St,60609,41.808413,-87.677541,Network 8,District,HS,"9, 10, 11",1(773)535-7320,8,NEW CITY,15,Toni L. Foulkes
DISNEY II HS,610564,POINT (-87.72136351148762 41.95248766904792),3900 N Lawndale Ave,60618,41.952488,-87.721364,ISP,District,HS,"7, 8, 9, 10, 11",1(773)534-5010,1,IRVING PARK,45,John Arena
CAMELOT - EXCEL ENGLEWOOD HS,610565,POINT (-87.64912434651714 41.763895973142),7141 S Morgan St,60621,41.763896,-87.649124,Options,Contract,HS,"9, 10, 11, 12",1(773)675-6674,11,ENGLEWOOD,6,Roderick T. Sawyer
MAGIC JOHNSON - N LAWNDALE HS,610566,POINT (-87.70660367628103 41.86647785073419),3222 W Roosevelt Rd,60624,41.866478,-87.706604,Options,ALOP,HS,"9, 10, 11, 12",1(773)826-1137,5,NORTH LAWNDALE,24,Michael D. Chandler
MAGIC JOHNSON - ROSELAND HS,610567,POINT (-87.64269696855584 41.69515983904818),10928 S. Halsted Ave,60661,41.69516,-87.642697,Options,ALOP,HS,"9, 10, 11, 12",1(773)468-1505,13,MORGAN PARK,34,Carrie M. Austin
PATHWAYS - AVONDALE HS,610568,POINT (-87.70520632194193 41.939433208880146),3100 W Belmont Ave,60618,41.939433,-87.705206,Options,ALOP,HS,"9, 10, 11, 12",1(773)588-5007,4,AVONDALE,33,Deborah Mell
OMBUDSMAN - NORTHWEST HS,610569,POINT (-87.80668177202595 42.01717123859378),7500 N Harlem Ave,60631,42.017171,-87.806682,Options,ALOP,HS,"9, 10, 11, 12",1(312)806-9022,1,EDISON PARK,41,Mary O'Connor
OMBUDSMAN - SOUTH HS,610570,POINT (-87.68363453098567 41.78302658100531),6057 S. Western Ave,60635,41.783027,-87.683635,Options,ALOP,HS,"9, 10, 11, 12",1(773)498-5085 x6803,10,CHICAGO LAWN,16,JoAnn Thompson
OMBUDSMAN - WEST HS,610571,POINT (-87.68784229473063 41.87467299423606),2401 W. Congress Pkwy,60612,41.874673,-87.687842,Options,ALOP,HS,"9, 10, 11, 12",1(312)243-1550,6,NEAR WEST SIDE,28,Jason C. Ervin
PROLOGUE - WINNIE MANDELA HS,610574,POINT (-87.5758830347429 41.752015881353145),7847 S Jeffery Blvd,60649,41.752016,-87.575883,Options,ALOP,HS,"9, 10, 11, 12",1(773)-375-052,12,SOUTH SHORE,8,Michelle A. Harris
MAGIC JOHNSON - ENGLEWOOD HS,610582,POINT (-87.64628397589932 41.76872909028501),845 W. 69th Street,60621,41.768729,-87.646284,Options,ALOP,HS,"9, 10, 11, 12",1(773)962-9256,11,ENGLEWOOD,6,Roderick T. Sawyer
MAGIC JOHNSON - HUMBOLDT PK HS,610580,POINT (-87.68788899354239 41.90292503158993),2421 W. Division,60622,41.902925,-87.687889,Options,ALOP,HS,"9, 10, 11, 12",1(773)276-0620,5,WEST TOWN,26,Roberto Maldonado
GREAT LAKES,400168,POINT (-87.55990690198568 41.74267138138489),8401 S Saginaw Ave,60617,41.742671,-87.559907,Charter,Charter,ES,"K, 1, 2",1(773)503-3040,12,SOUTH CHICAGO,7,Natashia Holmes
CAMELOT SAFE ES,610572,POINT (-87.55051275939341 41.75311714108796),7877 S Coles Ave,60603,41.753117,-87.550513,Options,Safe,ES,"4, 5, 6, 7, 8",1(773)902-2487,12,SOUTH SHORE,7,Natashia Holmes
ALCOTT ES,609774,POINT (-87.64641313687183 41.9298498518581),2625 N Orchard St,60614,41.92985,-87.646413,Network 4,District,ES,"PK, K, 1, 2, 3, 4, 5, 6, 7, 8",1(773)534-5460,4,LINCOLN PARK,43,Michele Smith
SPRY ES,610184,POINT (-87.70018447189595 41.84774672195404),2400 S Marshall Blvd,60623,41.847747,-87.700184,Network 7,District,ES,"PK, K, 1, 2, 3, 4, 5, 6, 7, 8",1(773)534-1700,7,SOUTH LAWNDALE,12,George A. Cardenas
OGDEN ES,610101,POINT (-87.62929656996623 41.899976489128576),24 W Walton St,60610,41.899976,-87.629297,Network 6,District,ES,"K, 1, 2, 3, 4, 5",1(773)534-8110,6,NEAR NORTH SIDE,2,Bob Fioretti
DISNEY II ES,610515,POINT (-87.73067837579401 41.950460504979596),3815 N Kedvale Ave,60641,41.950461,-87.730678,ISP,District,ES,"PK, K, 1, 2, 3, 4, 5, 6",1(773)534-3750,1,IRVING PARK,45,John Arena
CAMELOT SAFE HS,610573,POINT (-87.55180355213128 41.75311490082064),7877 S Coles Ave,60603,41.753115,-87.551804,Options,Safe,HS,"9, 10, 11, 12",1(773)902-2487,12,SOUTH SHORE,7,Natashia Holmes
CAMELOT SAFE - GARFIELD HS,610585,POINT (-87.73948468858828 41.884503267058406),230 N. Kolmar Ave,60624,41.884503,-87.739485,Options,Safe,HS,"9, 10, 11, 12",TBD,5,WEST GARFIELD PARK,28,Jason C. Ervin
MAGIC JOHNSON - BRAINERD HS,610581,POINT (-87.66313972969736 41.73149230200658),8908 S. Ashland Ave,60620,41.731492,-87.66314,Options,ALOP,HS,"9, 10, 11, 12",1(773)238-2677,11,WASHINGTON HEIGHTS,21,"Howard B. Brookins, Jr."
CAMELOT SAFE - GARFIELD ES,610584,POINT (-87.73948390563437 41.883605683825145),230 N. Kolmar Ave,60624,41.883606,-87.739484,Options,Safe,ES,"6, 7, 8",TBD,5,WEST GARFIELD PARK,28,Jason C. Ervin
ASPIRA - BUSINESS & FINANCE HS,400172,POINT (-87.71820414383802 41.93572646632058),2989 N. Milwaukee Ave,60618,41.935726,-87.718204,Charter,Charter,HS,9,1(773)252-0970,4,AVONDALE,30,Ariel E. Reboyras
MOVING EVEREST,400178,POINT (-87.75542435402248 41.888262580706225),416 N. Laramie Ave,60644,41.888259,-87.755281,Charter,Charter,ES,"K, 1",TBD,3,AUSTIN,37,Emma M. Mitts
